id,name,latitude,longitude,address,currently_open,pv_current_in,pv_energy_level,rate_current,rate_predicted,active,last_updated
61bf163e-83fa-45f0-84a9-ba47c2e3359e,Queenstown/Science Park Dr/DNV GL/Lobby,1.29014253616333,103.786895751953,"16, Science Park Dr",1,0,0,0.39,,1,2023-07-16 13:15:12.027841
5c0f30d7-8a28-4fa6-b56f-e397eaa40b82,Central/Claymore Rd/21,1.3077385,103.8301985,Claymore Road 21,1,0,0,0.22,,1,2023-07-16 13:15:12.027841
9e0fa02d-cfe7-4497-9682-7c700c2a165f,Queenstown/Holland Dr/Blk 18/Deck 1A,1.3118,103.79207,18 Holland Drive,1,0,0,0.36,,1,2023-07-16 13:15:12.027841
95ceebcf-6835-49de-9358-2ab6d652fb3d,Central/Mohamed Sultan Rd/28,1.29288,103.8413,28 Mohamed Sultan Road,1,0,0,0.28,,1,2023-07-16 13:15:12.027841
efddb775-eeca-4ac2-ad7d-8659eb514671,Yishun/Yishun St 22/Blk265,1.4369706,103.8383619,265 Yishun Street 22,1,0,0,0.26,,1,2023-07-16 13:15:12.027841
59c2e17c-15ce-4df0-b9c8-a2e087c10b12,Tampines/Simei St 1/Blk 108,1.343322,103.951077,108 Simei Street 1,1,0,0,0.27,,1,2023-07-16 13:15:12.027841
12677d70-d4e4-4209-9c0e-3bdf766ec763,Ang Mo Kio/Ang Mo Kio Av 4/Blk 157,1.3751449,103.839079,157 Ang Mo Kio Avenue 4,1,0,0,0.34,,1,2023-07-16 13:15:12.027841
48231d6d-0436-4870-9598-4decef30f88d,Tampines/Tampines St 41/Blk 420,1.357537,103.947125,420 Tampines Street 41,1,0,0,0.31,,1,2023-07-16 13:15:12.027841
f842dd7a-58ba-4ff9-83ce-947ba5a34ec8,Queenstown/Fusionopolis Pl/1/Deck B4,1.29866,103.78748,1 Fusionopolis Place,1,0,0,0.36,,1,2023-07-16 13:15:12.027841
00e2e13a-3a77-4e4c-b39d-9814a24d33b3,Tampines/Simei Street 1/Blk 132,1.3472048,103.9562201,132 Simei Street 1,1,0,0,0.31,,1,2023-07-16 13:15:12.027841
385983a3-86bd-4ac3-a563-c485b0c75472,Tampines/Tampines Avenue 4/Blk 902,1.351249,103.939541,902 Tampines Avenue 4,1,0,0,0.34,,1,2023-07-16 13:15:12.027841
29459344-96fb-4f48-952e-2d1069f56003,Queenstown/11 Biopolis Way/Helios/Deck B2,1.304152,103.791778,11 Biopolis Way,1,0,0,0.41,,1,2023-07-16 13:15:12.027841
4a8a8373-a23c-454a-bc83-dea8a3c2c607,Yishun/Yishun Ring Road/Blk 853,1.416593,103.836526,850 to 855 Yishun Ring Road,1,0,0,0.31,,1,2023-07-16 13:15:12.027841
9f2bb29a-bd98-4e91-98e2-409ac4c6a256,Geylang/Haig Road/Blk 8,1.31379,103.896451,8 Haig Road,1,0,0,0.23,,1,2023-07-16 13:15:12.027841
ca139d63-9fe2-4def-b521-433908d707fd,Clementi/Clementi West Street 1/Blk 602,1.304373,103.766838,Blk 602 Clementi West Street 1,1,0,0,0.39,,1,2023-07-16 13:15:12.027841
e3395791-da31-48d7-81c1-118f885e3036,Jurong West/Boon Lay Drive/Blk 188,1.344062,103.711245,188 Boon Lay Drive,1,0,0,0.34,,1,2023-07-16 13:15:12.027841
68de19c3-8ea7-4a7a-b859-7ca64902f70f,Bedok/Chai Chee Avenue/Blk 37,1.325325,103.925817,37 Chai Chee Avenue,1,0,0,0.29,,1,2023-07-16 13:15:12.027841
27dc1142-99b1-4aad-9475-e79801fee33f,Tampines/Tampines Street 22/Blk 274,1.348438,103.950524,Blk 272/275 Tampines Street 22,1,0,0,0.35,,1,2023-07-16 13:15:12.027841
a1c43579-2123-4281-a8d1-023e1ebe2128,Bukit Merah/Bukit Merah View/Blk 129A/Deck 2A,1.283532,103.823372,129A Bukit Merah View,1,0,0,0.45,,1,2023-07-16 13:15:12.027841
be02f428-9861-4285-ab23-bb9bba17da2a,Bukit Timah/Queens Road/Blk 4/Deck 1A,1.318738,103.808169,4 Queen's Road,1,0,0,0.37,,1,2023-07-16 13:15:12.027841
e680fd05-c5a2-4fa3-a364-3bd70066d03f,Hougang/Hougang Street 61/Blk 688,1.37595,103.885492,Blk 685/691 Hougang Street 61,1,0,0,0.33,,1,2023-07-16 13:15:12.027841
58229332-bbfa-446f-8889-501f0803e482,Yishun/Yishun Avenue 3/Blk 769,1.424284,103.833346,773 Yishun Avenue 3,1,0,0,0.3,,1,2023-07-16 13:15:12.027841
18f8ac22-22a4-4e68-8db5-3a8a47fe6562,Yishun/Yishun Ring Road/Blk 809,1.416833,103.83048,800-812 Yishun Ring Road,1,0,0,0.31,,1,2023-07-16 13:15:12.027841
d597295c-2620-4e90-ad31-c3b59a100f87,Geylang/Eunos Crescent/Blk 31A/Deck 1A,1.320225,103.9017609,31A Eunos Crescent,1,0,0,0.38,,1,2023-07-16 13:15:12.027841
bd455024-cd37-4206-924a-9d821151079b,Clementi/West Coast Road/Blk 708,1.306052,103.761812,704-714 West Coast Road,1,0,0,0.32,,1,2023-07-16 13:15:12.027841
5111beb2-4e33-4043-b372-b2cb6350c175,Bedok/Bedok South Avenue 3/Behind Blk 69,1.319455,103.943098,69 Bedok South Avenue 3,1,0,0,0.4,,1,2023-07-16 13:15:12.027841
1e6dcbd2-cc43-4bb9-a002-3068b8b33eee,Kembangan/21 Jalan Masjid/Beside Kembangan Plaza,1.320397,103.912296,21 Jalan Masjid,1,0,0,0.48,,1,2023-07-16 13:15:12.027841
50b94806-d71b-463e-968c-c0bdadd349bb,Bukit Batok/Bukit Batok Street 52/Blk 537,1.355013,103.751187,537 Bukit Batok Street 52,1,0,0,0.41,,1,2023-07-16 13:15:12.027841
16cf217f-9834-48c1-8e9e-d2ac9fc71911,Jurong East/8 Jurong Town Hall Road/JTC Summit/Deck B2,1.33115,103.74184,8 Jurong Town Hall Road,1,0,0,0.54,,1,2023-07-16 13:15:12.027841
6172a17b-545b-41e1-b8e8-d1d29b778b0e,Ang Mo Kio/Ang Mo Kio Avenue 9/Blk 627,1.382052,103.841393,627 Ang Mo Kio Avenue 9,1,0,0,0.38,,1,2023-07-16 13:15:12.027841
5916f753-1cb7-43ed-b96a-653f45eb68c9,Punggol/Punggol Place/Blk 273/Deck 1,1.402703,103.901963,273 Punggol Place,1,0,0,0.36,,1,2023-07-16 13:15:12.027841
ea9aa46b-523a-4a55-abb5-fd222abb5c34,Tampines/Tampines Street 91/Blk 921A/Deck 1A,1.347284,103.941371,921A Tampines Street 91,1,0,0,0.44,,1,2023-07-16 13:15:12.027841
741833bd-745e-4eff-a4a2-605b868f589b,Jurong East/Jurong East Street 21/Blk 230,1.341813,103.737565,215-230 Jurong East Street 21,1,0,0,0.41,,1,2023-07-16 13:15:12.027841
3324e396-dc91-4856-a1b0-52b27688a3b1,Ang Mo Kio/Ang Mo Kio Avenue 6/Blk 123,1.370392,103.844376,123 Ang Mo Kio Avenue 6,1,0,0,0.38,,1,2023-07-16 13:15:12.027841
3d61a7e3-57d2-4d05-b80e-f155affea32d,Jurong West/Jurong West Street 81/Blk 854A/Deck 1A,1.347775,103.696495,854A Jurong West Street 81,1,0,0,0.5,,1,2023-07-16 13:15:12.027841
51d77c73-7975-49a0-938f-cf5673e44488,Clementi/Clementi Avenue 2/Blk 334/Beside Caltex,1.314724,103.768296,334 Clementi Avenue 2,1,0,0,0.48,,1,2023-07-16 13:15:12.027841
c95fbf5f-5509-4485-8eba-5e6995e9f354,Bukit Batok/Bukit Batok Street 34/Blk 346,1.362466,103.750963,346 Bukit Batok Street 34,1,0,0,0.41,,1,2023-07-16 13:15:12.027841
d1757559-24af-46c8-adeb-74ac2cfbb40d,Tampines/Tampines Street 83/Blk 851,1.353051,103.935061,851 Tampines Street 83,1,0,0,0.35,,1,2023-07-16 13:15:12.027841
d223c81b-2b3d-4d24-b180-7c24f8e891b4,Serangoon/Upper Serangoon View/Blk 476/Deck 3,1.37738,103.903721,476 Upper Serangoon View,1,0,0,0.45,,1,2023-07-16 13:15:12.027841
2bfd7bd3-4a12-409d-82a6-6d88ce2f6f40,Bishan/Bishan Street 13/Blk 186,1.349585,103.852838,186 Bishan Street 13,1,0,0,0.31,,1,2023-07-16 13:15:12.027841
1a4b453d-cba7-4edd-8137-918bf3cd1a94,Geylang/Ubi Avenue 1/Blk 326,1.327319,103.904146,326 Ubi Avenue 1,1,0,0,0.28,,1,2023-07-16 13:15:12.027841
2f5ca164-a4e6-4bcf-bcf6-f77422fe93e1,Geylang/52 Sims Place/Along Sims Place,1.316531,103.880106,52 Sims Place,1,0,0,0.38,,1,2023-07-16 13:15:12.027841
2d8e73b1-e16e-4afd-ade1-3d4724175ca7,Marine Parade/Across 343 Telok Karau Road/Beside St'Patrick's Court,1.308605,103.912432,Across 343 Telok Kurau Road,1,0,0,0.67,,1,2023-07-16 13:15:12.027841
72bf5011-0d86-4731-ba58-2f57ed01473e,Hougang/Hougang Street 92/Blk 941A/Deck 1A,1.374287,103.87912,941A Hougang Street 92,1,0,0,0.42,,1,2023-07-16 13:15:12.027841
21c0d29d-23ef-410d-b5fb-a03eda98d8f7,Jurong West/Jurong West Street 91/Blk 903,1.339625,103.686256,903 Jurong West Street 91,1,0,0,0.41,,1,2023-07-16 13:15:12.027841
991d19ff-99dc-43da-8833-e0fb10f434f4,Toa Payoh/Potong Pasir Avenue 1/Blk 117,1.336558,103.863104,117 Potong Pasir Avenue 1,1,0,0,0.39,,1,2023-07-16 13:15:12.027841
07a5aa7c-d46a-45b6-baf8-7d21c1f234a5,Yishun/Yishun Ring Road/Blk 165,1.4355487,103.8320274,165 Yishun Ring Road,1,0,0,0.31,,1,2023-07-16 13:15:12.027841
5d4e14f6-801a-4a1f-a951-18e9302d0118,Punggol/Punggol Walk/Blk 213/Deck 1A,1.400134,103.898428,213 Punggol Walk,1,0,0,0.36,,1,2023-07-16 13:15:12.027841
a5644a13-211e-4e9a-adbf-6f8633c44511,Hougang/Hougang Avenue 2/Blk 707,1.366507,103.888389,707 Hougang Avenue 2,1,0,0,0.32,,1,2023-07-16 13:15:12.027841
6b26eeb0-f7ec-4f6d-9cfa-ddfa55cb1b49,Bedok/Bedok Reservoir Road/Blk 609,1.33135,103.912391,609 Bedok Reservoir Road,1,0,0,0.34,,1,2023-07-16 13:15:12.027841
19bf4017-38c4-460a-9771-4906cc910898,Jurong East/Jurong East Street 13/Blk 116,1.339583,103.734451,116 Jurong East Street 13,1,0,0,0.41,,1,2023-07-16 13:15:12.027841
3c0b412b-f470-4049-822d-9b18f3ab8a4f,Bukit Batok/Bukit Batok East Avenue 5/Blk 241A/Deck 1A,1.350931,103.755227,241A Bukit Batok East Avenue 5,1,0,0,0.54,,1,2023-07-16 13:15:12.027841
a700055e-27e7-4db8-be73-829aa26529ea,Hougang/Hougang Street 31/Blk 373A/Deck B1B,1.362366,103.890053,373A Hougang Street 31,1,0,0,0.43,,1,2023-07-16 13:15:12.027841
943d0961-23c6-44fd-9183-787a3b297692,Pasir Ris/Pasir Ris Drive 6/Blk 417,1.372102,103.955033,417 Pasir Ris Drive 6,1,0,0,0.35,,1,2023-07-16 13:15:12.027841
f470392a-6220-4229-81a7-d780fb430277,Serangoon/Serangoon Avenue 4/Blk 212,1.356934,103.873229,212 Serangoon Avenue 4,1,0,0,0.36,,1,2023-07-16 13:15:12.027841
0556951d-8d97-4f52-a5e3-9369785fd9eb,Hougang/Hougang Avenue 9/Blk 966A/Deck 1A,1.377891,103.877869,966A Hougang Avenue 9,1,0,0,0.41,,1,2023-07-16 13:15:12.027841
a13704da-695c-4ac4-9e07-95cdd05e8739,Sengkang/Anchorvale Street/Blk 329/Deck 1A,1.39634,103.889296,329 Anchorvale Street,1,0,0,0.42,,1,2023-07-16 13:15:12.027841
3de41190-a799-4b9a-b500-55371d8f95c3,Choa Chu Kang/Choa Chu Kang Crescent/Blk 678A/Deck 1B,1.401978,103.74481,678A Choa Chu Kang Crescent,1,0,0,0.53,,1,2023-07-16 13:15:12.027841
d7a40c8f-31fe-49ff-8297-ed2a4d55e56d,Ang Mo Kio/Ang Mo Kio Avenue 4/Blk 114,1.372293,103.836312,114 Ang Mo Kio Avenue 4,1,0,0,0.38,,1,2023-07-16 13:15:12.027841
ee0434e3-78ab-4184-a81d-ae45935ca62f,Kallang/Bendemeer Road/Blk 10/Deck 1A,1.315203,103.860333,10 Bendemeer Road,1,0,0,0.37,,1,2023-07-16 13:15:12.027841
9f83b703-4076-4529-92b1-b0ee28767d2a,Ang Mo Kio/Ang Mo Kio Avenue 6/Blk 647,1.378898,103.843833,647 Ang Mo Kio Avenue 6,1,0,0,0.38,,1,2023-07-16 13:15:12.027841
a4c22839-40e3-47c1-b443-5c14c04ee317,Bedok/Bedok North Street 3/Blk 534,1.333285,103.92394,534 Bedok North Street 3,1,0,0,0.34,,1,2023-07-16 13:15:12.027841
9aa1df60-6c60-46ba-967b-148e51f04f64,Queenstown/Commonwealth Drive/Blk 117 (Beside Blk 117 Open Space Carpark),1.306972,103.799566,117 Commonwealth Drive,1,0,0,0.73,,1,2023-07-16 13:15:12.027841
04cf9d1e-5663-41ba-b0cc-149838d9cf4c,Kallang/Jalan Rajah/Blk 103,1.327411,103.852514,103 Jalan Rajah,1,0,0,0.27,,1,2023-07-16 13:15:12.027841
e2de2b1a-ed38-4844-b6db-916a5d481bf0,Bukit Batok/Bukit Batok Street 33/Blk 319,1.361125,103.746545,319 Bukit Batok Street 33,1,0,0,0.41,,1,2023-07-16 13:15:12.027841
7f389fde-d9d9-45ef-8f0a-d3a1d3272f57,Bishan/Bishan Street 12/Blk 112,1.346756,103.848871,112 Bishan Street 12,1,0,0,0.31,,1,2023-07-16 13:15:12.027841
3fba2f3a-717e-49c2-8aec-9ecb5625e154,Sengkang/Fernvale Street/Blk 472/Deck 1A,1.396952,103.881727,472 Fernvale Street,1,0,0,0.4,,1,2023-07-16 13:15:12.027841
57be9c0a-ee65-4629-93b7-d3a4f4b5e6a7,Yishun/Yishun Street 51/Blk 513/Deck 2,1.415984,103.844221,513 Yishun Street 51,1,0,0,0.38,,1,2023-07-16 13:15:12.027841
51dbcc38-1034-4275-980a-d619f2abe43a,Sengkang/Compassvale Road/Blk 203/Deck 1A,1.387328,103.895393,203 Compassvale Road,1,0,0,0.41,,1,2023-07-16 13:15:12.027841
ed82deb1-8f85-4ef7-855e-8ff6eae6c6d5,Serangoon/Serangoon North Avenue 4/Blk 512A/Deck 1B,1.371005,103.8751,512A Serangoon North Avenue 4,1,0,0,0.51,,1,2023-07-16 13:15:12.027841
62cf130e-fdba-4717-b17c-88a1f86157dd,Ang Mo Kio/Ang Mo Kio Street 51/Blk 590/Deck 1A,1.371634,103.853064,590 Ang Mo Kio Street 51,1,0,0,0.47,,1,2023-07-16 13:15:12.027841
c2c556dc-1f3e-4c3e-8c4b-8c7a95f021e9,Sengkang/Compassvale Walk/Blk 236A/Deck 1B,1.390343,103.900021,236A Compassvale Walk,1,0,0,0.42,,1,2023-07-16 13:15:12.027841
23ae5f9c-881a-48ba-b013-9d32e21b78a4,Queenstown/Ghim Moh Road/Blk 2A/Deck 1,1.312774,103.787393,2A Ghim Moh Road,1,0,0,0.38,,1,2023-07-16 13:15:12.027841
13851e57-6e31-4c19-82b3-1ae897761296,Central/9 Raffles Place/Republic Plaza/Level 4,1.283658,103.850455,"9 Raffles Place, Republic Plaza",1,0,0,0.46,,1,2023-07-16 13:15:12.027841
ea7393cf-b760-4a47-9959-287a042def92,Choa Chu Kang/Choa Chu Kang Avenue 4/Lot one/Deck B2,1.38525,103.744922,21 Choa Chu Kang Avenue 4,1,0,0,0.52,,1,2023-07-16 13:15:12.027841
1421a1c5-e51a-4725-aad1-951eca0f1d3b,Sentosa/50 Beach View/Basement/Beach Station(Near Beach Station Escalator),1.251171,103.819188,50 Beach View,1,0,0,0.74,,1,2023-07-16 13:15:12.027841
628ea1e3-d448-4874-b2b5-d77d740142e4,Central/1 Esplanade Drive/Basement 1/Lift Lobby B,1.289691,103.85577,1 Esplanade Drive,1,0,0,0.49,,1,2023-07-16 13:15:12.027841
00916d01-bb81-4ccc-86c4-fe1886f6f042,Sentosa/1 Cove Avenue/Sentosa Cove/Blk B/Level 2,1.247741,103.840256,"1 Cove Avenue, Sentosa Cove",1,0,0,0.48,,1,2023-07-16 13:15:12.027841
8bdfc501-6872-49ac-a294-2df4ad3c5126,Central/3E River Valley Road/Clark Quay Blk E/Level 3,1.290715,103.846146,3E River Valley Road,1,0,0,0.53,,1,2023-07-16 13:15:12.027841
88ad513c-4402-45d9-90b0-f6a8b852c9c5,Kallang/Cambridge Road/Blk 43 (Opposite NTUC),1.314899,103.849479,43 Cambridge Road,1,0,0,0.45,,1,2023-07-16 13:15:12.027841
26912b5c-8526-4f3f-89e3-851b4941c0ca,Ang Mo Kio/Ang Mo Kio Avenue 4/Blk 110,1.370557,103.837923,110 Ang Mo Kio Avenue 4,1,0,0,0.38,,1,2023-07-16 13:15:12.027841
b9c36684-05bc-440a-b1f2-ac72c90e1605,Yishun/Yishun Ring Road/Blk 781,1.422343,103.832121,781 Yishun Ring Road,1,0,0,0.31,,1,2023-07-16 13:15:12.027841
0a6c92df-8e56-4a72-a543-1d562d57d0aa,Tampines/Simei Road/Blk 155,1.344756,103.958393,155 Simei Road,1,0,0,0.27,,1,2023-07-16 13:15:12.027841
3bb628d7-af3d-4768-aad9-72bd340046ac,Bukit Timah/170 Upper Bukit Timah Road (Infront Bukit Timah Shopping Centre),1.343312,103.775637,170 Upper Bukit Timah Road,1,0,0,0.76,,1,2023-07-16 13:15:12.027841
28442259-b709-4d0c-9461-1f51afcc5912,Hougang/Hougang Avenue 6/Blk 524,1.373931,103.890352,524 Hougang Avenue 6,1,0,0,0.32,,1,2023-07-16 13:15:12.027841
c747ce70-f5dc-47b4-89bb-e0198ae27792,Ang Mo Kio/Ang Mo Kio Avenue 10/Blk 449,1.36805,103.8558,449 Ang Mo Kio Avenue 10,1,0,0,0.39,,1,2023-07-16 13:15:12.027841
5e55a706-f2bd-4d93-bfe3-11f0401e1638,Tampines/Tampines Street 72/Blk 742A/Deck 1A,1.359905,103.934176,742A Tampines Street 72,1,0,0,0.44,,1,2023-07-16 13:15:12.027841
8e51526d-cd55-42b7-a493-a8bae655bbd5,Novena/Tan Tock Seng Hospital/Basement 4/Near Lift Lobby D,1.321282,103.84588,11 Jalan Tan Tock Seng,1,0,0,0.58,,1,2023-07-16 13:15:12.027841
15d5630a-d8e5-4052-a5d5-3591395df77d,Ang Mo Kio/Ang Mo Kio Avenue 8/Blk 510,1.373288,103.849485,510 Ang Mo Kio Avenue 8,1,0,0,0.38,,1,2023-07-16 13:15:12.027841
d82abdb0-39ad-4a3a-b3df-882c47424334,Ang Mo Kio/Ang Mo Kio Avenue 10/Blk 559,1.371022,103.857277,559 Ang Mo Kio Avenue 10,1,0,0,0.39,,1,2023-07-16 13:15:12.027841
f3cb607d-e4de-4af2-a51e-24f7f8136160,Pasir Ris/Pasir Ris Street 12/Blk 108A/Deck 1A,1.367987,103.956949,108A Pasir Ris Street 12,1,0,0,0.46,,1,2023-07-16 13:15:12.027841
a3a7e684-28c4-4384-aa60-74a31ce50fa6,Woodlands/Woodlands Circle/Blk 747A/Deck 1A,1.443332,103.795599,747A Woodlands Circle,1,0,0,0.43,,1,2023-07-16 13:15:12.027841
c774cfc8-ad04-44e4-9961-521890442f7f,Kallang/Saint George's Road/Blk 22,1.32537,103.862659,22 Saint George's Road,1,0,0,0.34,,1,2023-07-16 13:15:12.027841
2ffbdc2f-cb92-4d08-a4bf-efe55bc0d6d7,Punggol/Edgedale Plains/Blk 172/Deck 1A,1.39557,103.911788,172 Edgedale Plains,1,0,0,0.39,,1,2023-07-16 13:15:12.027841
a562115e-2030-4578-b0ee-9c1b70b352b1,Bukit Panjang/Petir Road/Blk 140,1.375471,103.769068,140 Petir Road,1,0,0,0.32,,1,2023-07-16 13:15:12.027841
b1c900e5-54f5-4922-9c77-ab213f92195d,Jurong East/Jurong East Street 32/Blk 307,1.346612,103.734402,307 Jurong East Street 32,1,0,0,0.41,,1,2023-07-16 13:15:12.027841
d4f8ad9e-d7bf-48fb-970e-2117e975f6a3,Bedok/Chai Chee Street/Blk 53,1.328941,103.921295,53 Chai Chee Street,1,0,0,0.29,,1,2023-07-16 13:15:12.027841
3ccfeeab-9247-46e8-9a50-730779822787,Bedok/Bedok North Road/Blk 425,1.329159,103.92944,425 Bedok North Road,1,0,0,0.3,,1,2023-07-16 13:15:12.027841
234e5076-3bc9-4d1d-8fbc-e6dfbaa5118b,Tampines/Tampines Street 11/Blk 107,1.348142,103.947926,107 Tampines Street 11,1,0,0,0.35,,1,2023-07-16 13:15:12.027841
34762995-73af-4eb2-b840-a888c70b97ea,Queenstown/Ghim Moh Link/Blk 24/Deck 1B,1.308908,103.785607,24 Ghim Moh Link,1,0,0,0.39,,1,2023-07-16 13:15:12.027841
8c6bca8f-213a-479f-8067-24e2f338c2c3,Jurong West/Yung An Road/Blk 364/Deck 1A,1.337184,103.720457,364 Yung An Road,1,0,0,0.4,,1,2023-07-16 13:15:12.027841
5772588e-f056-4b33-951a-a124cb424940,Clementi/Clementi Avenue 3/Blk 440/Deck 1A,1.31642,103.76392,440 Clementi Avenue 3,1,0,0,0.42,,1,2023-07-16 13:15:12.027841
f12eae72-03e7-4c2f-8768-21cb69edbc59,Yishun/Yishun Street 31/Blk 333/Deck 1A,1.43154,103.844951,333 Yishun Street 31,1,0,0,0.39,,1,2023-07-16 13:15:12.027841
3d2a191f-ff5c-4d4b-9cab-ab13ed84cd47,Pasir Ris/Pasir Ris Street 71/Blk 762A/Deck 1A,1.376083,103.9333,762A Pasir Ris Street 71,1,0,0,0.46,,1,2023-07-16 13:15:12.027841
ab9645b4-bad4-471a-a5e9-e2209b917bb7,Bukit Merah/Bukit Purmei Road/Blk 109,1.273803,103.8258,109 Bukit Purmei Road,1,0,0,0.37,,1,2023-07-16 13:15:12.027841
fb739ba5-f3bd-44a1-acd5-5be8e22b8422,Toa Payoh/Lorong 8 Toa Payoh/Blk 213,1.341068,103.8551,213 Lorong 8 Toa Payoh,1,0,0,0.36,,1,2023-07-16 13:15:12.027841
863ec3e7-ea14-429e-bc40-8a6724df3822,Choa Chu Kang/Choa Chu Kang Central/Blk 205,1.381051,103.7481,205 Choa Chu Kang Central,1,0,0,0.43,,1,2023-07-16 13:15:12.027841
f8d31490-9e19-400a-8476-93a03b172b46,Tampines/Tampines Street 22/Blk 299A,1.350399,103.95424,299A Tampines Street 22,1,0,0,0.36,,1,2023-07-16 13:15:12.027841
397709b3-dc0c-4519-b3dd-9556226e3872,Clementi/Clementi West Street 2/Blk 727,1.304208,103.763558,727 Clementi West Street 2,1,0,0,0.39,,1,2023-07-16 13:15:12.027841
a79bf6ec-7ccd-4086-a506-ccde5dcc2807,Bukit Merah/Henderson Road/Blk 96/Deck 1A,1.287793,103.821375,96 Henderson Road,1,0,0,0.41,,1,2023-07-16 13:15:12.027841
7ee09c42-4109-4810-98a8-f00db3887e93,Bukit Batok/Bukit Batok West Avenue 5/Blk 436/Deck 1A,1.358769,103.739499,436 Bukit Batok West Avenue 5,1,0,0,0.53,,1,2023-07-16 13:15:12.027841
adcfdafd-7ba8-4e4e-9c44-98305323677d,Tampines/Tampines Avenue 8/Blk 879C/Deck 1A,1.351144,103.928663,879C Tampines Avenue 8,1,0,0,0.43,,1,2023-07-16 13:15:12.027841
bd5b0f4f-3b37-40fc-b575-be4daf85aa83,Punggol/Punggol Field/Blk 204/Deck B1,1.398494,103.90305,204 Punggol Field,1,0,0,0.37,,1,2023-07-16 13:15:12.027841
d5790016-3368-4794-b836-6f72ca4ee44c,Bukit Merah/Telok Blangah Rise/Blk 32,1.273125,103.82106,32 Telok Blangah Rise,1,0,0,0.37,,1,2023-07-16 13:15:12.027841
31d26dc8-6c45-4689-9de6-827bb8e2f371,Bedok/Bedok North Street 2/Blk 129,1.327761,103.93846,124 Bedok North Street 2,1,0,0,0.34,,1,2023-07-16 13:15:12.027841
519e553d-e408-473e-a866-e3972bbf9cbd,Marine Parade/Marine Terrace/Blk 59,1.305782,103.914158,59 Marine Terrace,1,0,0,0.35,,1,2023-07-16 13:15:12.027841
52dc9c40-00b5-4273-8897-adbe18052ef9,Central/109 North Bridge Road/Funan Mall/Basement 3/Lift Lobby B,1.291599,103.849823,109 North Bridge Road,1,0,0,0.64,,1,2023-07-16 13:15:12.027841
7c4d351a-5eee-42d0-813b-010dbc72921c,Central/252 North Bridge Road/Raffles City/Deck B3,1.2939583,103.8526163,252 North Bridge Road,1,0,0,0.5,,1,2023-07-16 13:15:12.027841
3a245095-d53f-477b-bef0-794ec6b03584,Orchard Central Supercharger,1.3007,103.83978,"181 Orchard Rd, Singapore, Singapore, 238896",1,0,0,0.28,,1,2023-07-16 13:15:12.027841
7777d5f0-f682-4695-8e90-d33250056e22,"Nissan Showroom, Johor Jaya",1.529448,103.816505,"1, Jalan Johor Jaya, Taman Perindustrian Plentong, 81750‎ Masai, ‎Johor, Malaysia",1,0,0,0.27,,1,2023-07-16 13:15:12.027841
2372a3ae-0325-421b-b75e-6e72eae08c84,Hard Rock Hotel Desaru Coast,1.540211,104.264246,"Jln Pantai 3, 81930 Bandar Penawar, Johor, Malaysia",1,0,0,0.28,,1,2023-07-16 13:15:12.027841
d5e36893-f793-4a7d-b1a9-8f06b248b57a,Jade Garden Seafood Corner,1.348106,104.224009,"Lot 4785, 1 Jalan Siakap, Kampung Sungai Rengit, 81620, Pengerang, Johor",1,0,0,0.26,,1,2023-07-16 13:15:12.027841
8ecc98f4-054b-4a18-96cb-8cb2c3869185,Causeway Point Supercharger,1.436111,103.786496,"1 Woodlands Square, Singapore 738099",1,0,0,0.27,,1,2023-07-16 13:15:12.027841
af203391-501c-4194-8626-3dd7810b6275,"seri negeri (government building, public carpark)",1.545174,103.55988,"seri negeri (government building, public carpark)",1,0,0,0.49,,1,2023-07-16 13:15:12.027841
54c14063-502c-41f5-bbc5-4e33bb2da67d,"Gentari @ XPark Sunway Iskandar (22 kW AC, 60 kW DC)",1.3953,103.62577,"Jalan Medini Selatan 2 Medini Zone F, Bandar Medini Iskandar, 79250 Nusajaya, Johor, Malaysia",1,0,0,0.52,,1,2023-07-16 13:15:12.027841
6ae9c644-24f0-44b6-a3de-81ac9d160981,Waterway Point Supercharger,1.406303,103.901878,"83 Punggol Central, Singapore, Singapore, 828761",1,0,0,0.27,,1,2023-07-16 13:15:12.027841
ffb1df34-57ae-4151-8733-243ec116de9e,Century Square Supercharger,1.35235,103.943846,"2 Tampines Central 5, Singapore, Singapore, 529509",1,0,0,0.27,,1,2023-07-16 13:15:12.027841
3d3889a8-4695-4194-82f2-1fdf61f21b1a,Volvo Pekin Auto,1.516984,103.674438,"PTD 144228, Taman Sutera Utama, 81300 Skudai, Johor, Malaysia",1,0,0,0.16,,1,2023-07-16 13:15:12.027841
d140307f-ad0c-4d65-ae5a-e9570d1e23d6,Block 15 Woodlands Loop,1.449289,103.809175,"15 Woodlands Loop, Woodlands‎ 738322, Singapore",1,0,0,0.23,,1,2023-07-16 13:15:12.027841
6c574581-6082-4303-bd8d-51e80855ea8f,Goldbell Tuas,1.321866,103.639587,"8 Tuas Avenue 18, Singapore 638892",1,0,0,0.13,,1,2023-07-16 13:15:12.027841
7dc72215-27f1-4c7d-8e30-5e75408130c3,Four Points By Sheraton Desaru (22 kW AC),1.5761964123956436,104.20566692948341,"Jalan Kempas 2, Taman Desaru Utama, Bandar Penawar, Malaysia, 81930",1,0,0,0.41,,1,2023-07-16 13:15:12.027841
d5602799-9a07-41a1-a0d9-994e5f7613a7,Katong V Supercharger,1.302678,103.903352,"30 East Coast Road, Singapore, Singapore, 428751",1,0,0,0.21,,1,2023-07-16 13:15:12.027841
d932f75e-b837-4088-9edc-8a0895bf28d0,Carros Centre,1.43148,103.75279,"60 Jln Lam Huat, Singapore 737869",1,0,0,0.13,,1,2023-07-16 13:15:12.027841
6103c073-cf48-4a40-8339-7e538fcf0195,Setia Eco Garden Sales Gallery [22kWAC],1.4917392359298465,103.58541109090933,"Persiaran Lam Setia Utama, Setia Eco Garden, Gelang Patah, Johor, Malaysia",1,0,0,0.39,,1,2023-07-16 13:15:12.027841
ba4a140c-b696-44f0-8aca-11944f7a6aa4,Shell Choa Chua Kang,1.385636,103.746452,"20 Choa Chu Kang Dr, Singapore 689717",1,0,0,0.2,,1,2023-07-16 13:15:12.027841
15895283-31b2-4ad7-9233-3390372974a5,Eikoh Roller International (S) Pte Ltd,1.290889,103.624422,45 Tuas View Loop Singapore 637699,1,0,0,0.38,,1,2023-07-16 13:15:12.027841
6c762c47-50ed-42b8-ac38-2b2fc3de7e79,Petronas R&R Gelang Patah Southbound (22 kW AC),1.386627,103.593256,"LINKEDUA Malaysia - Singapura, 81550, Gelang Patah",1,0,0,0.47,,1,2023-07-16 13:15:12.027841
674459a4-9e37-4778-8938-b5f72c5e53bf,Hyundai Skudai Kiri,1.48965,103.711027,"Kampung Skudai Kiri, 81200 Johor Bahru, Johor, Malaysia",1,0,0,0.19,,1,2023-07-16 13:15:12.027841
70bc64e4-b904-4f50-88e0-2bacbe9bb185,Renaissance Hotel JB,1.4944408897944281,103.81149817047027,"No. 53-01 & 55, 01, Jalan Permas 10/1, Bandar Baru Permas Jaya, 81750 Masai, Johor, Malaysia",1,0,0,0.2,,1,2023-07-16 13:15:12.027841
06349f11-38bc-470d-94bd-153200759201,Zenith Lifestyle Mall (11 kW AC; 50 kW DC),1.4635729,103.7622119,"82C, Jalan Trus, Bandar Johor Bahru, 80000 Johor Bahru, Johor, Malaysia",1,0,0,0.42,,1,2023-07-16 13:15:12.027841
2eca723b-59fc-41c8-a443-5554ad1a1a42,"EcoWorld Gallery (1 x 22 kW, 1 x 3.7 kW)",1.578823,103.722933,"81100‎ Tebrau‎ Johor, Malaysia",1,0,0,0.4,,1,2023-07-16 13:15:12.027841
0737bf5a-3881-4ec8-96f0-e9885d6cdce1,Singapore Zoo,1.404922,103.78798,"Mandai Lake Road 80, 729826 Singapore",1,0,0,0.13,,1,2023-07-16 13:15:12.027841
6d5421c2-cbf6-48cb-b8ae-07d263d9884f,Bedok Point,1.324702,103.932418,799 Upper Changi Road ,1,0,0,0.11,,1,2023-07-16 13:15:12.027841
3255f680-0f1f-47c7-a766-617ea4542880,ACO HQ Johor Bahru (180kW),1.535961,103.75342,"14, Jalan Firma 3, Kawasan Perindustrian Tebrau 4, 81100 Johor Bahru, Johor, Malaysia",1,0,0,0.26,,1,2023-07-16 13:15:12.027841
8beafdf8-7394-4ce9-990d-6b347872bcdc,NTU Research Techno Plaza,1.343423,103.679373,"50 Nanyang Ave, Singapore 639798",1,0,0,0.25,,1,2023-07-16 13:15:12.027841
a9808224-5b9b-49dd-8947-bdc3fe1d094c,Petronas Pasir Gudang Highway 3 (1 x 22 kW),1.522925,103.731079,"81800‎ Kota Tinggi‎ Johore, Malaysia",1,0,0,0.43,,1,2023-07-16 13:15:12.027841
ec051174-efef-4653-ab2c-1553c466e94f,Juice+: Changi Airport Terminal 2,1.352961,103.988037,9X3Q+56 Singapore,1,0,0,0.33,,1,2023-07-16 13:15:12.027841
b86d2a5f-3bbd-4dba-afd7-c37fe0ad673c,Tagore 23,1.386026,103.828227,"23 Tagore Ln, Singapore 787601",1,0,0,0.9,,1,2023-07-16 13:15:12.027841
656113e3-9542-4177-99e6-3b4c438b29b8,Jen Johor Puteri Harbour (2 x 22 kW),1.417565,103.656614,"Persiaran Puteri Selatan, 79000 Perkampungan (Felcra) Tebing Runtuh, Johore, Malaysia",1,0,0,0.36,,1,2023-07-16 13:15:12.027841
e3fde6ee-7249-4e41-ac15-2c3dff5d0ec5,Harvest@Woodlands by EVone Charging,1.4514023,103.7914704,"280 Woodlands Industrial Park E5, Singapore 757322",1,0,0,0.35,,1,2023-07-16 13:15:12.027841
52b12ab6-d76b-471f-a28c-82f8b7d1804d,BMW Auto Bavaria Tebrau,1.54998,103.792759,"3B, Persiaran Desa Tebrau, Taman Desa Tebrau, 81100 Johor Bahru, Johor, Malaysia",1,0,0,0.23,,1,2023-07-16 13:15:12.027841
5dfeca59-fcfa-49b6-b8e0-c09064a7fbe2,Palkom Motors,1.530922,103.780719,"No. 1, Jalan Kota Tinggi, Batu 7 1/4, Taman Pandan, Johor, Kawasan Perindustrian Pandan, 81100 Johor Bahru, Johor, Malaysia",1,0,0,0.13,,1,2023-07-16 13:15:12.027841
a1889d78-99d3-49e1-b9d0-2367aef0cd2f,Shell Dunearn University,1.323543,103.817429,"288 Dunearn Rd, Singapore 299557",1,0,0,0.24,,1,2023-07-16 13:15:12.027841
c30efa4a-d6ea-433e-83da-c7178f2bcfbc,Petronas Kawasan Perindustrian Kota Puteri (22 kW AC),1.506207,103.842717,"Petronas, Kawasan Perindustrian Kota Puteri, 81750 Masai, Johor, Malaysia",1,0,0,0.53,,1,2023-07-16 13:15:12.027841
aeaa5448-875e-430c-a99e-4cd64d2494fd,home,1.493149,103.860469,Taman Bukit Rinting ,1,0,0,0.4,,1,2023-07-16 13:15:12.027841
9c899139-45cd-494d-816b-6d9f6f0f74fc,West Coast Plaza Supercharger,1.303732,103.76663,"154 West Coast Road, Singapore, 127371",1,0,0,0.29,,1,2023-07-16 13:15:12.027841
d1cb01c5-e868-4f0c-954f-77e5f842be50,The Star Vista Supercharger,1.306932,103.788222,"1 Vista Exchange Green, Singapore 138617",1,0,0,0.27,,1,2023-07-16 13:15:12.027841
a049e5b7-fb6b-4119-9c11-24c032d18408,HSL Waterfront @ Penjuru,1.305972,103.730418,"42D Penjuru Road, Singapore 609162",1,0,0,0.24,,1,2023-07-16 13:15:12.027841
d74a5da8-b93f-4ec2-887a-44ba7e4afe69,Nordcom One,1.444324,103.814023,"5a Gambas Cres, Singapore",1,0,0,0.11,,1,2023-07-16 13:15:12.027841
8aed2eef-97ca-46ce-b65c-f3d924509deb,SICC Island SP Charger,1.35895,103.819354,"180 Island Club Rd, Singapore 578774",1,0,0,0.22,,1,2023-07-16 13:15:12.027841
e3807170-5077-4001-ba28-a081f99df243,Millenia Walk Supercharger,1.292254,103.859707,"9 Raffles Blvd, Singapore 039596",1,0,0,0.26,,1,2023-07-16 13:15:12.027841
9a1b77e1-31fb-4c48-8071-0e57ab758e03,Shell Boon Lay,1.343959,103.707764,"2 Boon Lay Ave, Singapore 649960",1,0,0,0.14,,1,2023-07-16 13:15:12.027841
08de1d21-1e3c-4c3f-83a9-1bf5ce3bf4a4,"Sand & Sandals Resort, Desaru (MyEVOC 1x 22 kW)",1.560694,104.253109,"29, Jalan Desaru, Desaru, 82200 Bandar Penawar, Johor, Malaysia",1,0,0,0.47,,1,2023-07-16 13:15:12.027841
06ceeac2-6d9b-4a65-900e-f9826dc7edae,Shell Yishun,1.430866,103.833008,"1 Yishun Street 11, Singapore 768642",1,0,0,0.12,,1,2023-07-16 13:15:12.027841
258c0926-bd52-49eb-955d-bee78ba6eac3,Orchid Country Club,1.41139,103.84436,"Orchid Club Road 1, 769162 Singapore",1,0,0,0.19,,1,2023-07-16 13:15:12.027841
01d3894b-5ad0-4037-8e5d-7ce6a6afb42c,Shell 648 Dunearn Rd,1.3309944,103.7991123,648 Dunearn Road,1,0,0,0.2,,1,2023-07-16 13:15:12.027841
f0aa0c4f-ec5b-41fd-bfe8-9477c9fa4f41,Juice+: Gain City Sungei Kadut,1.412927,103.7459779,"71 Sungei Kadut Dr, Level 2, Singapore 729577",1,0,0,0.3,,1,2023-07-16 13:15:12.027841
0caeb9a5-ec93-40b3-8ec2-5d1c3478172b,Biopolis,1.303518,103.792513,31 Biopolis Way Singapore 138668,1,0,0,0.8,,1,2023-07-16 13:15:12.027841
f10838c6-48fd-428e-91cf-0b7583fd48c6,City Square Mall (2),1.3113234941054386,103.8563217359124,"180 Kitchener Rd, Singapore 208539",1,0,0,0.2,,1,2023-07-16 13:15:12.027841
68586515-ee4d-4376-834d-ecd60550856e,Republic Plaza,1.283519,103.850595,"9 Raffles Place, Singapore 048619",1,0,0,0.14,,1,2023-07-16 13:15:12.027841
d69b600f-09bc-49a0-92e2-ff8cd036a70a,Business Aviation Complex,1.417807,103.863333,"700 West Camp Road, Singapore",1,0,0,0.25,,1,2023-07-16 13:15:12.027841
496e51f0-313f-4833-8e13-e54a90bf34d0,Bukit Panjang Plaza,1.379987,103.764397,"1 Jelebu Rd, Singapore 677743",1,0,0,0.19,,1,2023-07-16 13:15:12.027841
bf60935a-b619-4f75-9e25-dfc7577b1018,CDG Engie - Singapore University Of Social Sciences (SUSS/SIM),1.329017,103.776129,"Singapore, Clementi Rd, #463号SG",1,0,0,0.62,,1,2023-07-16 13:15:12.027841
d63f136e-0122-4011-9add-d3c3134c3d11,Sembawang Country Club,1.418225,103.815461,"249 Sembawang Rd, Singapore 758352",1,0,0,0.22,,1,2023-07-16 13:15:12.027841
41071e25-adef-4bd3-b228-ac7bb5b64bd4,KSL City Mall,1.485534,103.762308,"Jalan Beruang, 80250 Taman Tasek, Johore, Malaysia",1,0,0,0.13,,1,2023-07-16 13:15:12.027841
156bda07-6fc9-4a93-b9a3-f47e37434422,SP Group: CSC Changi,1.3915290769316817,103.98520262309323,"2 Netheravon Rd, Singapore 508503",1,0,0,0.2,,1,2023-07-16 13:15:12.027841
a3ab243b-7046-4a96-91f0-074b755cb937,BlueSG open to EVs: BLK 476 Upp Serangoon View,1.377267,103.903628,"476 Upper Serangoon View, Singapore 530476",1,0,0,0.46,,1,2023-07-16 13:15:12.027841
7f692f06-03ad-48f6-ae9c-2b15e4085dff,Penjuru Close #01-11by EVone Charging,1.313091,103.731755,28F Penjuru Close #01-11,1,0,0,0.37,,1,2023-07-16 13:15:12.027841
cab25f97-757e-4070-9068-f284428f9d51,Corporation Place,1.32602,103.719828,"2 Corporation Rd, Singapore 618494",1,0,0,0.17,,1,2023-07-16 13:15:12.027841
8a857fe3-5a51-4e18-bf31-69477fdfb12f,Shell Bukit Batok,1.350191,103.738495,"11 Bukit Batok West Ave 3, Singapore 659166",1,0,0,0.17,,1,2023-07-16 13:15:12.027841
80e60924-9f16-4b2c-bb21-c93f80a6c12d,"BlueSG open to EVs: Blk 212, Serangoon Ave 4",1.356931,103.873222,"212 Serangoon Ave 4, Singapore 550212",1,0,0,0.44,,1,2023-07-16 13:15:12.027841
f407a9d5-4a9d-47c8-b182-b40edbe2a364,Johor Premium Outlets (3.7 kW AC),1.60292,103.622421,"Jalan Premium Outlets, 81400 Senai, Johore, Malaysia",1,0,0,0.33,,1,2023-07-16 13:15:12.027841
b86e085f-d108-42c1-8610-b60f804208e8,Marina Bay Cruise Center Singapore,1.266151,103.860488,"Marina Coastal Drive, Singapore",1,0,0,0.34,,1,2023-07-16 13:15:12.027841
7342b07b-d4df-4835-9ac9-3305a854eaa0,Thistle Hotel Multi Level Car Park (3 pin),1.462316,103.74322,"Jalan Sungai Chat, Sri Gelam, 80100 Johor Bahru, Johor, Malaysia",1,0,0,0.42,,1,2023-07-16 13:15:12.027841
5ddf5146-6387-43df-a522-545c7c35fd6d,"BlueSG open to EVs: Blk 678A, Choa Chu Kang Crescent",1.401979,103.745077,"678A Choa Chu Kang Cres, Singapore 681678",1,0,0,0.52,,1,2023-07-16 13:15:12.027841
1897a298-96d9-4a66-b014-d858ad33fecc,Shell Bukit Batok,1.347825,103.764854,"28 Bukit Batok East Ave 6, Singapore 659760",1,0,0,0.17,,1,2023-07-16 13:15:12.027841
ecd4b113-b729-4a62-bd78-30092622f9ba,Temasek Club,1.346985,103.780824,"131 Rifle Range Rd, #04-04, Singapore 588406",1,0,0,0.12,,1,2023-07-16 13:15:12.027841
53f5b51c-9592-489d-b966-563d94186541,Eco Spring,1.588156,103.757771,"2, Jalan Ekoflora Utama, 81100 Johor Bahru, Johor, Malaysia",1,0,0,0.1,,1,2023-07-16 13:15:12.027841
60657005-2ff8-4e46-8efe-b23dc4616074,Starbucks Seri Austin DT,1.575883,103.747829,"Jalan Seri Austin 1, Taman Seri Austin, 81100 Johor Bahru, Johor",1,0,0,0.24,,1,2023-07-16 13:15:12.027841
c4edcea5-a213-4496-8b29-0be9b51dc9ca,Starbucks Shell Seri Alam DT (22 kW AC),1.5107954893126725,103.87764133102405,"Bandar Baru Seri Alam, 81750 Masai, Johor, Malaysia",1,0,0,0.39,,1,2023-07-16 13:15:12.027841
f4c9ce7b-53de-41a8-a510-1d71c12ce7be,MEDINI 7 CORPORATE OFFICE (1 x 3.7 kW),1.413718,103.628348,"Jalan Medini Sentral 5, Bandar Medini Iskandar Malaysia, 79250, Iskandar Puteri",1,0,0,0.38,,1,2023-07-16 13:15:12.027841
49bad520-56ed-4ea9-a6ff-6c9e8f908266,WATT - The Rochelle,1.332928,103.790957,"188 Keng Lee Rd, Singapore 308414",1,0,0,0.19,,1,2023-07-16 13:15:12.027841
1dba4a72-14d4-454f-ae81-b8685a251744,Tanah Merah Country Club Garden Course,1.328246,103.979775,"25 Changi Coast Road, Singapore 499803",1,0,0,0.38,,1,2023-07-16 13:15:12.027841
a0cdb463-4459-40e9-880e-e3f132abde08,MYDIN Mutiara Rini (3 x 22 kW AC),1.5151474195350636,103.6353126168251,"7, Persiaran Jaya 1, Mutiara Rini, 81300 Johor Bahru, Johor, Malaysia",1,0,0,0.33,,1,2023-07-16 13:15:12.027841
2de9a680-8781-4e06-a7e0-9baa772138ec,Petronas Toll Skudai Northbound,1.579332,103.650349,"81400 Tampoi, Johore, Malaysia",1,0,0,0.31,,1,2023-07-16 13:15:12.027841
52fa5567-b6d2-4a47-ba65-a82facb31da4,Charge+: Ci Yuan Community Club Basement Carpark,1.375239,103.882883,51 Hougang Avenue 9 Singapore 538776,1,0,0,0.48,,1,2023-07-16 13:15:12.027841
bac874c0-1b75-4a59-8ba1-196577a4df81,Singapore Polytechnic,1.309943,103.777368,"500 Dover Rd, Singapore 139651",1,0,0,0.21,,1,2023-07-16 13:15:12.027841
197353dc-a126-4240-9892-461c29e5a8f6,West Park BizCentral,1.315185,103.695214,"32 Pioneer Cres, Singapore 628561",1,0,0,0.2,,1,2023-07-16 13:15:12.027841
b9815dab-23f0-4f82-b830-b21a9f237168,MapleTree Pionner Logistics Hub,1.3177871878172338,103.65339044017435,76 Pionner Road ,1,0,0,0.31,,1,2023-07-16 13:15:12.027841
242add4b-800b-41fa-95a3-de48d96afb27,SP Group: Techplace II,1.377181,103.866439,"5012 Ang Mo Kio Ave 5, Singapore 569872",1,0,0,0.22,,1,2023-07-16 13:15:12.027841
c94fc2a1-560a-4958-9eca-a2207494a0d5,Tanah Merah Ferry Terminal,1.31412,103.9876,"50 Tanah Merah Ferry Rd, Singapore 498833",1,0,0,0.26,,1,2023-07-16 13:15:12.027841
b79515f4-41be-442b-b7b6-8bd55858a3cd,DC Fast Charger @JEGS (Coming Soon),1.303421,103.686712,"45 Shipyard Rd, 45, Singapore 628136",1,0,0,0.35,,1,2023-07-16 13:15:12.027841
fe67106b-236d-4754-818b-22f0e87d95f8,Sunway Citrine Hub (3 pin),1.390931,103.639452,"Persiaran Medini 3, Sunway City Iskandar Puteri, 79250 Iskandar Puteri, Johor, Malaysia",1,0,0,0.26,,1,2023-07-16 13:15:12.027841
a6f2a75c-fd70-4a33-b13c-6c3b3bfe5ab8,Shell Ang Mo Kio,1.367883,103.844826,"3535 Ang Mo Kio Ave 6, Singapore 569839",1,0,0,0.16,,1,2023-07-16 13:15:12.027841
3347894c-7e18-4ad5-9047-25e9dd65c9b3,SP Group: Temasek Polytechnic Carpark E,1.347611,103.930455,"33 Tampines Ave 1, Singapore",1,0,0,0.39,,1,2023-07-16 13:15:12.027841
e77e577e-cee0-4a58-b1fa-40d1f77a1bda,Gardens by the Bay - Main Entrance Carpark,1.281584,103.866253,18 Marina Gardens Dr,1,0,0,0.42,,1,2023-07-16 13:15:12.027841
fc94c353-a679-4876-8c55-ec074977390e,Woodlands Industrial Park,1.451869,103.796326,"158 Woodlands Industrial Park E5, Singapore 757867",1,0,0,0.25,,1,2023-07-16 13:15:12.027841
6509b59f-a79c-451b-a838-9856a29b8d41,Shell Punggol,1.404761,103.906631,"821 Punggol Rd, Singapore 829169",1,0,0,0.13,,1,2023-07-16 13:15:12.027841
d090c6e3-f82d-46fa-be2e-adc304458e4c,"BlueSG open to EVs: Blk 346, Bt Batok St 34",1.362406,103.750959,"347 Bukit Batok Street 34, Singapore 650347",1,0,0,0.43,,1,2023-07-16 13:15:12.027841
f6389f72-43be-4019-8904-a2211b000ba5,"BlueSG open to EVs: Blk 472, Fernvale Street",1.397119,103.881632,"472 Fernvale St, Singapore 792472",1,0,0,0.44,,1,2023-07-16 13:15:12.027841
60f6fac5-71ed-46e1-aaea-268dfdb55da4,BlueSG open to EVs: 417 Pasir Ris Dr 6,1.372044,103.955051,"417 Pasir Ris Drive 6, Singapore 510417",1,0,0,0.38,,1,2023-07-16 13:15:12.027841
5b85c851-fad9-459f-8fe7-400c66b4e337,Tada Station,1.359834,103.833595,"40 Sin Ming Lane, Midview City, Singapore 573958",1,0,0,0.12,,1,2023-07-16 13:15:12.027841
b3bc782b-4dbc-4d4c-b33d-074f1206b4bc,BlueSG Charger (4.8kW AC),1.31248,103.874478,"114A Lor 3 Geylang, Singapore 382114 Lor 3 Geylang, Singapore 382114",1,0,0,0.25,,1,2023-07-16 13:15:12.027841
b1dd8785-38fe-4505-b961-4c574549d71a,Shell Telok Blangah,1.270457,103.812772,"450 Telok Blangah Road, Singapore 098857",1,0,0,0.19,,1,2023-07-16 13:15:12.027841
48bb00a6-502d-4a36-975e-286136435b3d,Shell Recharge Geylang Rd,1.3119747225104634,103.87556815916649,203 Geylang Road ,1,0,0,0.25,,1,2023-07-16 13:15:12.027841
a1402aea-e01f-4e2a-83cb-2d92dfbadea6,BlueSG open to EVs: 21 Jalan Masjid,1.320339,103.912298,"21 Jln Masjid, Singapore 418946",1,0,0,0.35,,1,2023-07-16 13:15:12.027841
9b74e9f6-1097-4774-9333-db08a2bd2a99,Starbucks Bandar Seri Alam DT (22 kW AC),1.496464,103.871663,"8, Jln Suria, Bandar Baru Seri Alam, 81750 Masai, Johor",1,0,0,0.4,,1,2023-07-16 13:15:12.027841
1a70ff41-4159-42b6-a538-94b604b024e4,Aste Global -1 Tuas Link 1 by EVone Charging,1.3334408689452686,103.63838921925968,"1 Tuas Link 1, Singapore 638583",1,0,0,0.44,,1,2023-07-16 13:15:12.027841
bf3747ac-c9ec-45f4-bbd3-6961f89312f4,Shell Sengkang,1.391564,103.892738,"61 Sengkang E Rd, Singapore 545015",1,0,0,0.14,,1,2023-07-16 13:15:12.027841
fe62ed10-6c70-4130-96a9-449b1282e974,Shell Serangoon Gardens,1.363386,103.867302,"49 Serangoon Garden Way, Singapore 555944",1,0,0,0.23,,1,2023-07-16 13:15:12.027841
330be827-8ef7-4dc0-a6db-4b9e6cc9c246,Techplace I,1.360599,103.856128,"4008 Ang Mo Kio Ave 10, Singapore 569625",1,0,0,0.11,,1,2023-07-16 13:15:12.027841
d41a2a0a-b9c4-44b6-b168-59d4b00924bf,Paradigm Mall JB,1.515891,103.685631,"Lot no. 4FK-12, 4th floor, Paradigm Mall, Taman Bukit Mewah, 81200 Johor Bahru, Johor, Malaysia",1,0,0,0.16,,1,2023-07-16 13:15:12.027841
f7733c9d-142e-4969-b35e-cfbd8e97951e,Hougang Mall,1.3725894,103.8937225,90 Hougang Avenue 10,1,0,0,0.12,,1,2023-07-16 13:15:12.027841
c148c892-87ef-4ed1-acc6-78b2511e8937,"BlueSG open to EVs: Blk 129A, Bt Merah View",1.283617,103.823466,"129A Bukit Merah View, Singapore 151129",1,0,0,0.43,,1,2023-07-16 13:15:12.027841
98e61b29-3d17-4bb5-bc7c-463a4b8c972e,Charge+: Woodlands Waterfront Carpark,1.451662,103.778802,FQ2H+MG Singapore,1,0,0,0.37,,1,2023-07-16 13:15:12.027841
207bb72d-4b5b-4219-be9a-808f47469dc5,Charge+: 29A Marsiling Drive,1.442634,103.772981,"29A Marsiling Dr, Singapore 731029",1,0,0,0.28,,1,2023-07-16 13:15:12.027841
cd62fd27-cb26-4cb9-9aed-1837679f34c3,Great World Supercharger,1.293346,103.832078,"1 Kim Seng Promenade, Singapore 237994",1,0,0,0.24,,1,2023-07-16 13:15:12.027841
be513e81-a4fb-45d7-88bb-90e1340c35c0,"BlueSG open to EVs: Blk 512A, Serangoon North Ave 4",1.370763,103.875194,"512A Serangoon North Ave 4, Singapore 551512",1,0,0,0.51,,1,2023-07-16 13:15:12.027841
d97ccac3-2311-41cf-b7fd-5a2c7114bd94,Shell Dunman,1.309945,103.901031,"No. 743 Dunman Rd, Singapore 439241",1,0,0,0.12,,1,2023-07-16 13:15:12.027841
7018f17b-6339-4a5f-aa4d-d1deaa1ff725,Pioneer Centre,1.3326227,103.6969065,"1 Soon Lee St, Singapore 627605",1,0,0,0.14,,1,2023-07-16 13:15:12.027841
6be794b7-d356-457e-8a52-8a3f964c3d69,National Service Resort & Country Club,1.317674999999999,103.974319,"10 Changi Coast Walk, Singapore 499739",1,0,0,0.38,,1,2023-07-16 13:15:12.027841
a15e3f95-510c-4748-b5f2-28f1e894f503,"BlueSG open to EVs: Blk 31A, Eunos Crescent",1.320107,103.901609,"31A Eunos Cres, Singapore 401031",1,0,0,0.43,,1,2023-07-16 13:15:12.027841
8129538a-8d15-417f-b6b5-406788216018,"BlueSG open to EVs: BLK 241A, Bt Batok East Ave 5",1.350628,103.755377,"239 Bukit Batok East Ave 5, Block 239, Singapore 650239",1,0,0,0.49,,1,2023-07-16 13:15:12.027841
d46a30aa-accb-468c-a779-fa756fe7672a,Juice+: Marina Country Club,1.415565,103.899791,11 Northshore Drive Singapore 828670,1,0,0,0.27,,1,2023-07-16 13:15:12.027841
b31ed421-791c-418d-a37f-87cab4d147e5,CDG 455A Segar Rd,1.3876904485472563,103.77133410158996,"455A Segar Rd, 新加坡 671455",1,0,0,0.17,,1,2023-07-16 13:15:12.027841
a6be204f-da4d-4589-94fe-b7188c678080,CDGE: 57A Teban Gardens Road,1.322502,103.737148,"57A Teban Gardens Rd, Singapore 601057",1,0,0,0.28,,1,2023-07-16 13:15:12.027841
ebe90056-f19d-441b-87c2-9222fa989f85,BlueSG open to EVs: Blk 4 Queens Road,1.319338,103.808723,"4 Queen's Rd, Singapore 260004",1,0,0,0.37,,1,2023-07-16 13:15:12.027841
26dd172d-edf0-45b4-8bbd-fc413b9b2bd2,"BlueSG open to EVs: Blk 112, Bishan Street 12",1.346635,103.848961,"112 Bishan Street 12, Singapore 570112",1,0,0,0.45,,1,2023-07-16 13:15:12.027841
afa70a18-c4d5-4fe9-8b56-eb9ffa5ac02e,Charge+: Les Mains Patisserie,1.315606,103.925587,47 Jalan Tua Kong Singapore 457247,1,0,0,0.29,,1,2023-07-16 13:15:12.027841
6f26b169-d899-4286-8dcf-c82d85f9366c,Shell Newton Hooper,1.311417,103.843102,"150 Bukit Timah Rd, Singapore 229846",1,0,0,0.19,,1,2023-07-16 13:15:12.027841
e804dc79-982a-4eac-8f91-a4078b7556b7,Upper Bukit Timah Shell Recharge,1.3384474506674329,103.7769100419015,"35 Upper Bukit Timah Rd, Singapore 588166",1,0,0,0.32,,1,2023-07-16 13:15:12.027841
836061c1-726d-49db-9f56-13c61f5cd612,Charge+ (in operation) (Coming Soon),1.437431,103.801205,"644A Woodlands Ring Rd, Singapore 731644",1,0,0,0.36,,1,2023-07-16 13:15:12.027841
303cb250-dbb7-473d-8e1c-b871e049369c,Techlink,1.33594,103.905571,"31 Kaki Bukit Rd 3, Singapore 417818",1,0,0,0.8,,1,2023-07-16 13:15:12.027841
1f4c031c-56e4-4e5b-92f3-f6a581abd261,Sengkang Grand Mall,1.3818507,103.8927293,70 Compassvale Bow Singapore 544692,1,0,0,0.19,,1,2023-07-16 13:15:12.027841
4035deed-54a6-40b9-97b3-6d01520da1ce,Up@Robertson Quay,1.290676,103.837616,"75 Robertson Quay, Singapore 238238",1,0,0,0.17,,1,2023-07-16 13:15:12.027841
bdfcc525-c4d3-4395-84cc-bbf8980cb038,SP Group: Rivervale Mall,1.392337,103.904346,"11 Rivervale Crescent, Singapore 545082",1,0,0,0.24,,1,2023-07-16 13:15:12.027841
c4b4a59f-7088-4a9f-93b6-5de819f3785b,"BlueSG open to EVs: Blk 334, Clementi Ave 2",1.314714,103.768249,"334 Clementi Ave 2, Singapore 120334",1,0,0,0.43,,1,2023-07-16 13:15:12.027841
801baeb7-a81a-4ca1-9e37-5bfc686469c7,700A Pasir Ris Drive 10,1.3807763343736783,103.93853976322937,511700,1,0,0,0.23,,1,2023-07-16 13:15:12.027841
14309a64-61f7-4a7b-81fe-b1757b09b524,Caltex Jurong spring,1.349641,103.71487,"100 Jurong West Ave 1, Singapore 649519",1,0,0,0.2,,1,2023-07-16 13:15:12.027841
871cb7a1-c57a-4431-88e9-7e2d307d3942,LHN Energy Phoenix Park,1.29804,103.816568,"318 Tanglin Rd, Singapore 247979",1,0,0,0.23,,1,2023-07-16 13:15:12.027841
f1e9b434-7343-47c0-ae59-8a8352baf554,National Heart Center,1.281513,103.836831,"17 Third Hospital Avenue, Singapore",1,0,0,0.21,,1,2023-07-16 13:15:12.027841
ed9b5cc6-9399-4877-a076-427c48d14874,BlueSG open to EVs: Across 343 Telok Kurau Road,1.308638,103.912318,"21A St. Patrick's Road, Singapore 424143",1,0,0,0.47,,1,2023-07-16 13:15:12.027841
3f3e279b-a5c2-42ff-9599-03d167793c2a,"BlueSG open to EVs: Blk 230, Jurong East St 21",1.341795,103.737547,"230 Jurong East Street 21, Singapore 600231",1,0,0,0.46,,1,2023-07-16 13:15:12.027841
ea8ba594-1c61-4a18-9bc6-04f2bdf2af41,Resorts World Sentosa,1.257043,103.820353,"8 Sentosa Gateway, Singapore 098269",1,0,0,0.21,,1,2023-07-16 13:15:12.027841
30ba7284-9a1a-4bda-be7e-273966a0f163,SP: Vivocity,1.264843,103.823285,"1 HarbourFront Walk, Singapore 098585",1,0,0,0.12,,1,2023-07-16 13:15:12.027841
cffb71ba-d8e6-4245-bcfe-1c2015b07892,Connexion,1.312553,103.854282,"1 Farrer Park Station Rd, Singapore 217562",1,0,0,0.9,,1,2023-07-16 13:15:12.027841
531b4bb3-f34a-4281-9d9b-2df458863c9c,GoParkin: Union Gas building,1.350622,103.89087,"89 Defu Lane 10, Singapore 539220",1,0,0,0.28,,1,2023-07-16 13:15:12.027841
9725c93c-ba99-4ae9-9c91-f1887601a89c,Charge+: Defu Industrial City,1.3448827324526693,103.89675123010906,2 Defu South Street 1,1,0,0,0.29,,1,2023-07-16 13:15:12.027841
b5a85294-2508-49c5-8fbc-8472c1da4376,ESSO Pioneer,1.312940252173984,103.68734506001852,19 Pioneer Road S628499,1,0,0,0.12,,1,2023-07-16 13:15:12.027841
7dcec494-aac2-4211-a31e-84bfc2f761e2,The Concourse,1.30136,103.862236,"300 Beach Rd, Singapore 199555",1,0,0,0.13,,1,2023-07-16 13:15:12.027841
84b8cb49-8884-4dd9-9f10-6c53866fdbd1,"BlueSG open to EVs: Blk 854A, Jurong West St 81",1.347799,103.696657,"854A Jurong West Street 81, Singapore 641854",1,0,0,0.47,,1,2023-07-16 13:15:12.027841
2f8841b7-52ab-454e-b06a-7a37073d2cb7,BlueSG open to EVs: Blk 265 Yishun St 22,1.436903,103.838345,"266 Yishun Street 22, Singapore 760266",1,0,0,0.4,,1,2023-07-16 13:15:12.027841
ab2a3ed7-f4b8-463f-b1c2-1f5840e687c6,Singapore Polytechnic MSCP,1.311246,103.776681,"Dover Road, Commonwealth‎ 13, Singapore",1,0,0,0.26,,1,2023-07-16 13:15:12.027841
da4faf87-a158-4f11-a3e0-9578ef723132,Autobacs Ubi,1.33314,103.896672,"10 Ubi View, Singapore 408543",1,0,0,0.12,,1,2023-07-16 13:15:12.027841
8b2e2396-788c-4797-9319-097048a6a68c,KED ENERGY PTE LTD,1.3363712654194329,103.75465851277113,"48 Toh Guan Rd E, Singapore 608586",1,0,0,0.18,,1,2023-07-16 13:15:12.027841
ee07a72e-583e-425c-ac6c-1b75ef63f703,CDG Engie: West Coast Park (McDonald’s),1.297562,103.763779,"71 W Coast Hwy, Singapore 126844",1,0,0,0.39,,1,2023-07-16 13:15:12.027841
8f9a078d-1553-47b1-bc18-d9ee6b4ab251,Shell,1.331795,103.888855,"255 Paya Lebar Rd, Singapore 409037",1,0,0,0.5,,1,2023-07-16 13:15:12.027841
e23ffcae-bd68-4604-8d7a-9da3ecaa6c92,CDGE: Esso Upper Aljunied,1.3322678261427052,103.8790348300666,"373 Upper Aljunied Rd, Singapore 367859",1,0,0,0.25,,1,2023-07-16 13:15:12.027841
1e17d825-ec42-4690-b261-a59a63b5980d,"BlueSG open to EVs: Blk 903, Jurong West St 91",1.33961,103.686232,"903 Jurong West Street 91, Singapore 640903",1,0,0,0.46,,1,2023-07-16 13:15:12.027841
77f11c9e-19e7-4662-abe8-55ca5b9f57e5,"BlueSG open to EVs: Blk 117, Commonwealth Drive",1.306944,103.799533,"117 Commonwealth Cres, Singapore",1,0,0,0.47,,1,2023-07-16 13:15:12.027841
ce6a7ec9-bed9-4851-adf1-de4363c45a54,UE Square Tower (red zone),1.293274,103.84234,"205 River Valley Rd, Singapore 238274",1,0,0,0.26,,1,2023-07-16 13:15:12.027841
b85493e6-9234-42fc-80cd-21f60e7b64b3,"BlueSG open to EVs: Blk 966A, Hougang Ave 9",1.377945,103.877754,"966A Hougang Avenue 9, Singapore 531966",1,0,0,0.43,,1,2023-07-16 13:15:12.027841
467697cf-7471-4d24-b83e-827c3dea035c,"BlueSG open to EVs: Blk 326, Ubi Ave 1",1.32726,103.904208,"327 Ubi Ave 1, Block 327, Singapore 400327",1,0,0,0.38,,1,2023-07-16 13:15:12.027841
eb744b82-ada5-48c4-81e2-fdeaa676647e,BlueSG open to EVs: BLK 853 Yishun Ring Road,1.416467,103.836745,"853 Yishun Ring Road, Singapore 760853",1,0,0,0.44,,1,2023-07-16 13:15:12.027841
614ac67c-8fad-416f-abf7-1b231aba04de,BlueSG open to EVs: Blk 513 Yishun Street 51,1.415948,103.8442,"513c Yishun Street 51, Singapore 760513",1,0,0,0.44,,1,2023-07-16 13:15:12.027841
c419ec4e-aa4d-40ca-8907-6d73357c99f0,LHN Energy Raeburn Park,1.273106,103.833155,"10 Raeburn Park, Singapore 088702",1,0,0,0.23,,1,2023-07-16 13:15:12.027841
42ff9ca5-aa80-444c-a926-ce7dbe8b9f4d,135A Pasir Ris Street 11,1.364802,103.956863,135A Pasir Ris Street 11,1,0,0,0.24,,1,2023-07-16 13:15:12.027841
3bbdd257-027e-40d1-8422-c40113d3a4f4,SP Group: Jewel Changi Airport,1.360699,103.989603,78 Airport Boulevard Singapore 819666,1,0,0,0.3,,1,2023-07-16 13:15:12.027841
8dbfbc4e-0e35-4338-ac49-b6dee3050107,Tanah Merah Country Club Tampines Course,1.3270196096163687,103.96994161767903,151 Xilin Avenue,1,0,0,0.4,,1,2023-07-16 13:15:12.027841
72ff49e3-a539-4808-8528-66980b002a03,Mapletree,1.319214800107794,103.6882628000002,21 benoi sector,1,0,0,0.9,,1,2023-07-16 13:15:12.027841
f1c3dab5-6b8f-49a3-a790-27442fa4ba37,SPC Bukit Batok,1.3432427908352402,103.75834370192821,"50 Bukit Batok East Ave 3, Singapore 659879",1,0,0,0.15,,1,2023-07-16 13:15:12.027841
10d58286-2792-4b17-ae4d-9cee6983af2e,Expo Carpark D,1.3339762545044767,103.95838708806289,1 Expo drive ,1,0,0,0.14,,1,2023-07-16 13:15:12.027841
9dad5f1d-5c2b-40e5-93c9-d0ea31f8f4f9,CDG 787A Choa Chu Kang Dr,1.3951133955580453,103.74766113446626,"787A Choa Chu Kang Dr, 新加坡 680787",1,0,0,0.25,,1,2023-07-16 13:15:12.027841
5bc1e9fd-93f2-40e5-83d5-d57a8798c0e3,LHN Energy,1.372804,103.763206,794 Upper Bukit Timah Road,1,0,0,0.1,,1,2023-07-16 13:15:12.027841
fe3b8cc6-4c70-4ecd-9902-50b2f5db9164,CDGE: 117 Alkaff Crescent,1.3368648834995271,103.87302016909817,"117 Alkaff Cres, Singapore 341115",1,0,0,0.25,,1,2023-07-16 13:15:12.027841
59827297-72e2-42eb-947a-67e97e79196d,IKEA Tampines,1.373907,103.932551,"60 Tampines North Drive 2, Singapore 528764",1,0,0,0.13,,1,2023-07-16 13:15:12.027841
0c296147-e2a6-4178-b3e8-0e42cc8105ef,BlueSG open to EVs: Blk 157 Ang Mo Kio Ave 4,1.375126,103.839276,"157 Ang Mo Kio Avenue 4, Singapore 56",1,0,0,0.44,,1,2023-07-16 13:15:12.027841
b8dac677-59ad-49c8-ac41-c45af7b580e4,Charge+: 220 Hougang Street 21,1.356983,103.884404,220 Hougang St 21,1,0,0,0.3,,1,2023-07-16 13:15:12.027841
eb05b7bc-a790-42d5-ab00-9d88b9facf58,BlueSG open to EVs: 52 Sims Place,1.316535,103.880084,"52 Sims Pl, Singapore 380052",1,0,0,0.33,,1,2023-07-16 13:15:12.027841
ab9683d6-532d-4b9a-98d4-19e71b7b1381,bluecharge@senja link 651,1.3868954434701355,103.76439869962157,senja link 651 carpark,1,0,0,0.25,,1,2023-07-16 13:15:12.027841
5226f581-78ee-4c53-bdae-d59f4769d9c6,Jit Poh Building,1.272962,103.842388,"19 Keppel Road, Singapore",1,0,0,0.16,,1,2023-07-16 13:15:12.027841
cf0984d3-6175-4c90-a6a9-713577668536,"BlueSG open to EVs: Blk 602, Clementi West St 1",1.305137,103.766255,"602 Clementi West Street 1, Singapore 120602",1,0,0,0.47,,1,2023-07-16 13:15:12.027841
3dccf622-f98a-4566-8fa1-aad4956df2dd,CDGEG: Blk 146A Lorong 2 Toa Payoh,1.334501,103.845655,"146A Lor 2 Toa Payoh, Singapore 311146",1,0,0,0.34,,1,2023-07-16 13:15:12.027841
9ff5f07e-a915-4d18-bc52-564cdbe98b37,"BlueSG open to EVs: Blk 117, Potong Pasir Ave 1",1.336562,103.863076,"114 Potong Pasir Ave 1, Singapore 350114",1,0,0,0.47,,1,2023-07-16 13:15:12.027841
6c0dce68-57da-43ff-837a-438638e5cf83,Molek Pine 4 (3.7 kW AC),1.525273,103.784371,"Jalan Molek 1/27, 81750‎ Pasir Gudang‎ Johor, Maleisië",1,0,0,0.24,,1,2023-07-16 13:15:12.027841
c4d2f913-56c8-49a8-bfb9-9ab8ff8f40cd,Sheraton Towers,1.311664,103.83638,"39 Scotts Rd, Singapore 228230",1,0,0,0.15,,1,2023-07-16 13:15:12.027841
18c1ebc5-0a85-4990-8ca2-422a2fa50466,CDG EV Charger,1.35583,103.844308,290A Bishan St 24,1,0,0,0.14,,1,2023-07-16 13:15:12.027841
cb95f07f-c1ce-457b-b374-39d838286ce0,"BlueSG open to EVs: Bedok South Ave 3, behind blk 69",1.319527,103.942997,"behind blk 69, bedok south ave 3",1,0,0,0.52,,1,2023-07-16 13:15:12.027841
d9fb3761-75a5-4e49-94a1-65006ccc8c4c,D'Arena@Upper Jurong by EVone Charging,1.3294741,103.6822694,"511 Upper Jurong Rd, Singapore 638366",1,0,0,0.38,,1,2023-07-16 13:15:12.027841
3669d5ee-e43f-427d-abed-2884b68c09a3,BlueSG open to EVs: 37 Chai Chee Street,1.325191,103.925778,"36 Chai Chee Avenue, Singapore 461037",1,0,0,0.39,,1,2023-07-16 13:15:12.027841
9dffbf88-1a9c-4e88-808a-5dcdcc197b27,CDG Engie - 274A Toh Guan Road,1.341565,103.747455,"274A Toh Guan Rd, Singapore 600276",1,0,0,0.3,,1,2023-07-16 13:15:12.027841
fce07782-c170-4233-bbbf-7b23ef2ce669,BlueSG open to EVs: 420 Tampines St 41,1.357784,103.947142,"419 Tampines Street 41, Singapore 529204",1,0,0,0.38,,1,2023-07-16 13:15:12.027841
1707639b-1af1-40e4-be47-1d2b1dd76b76,CDGE: Singapore Botanic Gardens Botany Centre,1.3084224,103.8182032,"1 Cluny Rd, Singapore 259569",1,0,0,0.45,,1,2023-07-16 13:15:12.027841
b635f6f2-454d-419c-b701-b21c1dd786d3,Charge+: 633 Punggol Drive,1.400696,103.913915,"633 Punggol Dr, Singapore 820633",1,0,0,0.26,,1,2023-07-16 13:15:12.027841
145e43df-bd23-47eb-bf37-76115f39104c,"BlueSG open to EVs: Blk 688, Hougang St 61",1.375892,103.885486,"688 Hougang Street 61, Block 688, Singapore 530688",1,0,0,0.42,,1,2023-07-16 13:15:12.027841
8755acc4-458b-4d73-9c0e-859a95b411d5,Shell Recharge Tanglin Mall,1.305026,103.823851,"163, Tanglin Road, 247933",1,0,0,0.27,,1,2023-07-16 13:15:12.027841
48fa82da-c5a2-4a58-9d78-00f0138504b2,BlueSG open to EVs: Blk 769 Yishun Ave 3,1.424279,103.833275,"769 Yishun Avenue 3, Singapore 760769",1,0,0,0.4,,1,2023-07-16 13:15:12.027841
c4d973a0-c20b-44c7-864e-3f1c047fd7a5,Gardens By The Bay - Bayfront Plaza,1.279198,103.860073,"Unnamed Road, Singapore",1,0,0,0.35,,1,2023-07-16 13:15:12.027841
50b331ac-fae9-4304-9e5a-24aa0daa9c69,ChargEco: Block 80 HDB Car Park,1.274012010646763,103.80735956132412,"80 Telok Blangah Street 31, Singapore 102080",1,0,0,0.31,,1,2023-07-16 13:15:12.027841
29f148c8-4005-4e69-bf0d-881ada4d5e28,NUS Stephen Riady Center,1.304036,103.77304,"2 College Ave West, Singapore",1,0,0,0.24,,1,2023-07-16 13:15:12.027841
8b5d303a-8543-4c5f-b423-5ec3b77bb8ae,Willing Hearts,1.3142482784278031,103.90704547618223,1 LorJ Telok Kurau,1,0,0,0.14,,1,2023-07-16 13:15:12.027841
104f3824-1e74-48d1-a00c-898ea74b825a,Shell Tampines,1.349178,103.948016,"9 Tampines Ave 2, Singapore 529731",1,0,0,0.14,,1,2023-07-16 13:15:12.027841
2da20627-8698-468f-bf67-54b7a9313b45,Marina Bay Sands,1.285604,103.861107,"10 Bayfront Ave, Singapore 018956",1,0,0,0.16,,1,2023-07-16 13:15:12.027841
5e49d36e-af2a-4cae-a056-d49d2c7bbe93,Bluecharge: Blk 32 Telok Blangah Rise,1.2731828240010936,103.82100548832092,"Telok Blangah Rise, Mount Faber Grace Park, Singapore",1,0,0,0.37,,1,2023-07-16 13:15:12.027841
c82d0c12-3f14-42e6-abc8-a18c1be67f39,Shell Braddell,1.3449,103.864464,"110 Braddell Rd, Singapore 359914",1,0,0,0.14,,1,2023-07-16 13:15:12.027841
5dd04fe4-173c-46d5-9e01-a429ed480169,"BlueSG open to EVs: Blk 809, Yishun Ring Road",1.416877,103.83055,"809 Yishun Ring Rd, Singapore 760809",1,0,0,0.45,,1,2023-07-16 13:15:12.027841
eea8c02f-a83d-4b24-9304-2124c15301d1,SP Group: Marina Square,1.29179,103.857758,"Raffles Blvd, Singapore",1,0,0,0.23,,1,2023-07-16 13:15:12.027841
d71b68db-68e6-4643-a94c-b7f32514d6bb,Tampines Plaza,1.353142,103.943078,"3 Tampines Central 1, Singapore 529540",1,0,0,0.14,,1,2023-07-16 13:15:12.027841
53e4eda6-d996-4b86-abe9-bce2486a5a22,"BlueSG open to EVs: Blk 103, Jalan Rajah",1.327412,103.852496,"103 Jln Rajah, Block 103, Singapore 321103",1,0,0,0.4,,1,2023-07-16 13:15:12.027841
46a66eb8-a868-455e-8e50-8eaa8111506b,Lee Kong Chian School of Medicine,1.321851,103.848984,"11 Mandalay Rd, Singapore",1,0,0,0.33,,1,2023-07-16 13:15:12.027841
d8ec4b7c-01bd-43c0-b053-57af234f10fd,Charge+: 519A Woodlands Drive 14,1.4344276124617934,103.79231706261635,"519A Woodlands Drive 14, Singapore 731519",1,0,0,0.32,,1,2023-07-16 13:15:12.027841
22a6a655-d786-40ea-8710-038c6d396441,Shell Recharge Pasir Ris,1.365821,103.966996,"1 New Loyang Link, Singapore 506931",1,0,0,0.24,,1,2023-07-16 13:15:12.027841
28973271-e03b-433d-8da6-3f0006b12231,Tiong Bahru Plaza,1.2862842,103.8277824,"355 Jln Bukit Ho Swee, Singapore 169567",1,0,0,0.17,,1,2023-07-16 13:15:12.027841
fe004911-459d-4992-acc2-9356858787f3,Charge+: 226 Sumang Lane,1.4029418,103.8934653,"226 Sumang Lane, Singapore 820226",1,0,0,0.24,,1,2023-07-16 13:15:12.027841
7c8ee2cf-3411-42e1-9c9a-7bdb6e1422e1,"BlueSG open to EVs: Blk 537, Bt Batok St 52",1.354886,103.751171,"539 Bukit Batok Street 52, Block 539, Singapore 650539",1,0,0,0.43,,1,2023-07-16 13:15:12.027841
3f53651f-ee8a-41d7-889f-85e731b4b0c9,65A Kallang Bahru MSCP,1.3198411,103.8690631,65A Kallang Bahru S(331065),1,0,0,0.22,,1,2023-07-16 13:15:12.027841
7ff58819-661a-46aa-80f9-e33d1dc986ce,"Bluecharge: 50 Beach View, Basement",1.251294,103.818745,"50 Beach View, Singapore 098604",1,0,0,0.35,,1,2023-07-16 13:15:12.027841
ee5357f9-a135-48ce-bc16-5c0aef626f0f,"BlueSG open to EVs: Blk 329, Anchorvale St",1.396432,103.88939,"329 Anchorvale St, Singapore 540329",1,0,0,0.42,,1,2023-07-16 13:15:12.027841
bb47fc32-7e53-429a-9eb8-81a2621dffe0,CDGE: Autobay @ Kakit Bukit,1.3416647,103.9125865,1 Kakit Bukit Ave 6 ,1,0,0,0.27,,1,2023-07-16 13:15:12.027841
d1ba4446-0bc4-4c8f-8fc2-ade23c98f4e5,CDGE: 635A Jurong West Street Car Park,1.342288,103.69866,"635A Jurong West Street 65, Singapore 641635",1,0,0,0.38,,1,2023-07-16 13:15:12.027841
781b97c7-e710-42f2-8f5a-f74ba83d8750,Storhub Toa Payoh,1.333221,103.852334,"615 Lrg. 5 Toa Payoh, Singapore 319457",1,0,0,0.17,,1,2023-07-16 13:15:12.027841
57d79830-ec9c-41d9-84c0-dfbda05ec0ce,Capella Hotel Solacharge,1.2496291,103.8243003,"1 The Knolls, Sentosa Island, 098297",1,0,0,0.24,,1,2023-07-16 13:15:12.027841
52e29e4e-c70a-4723-941d-0246954ca6eb,Shell Paya Lebar,1.322042,103.891624,"98 Paya Lebar Rd, Singapore 409008",1,0,0,0.16,,1,2023-07-16 13:15:12.027841
ce013867-2f42-4d2e-a7e9-096ed36e033b,"Bluecharge: 534, Bedok North St 3",1.334142,103.927754,"534 Bedok North Street 3, Singapore 460534",1,0,0,0.33,,1,2023-07-16 13:15:12.027841
8a4b0020-9313-46fe-b635-449816ae8d08,The Siemens Center,1.328057,103.870776,"62 MacPherson Rd, Singapore",1,0,0,0.18,,1,2023-07-16 13:15:12.027841
3562f199-13b3-42c7-b3eb-a402900f2515,AA CENTRE,1.289876,103.812956,"2 Kung Chong Rd, Singapore 159140",1,0,0,0.9,,1,2023-07-16 13:15:12.027841
ffdc651c-5ff2-4f47-baf0-0b9a85af7be1,CDGE: Sin Ming Autocity,1.3592956,103.8392412,160 Sin Ming Drive,1,0,0,0.23,,1,2023-07-16 13:15:12.027841
d54e289b-57d5-4088-ab1d-7cf271732e07,CDG Engie- Blk 451 Bukit Batok West Ave 6,1.353007,103.743458,Blk 451 Bukit Batok West Ave 6,1,0,0,0.41,,1,2023-07-16 13:15:12.027841
81ffdb69-b9d9-42b7-8719-188d2ef10c03,"BlueSG open to EVs: Blk 609, Bedok Reservoir Road",1.33138,103.912313,"610 Bedok Reservoir Rd, Block 610, Singapore 470610",1,0,0,0.49,,1,2023-07-16 13:15:12.027841
f3801fee-ef41-400e-8f96-0f841c35b2d6,BlueSG open to EVs: Blk 108 Simei St 1,1.343233,103.950837,"108 Simei Street 1, Singapore 520108",1,0,0,0.38,,1,2023-07-16 13:15:12.027841
f9bce0a1-ce2e-4439-be9b-68c7d9418d12,SP Group: Caltex Changi,1.316149,103.900084,"78 Changi Rd, Singapore 419714",1,0,0,0.23,,1,2023-07-16 13:15:12.027841
57c00fe4-6151-4cf6-9217-4bcb370e344b,Charge+: BLK 315 MSCP Y65M,1.432573,103.841762,"315 Yishun Ave 9, Block 315 Carpark, Singapore",1,0,0,0.26,,1,2023-07-16 13:15:12.027841
354c3396-95ed-400e-baa6-f9e19d450e5a,"Charge+: 431 Yishun Ave 1, Deck 5",1.420133,103.847638,"431c Yishun Ave 1, Singapore",1,0,0,0.33,,1,2023-07-16 13:15:12.027841
051246e3-7447-4103-aa72-69ad3204c5c4,CDG: 183 Boon Lay MSCP,1.349273760519521,103.70946689980984,"183 Boon Lay Ave, Singapore 641183",1,0,0,0.22,,1,2023-07-16 13:15:12.027841
c34b0e22-1a56-424e-86a4-c43959078bdf,"CDG Engie - 311, Clementi Ave 4",1.319082,103.765158,"311 Clementi Ave 4, Singapore 120311",1,0,0,0.31,,1,2023-07-16 13:15:12.027841
68a78ec3-8145-47b4-9cc4-ad651e1442eb,BlueSG open to EVs: Blk 590 Ang Mo Kio St 51,1.371474,103.853217,"590 Ang Mo Kio Street 51, Singapore",1,0,0,0.44,,1,2023-07-16 13:15:12.027841
ccc0b602-c7cb-4d51-a9de-9734c4e6de6e,CDG Engie - 85 Dawson Road,1.29541,103.809262,85 Dawson Road,1,0,0,0.26,,1,2023-07-16 13:15:12.027841
020739af-6378-4cd0-a9e2-39a0860d76c6,116 Jalan Tenteram MSCP,1.3277547,103.8611462,116 Jalan Tenteram,1,0,0,0.23,,1,2023-07-16 13:15:12.027841
b82f6e1a-2d4f-4250-a859-e1d29d81a8cc,"BlueSG open to EVs: Blk 203, Compassvale Road",1.387004,103.895935,"Blk 203, Singapore",1,0,0,0.45,,1,2023-07-16 13:15:12.027841
993cc485-efaa-4b84-b204-75aafa9bca31,Zhongshan Mall,1.327329,103.846394,"20 Ah Hood Rd, Singapore",1,0,0,0.14,,1,2023-07-16 13:15:12.027841
50680cc7-799d-4251-9b7c-a2ddceb52e16,Shell,1.324259,103.842094,"324 Thomson Rd, Singapore 307672",1,0,0,0.5,,1,2023-07-16 13:15:12.027841
7074d05f-c402-4186-92e9-0aae108b35f3,CDG Blk 289H Bukit Batok Street 25,1.344397052573844,103.76003090089257,"Blk 289H Bukit Batok Street 25, 新加坡 657289",1,0,0,0.34,,1,2023-07-16 13:15:12.027841
9da3de07-bd03-4066-9b08-9c9867d17383,BlueCharge: 425 Bedok North Road,1.329215,103.929551,425 Bedok Road Singapore 460425 ,1,0,0,0.32,,1,2023-07-16 13:15:12.027841
6bd0d793-97ef-4e54-a70b-0440e514c454,CDG Engie - Blk 810 Choa Chu Kang Ave 7,1.373813,103.746674,"810 Choa Chu Kang Ave 7, Singapore 681810",1,0,0,0.39,,1,2023-07-16 13:15:12.027841
7cad8c36-2270-4870-b760-92c3bd40e941,870B Tampines St 86 (MSCP),1.356331,103.931039,"870B Tampines Street 86, Singapore 522870",1,0,0,0.26,,1,2023-07-16 13:15:12.027841
1b3bfaaf-005c-4b50-8f6b-9dd467bc0291,Charge+: Blk 440 (MSCP) Fernvale Link,1.392986,103.878422,"440 Fernvale Link, Singapore 790440",1,0,0,0.37,,1,2023-07-16 13:15:12.027841
bb6f9309-0978-4650-b197-8f37fe1fbc29,Jurong Point,1.339342,103.705387,"1 Jurong West Central 2, Jurong Point, Singapore 648886",1,0,0,0.12,,1,2023-07-16 13:15:12.027841
d430a289-0cb1-49c4-8539-fa4691e943e8,"20 Ayer Rajah Crescent, Technopreneur Centre",1.295231,103.789842,"20 Ayer Rajah Crescent, Singapore",1,0,0,0.44,,1,2023-07-16 13:15:12.027841
13a1231a-508c-4d5b-b57b-c0af28d8bd69,The Capricorn Underground Car Park,1.289639,103.778957,"1 Science Park Rd, Singapore 117528",1,0,0,0.34,,1,2023-07-16 13:15:12.027841
05a658a9-8e02-43d3-93b4-828d63d2d330,Storhub Jurong East by EVone Charging,1.3392365,103.7493724,3C Toh Guan Road East,1,0,0,0.37,,1,2023-07-16 13:15:12.027841
4a96bd03-8aae-46f5-8d0b-ab69a9e7490f,PE Drive Charging Station,1.331391,103.89573,"52 Ubi Avenue 3, Singapore 408867",1,0,0,0.25,,1,2023-07-16 13:15:12.027841
7093ce1f-36b7-483e-bdac-8182150a6296,"BlueSG open to EVs: Blk 269, Tampines St 21",1.350668,103.947558,"269 Tampines Street 21, Singapore 520269",1,0,0,0.43,,1,2023-07-16 13:15:12.027841
75f0ac8f-f038-4c53-8d31-e829c4e2f1cc,One@Redhill Centre,1.284876,103.808552,"1 Jln Kilang Barat, Singapore 159345",1,0,0,0.18,,1,2023-07-16 13:15:12.027841
25a8bf3e-dddf-4b25-a22f-f1304fb074cb,Millenia Walk,1.291826,103.860199,9 Raffles Boulevard ,1,0,0,0.13,,1,2023-07-16 13:15:12.027841
05877d8c-f529-4558-a177-84a7c2de3580,CDG Teck Whye Ln Blk 118A Carpark,1.379520435889066,103.74993425995183,"118A Teck Whye Ln, Singapore 681118",1,0,0,0.33,,1,2023-07-16 13:15:12.027841
00951a27-f030-4522-bd01-97655902ec85,Kim Chuan-Tai Seng by EVone Charging,1.33778,103.891319,"1005 Tai Seng Ave, #01-2576",1,0,0,0.36,,1,2023-07-16 13:15:12.027841
b98968a4-d0b0-434e-ba67-40d5d7e1b18d,"BlueSG open to EVs: Blk 165, Yishun Ring Road",1.435556,103.831963,"165 Yishun Ring Rd, Singapore 760165",1,0,0,0.45,,1,2023-07-16 13:15:12.027841
c69d7187-817a-459a-a4e8-beb008857358,Pan Pacific Serviced Suites Beach Road,1.299576,103.860151,7500B Beach Road,1,0,0,0.38,,1,2023-07-16 13:15:12.027841
a57a15af-81c4-4581-bddb-becb21a5f9e4,MILLENIA PRIVATE LIMITED,1.291937,103.859741,"#B1-01 MILLENIA TOWER SINGAPORE Singapore, 039192",1,0,0,0.24,,1,2023-07-16 13:15:12.027841
cc9bfd93-11ff-4ddb-9edb-bfe00c0cd50e,SHELL TELOK BLANGAH 621_01,1.270383,103.812867,"450 TELOK BLANGAH ROAD SINGAPORE Singapore, 098857",1,0,0,0.26,,1,2023-07-16 13:15:12.027841
f09b5b23-8458-4f99-89e3-a90950653479,SUNTEC CITY (6 ZONES),1.29448,103.858305,"3 TEMASEK BOULEVARD SINGAPORE Singapore, 038983",1,0,0,0.21,,1,2023-07-16 13:15:12.027841
7d0ffa37-f585-4ab4-b45c-70fa374bfa05,SHELL 305 OUTRAM 661_01.,1.28774,103.835,"305 OUTRAM ROAD SINGAPORE Singapore, 169072",1,0,0,0.24,,1,2023-07-16 13:15:12.027841
c71c96ce-e7ab-4872-b560-aed8355f6a05,SHELL HAVELOCK 669_01.,1.290006,103.832466,"548 HAVELOCK ROAD SINGAPORE Singapore, 169637",1,0,0,0.22,,1,2023-07-16 13:15:12.027841
5f2374c4-0311-4403-9896-cb97996a8928,SHELL EAST COAST 631_01,1.308193,103.909796,"338 EAST COAST ROAD SINGAPORE Singapore, 428961",1,0,0,0.23,,1,2023-07-16 13:15:12.027841
88474fff-6ca3-4645-ab40-29c544bd3ea4,SHELL DUNMAN 639_01,1.309721,103.900959,"743 DUNMAN ROAD SINGAPORE Singapore, 439241",1,0,0,0.19,,1,2023-07-16 13:15:12.027841
e06db390-da80-4fd1-9283-de2eaeb5a6a5,SHELL TANJONG KATONG 650_01,1.310955,103.894427,"191 TANJONG KATONG ROAD SINGAPORE Singapore, 436993",1,0,0,0.27,,1,2023-07-16 13:15:12.027841
f339bfcc-ee26-470a-bfb4-442a5bef788b,SHELL GUILLEMARD 662_01,1.310577,103.883834,"132 GUILLEMARD ROAD SINGAPORE Singapore, 399720",1,0,0,0.23,,1,2023-07-16 13:15:12.027841
404d2baa-b410-4495-b5c9-adfb719becb1,SHELL TIONG BAHRU 629_01,1.288301,103.819613,"603 TIONG BAHRU ROAD SINGAPORE Singapore, 158788",1,0,0,0.24,,1,2023-07-16 13:15:12.027841
af4625a5-3bc1-410e-bb88-b07b73287da8,SHELL SIGLAP 602_01,1.312499,103.926555,"40 UPPER EAST COAST ROAD SINGAPORE Singapore, 455212",1,0,0,0.19,,1,2023-07-16 13:15:12.027841
544ef84a-5e7f-462b-a418-0edfa58779f5,SHELL GEYLANG LOR 7 668_01,1.311984,103.875625,"203 GEYLANG ROAD SINGAPORE Singapore, 389266",1,0,0,0.26,,1,2023-07-16 13:15:12.027841
fd57a1de-1b47-4b69-88ca-30faaf6792c9,SHELL CHANGI KEMBANGAN 601_01,1.318787,103.912929,"460 CHANGI ROAD SINGAPORE Singapore, 419883",1,0,0,0.29,,1,2023-07-16 13:15:12.027841
6a7142e8-3da5-40f1-8f1a-282a76758e38,KOMOCO MOTORS - EV,1.291688,103.810306,"253 ALEXANDRA ROAD #01-01 SINGAPORE Singapore, 159936",1,0,0,0.18,,1,2023-07-16 13:15:12.027841
ce567d78-64ef-415f-b39b-472ed1ef5fc2,SHELL ALEXANDRA 651_01,1.290666,103.806853,"358 ALEXANDRA ROAD SINGAPORE Singapore, 159950",1,0,0,0.22,,1,2023-07-16 13:15:12.027841
b4c6521e-f69b-4695-ae46-382d59fcd5e1,SHELL SERANGOON RD 645_01,1.314435,103.857134,"509 SERANGOON ROAD SINGAPORE Singapore, 218152",1,0,0,0.25,,1,2023-07-16 13:15:12.027841
734019bc-bf06-4133-8276-2a010a63e78d,SHELL 168 PASIR PANJANG 635_01,1.277511,103.789709,"168 PASIR PANJANG ROAD SINGAPORE Singapore, 118556",1,0,0,0.3,,1,2023-07-16 13:15:12.027841
181a4dda-07bd-4023-b983-d6fe2a83b3d1,SHELL Q'WAY ANCHORAGE 640_01,1.289379,103.802905,"260 QUEENSWAY SINGAPORE Singapore, 149060",1,0,0,0.28,,1,2023-07-16 13:15:12.027841
5f469af1-ad16-4e60-87a4-a11c1d015680,SHELL PAYA LEBAR PIE 627_01,1.321708,103.891643,"98 PAYA LEBAR ROAD SINGAPORE Singapore, 409008",1,0,0,0.27,,1,2023-07-16 13:15:12.027841
841b6b72-4edb-48cd-ad8a-ed866145092a,SHELL NEWTON HOOPER RD 643_01,1.311378,103.843095,"150 BUKIT TIMAH ROAD SINGAPORE Singapore, 229846",1,0,0,0.29,,1,2023-07-16 13:15:12.027841
8758262a-a4b8-48ba-b498-4f9b35b66ecf,SHELL NEWTON CIRCUS 655_01,1.311142,103.842285,"143 BUKIT TIMAH RD SINGAPORE Singapore, 229843",1,0,0,0.26,,1,2023-07-16 13:15:12.027841
e3f721dc-8ac6-4bd2-ada2-7f9aa2375de5,CUSCADEN TANGLIN MALL,1.304805,103.823901,"163 TANGLIN ROAD B2-01 TANGLIN MALL SINGAPORE Singapore, 247933",1,0,0,0.21,,1,2023-07-16 13:15:12.027841
18049b0e-b027-4f81-a7a0-48f11cfc2903,SHELL MOULMEIN 632_01,1.318876,103.849692,"103 MOULMEIN ROAD SINGAPORE Singapore, 308080",1,0,0,0.21,,1,2023-07-16 13:15:12.027841
9f46ae46-4cf0-43fa-a1bf-8aa474355372,SHELL CWEALTH/STIRLING 612_01,1.297515,103.803366,"355 COMMONWEALTH AVENUE SINGAPORE Singapore, 149731",1,0,0,0.29,,1,2023-07-16 13:15:12.027841
171f7834-88af-4762-ad54-5c9820b8203c,SHELL P.LEBAR M'PHERSON 638_01,1.331822,103.888725,"255 PAYA LEBAR ROAD SINGAPORE Singapore, 409037",1,0,0,0.3,,1,2023-07-16 13:15:12.027841
9e3584d4-0dc0-4a6f-84be-693002deee42,SHELL MACPHERSON 617_01,1.331146,103.877749,"259 MACPHERSON ROAD SINGAPORE Singapore, 348584",1,0,0,0.23,,1,2023-07-16 13:15:12.027841
4362b0cb-669f-49f9-bffe-434f4fb1946f,SHELL THOMSON NOVENA 665_01,1.324175,103.842151,"324 THOMSON ROAD SINGAPORE Singapore, 307672",1,0,0,0.27,,1,2023-07-16 13:15:12.027841
56e08f11-baa6-4bdc-b402-7bbc243b28d5,SHELL SIMPANG BEDOK 623_01,1.330835,103.947557,"331 BEDOK ROAD SINGAPORE Singapore, 469504",1,0,0,0.26,,1,2023-07-16 13:15:12.027841
827c0de0-58b7-4beb-ae64-5dd14dcfcbf2,SHELL 328 PASIR PANJANG 646_01,1.289315,103.777853,"328 PASIR PANJANG ROAD SINGAPORE Singapore, 118654",1,0,0,0.3,,1,2023-07-16 13:15:12.027841
194b49c9-5173-4698-beaf-633c0cb2da83,SINGAPORE EXPO,1.3341,103.959,"02-01 SINGAPORE EXPO SINGAPORE Singapore, 486150",1,0,0,0.14,,1,2023-07-16 13:15:12.027841
200b166e-d075-4d2c-b23a-b819269e04f2,SHELL EASTERN PETROLEUM (PTE) LTD,1.305927,103.791651,"9 NORTH BOUNA VISTA DRI, BASEMENT 1 SINGAPORE Singapore, 138588",1,0,0,0.33,,1,2023-07-16 13:15:12.027841
66207104-30ff-4fec-8748-313e54cb3813,SHELL DUNEARN UNI 658_01,1.323306,103.817319,"314 DUNEARN ROAD SINGAPORE Singapore, 299551",1,0,0,0.24,,1,2023-07-16 13:15:12.027841
fc4114ca-1b1a-49d2-8e9e-28e24cc09310,SHELL BRADDELL 642_01,1.344578,103.864639,"110 BRADDELL ROAD SINGAPORE Singapore, 359914",1,0,0,0.21,,1,2023-07-16 13:15:12.027841
3c1c8200-c73c-4e55-8b18-6725bf28702d,SHELL TOA PAYOH 663_01,1.341095,103.848894,"248 LORONG 1 TOA PAYOH SINGAPORE Singapore, 319755",1,0,0,0.22,,1,2023-07-16 13:15:12.027841
81d23228-da75-4617-9d78-717161ac38c9,SHELL HOUGANG 675_01.,1.349386,103.889993,"600 HOUGANG AVE 3 SINGAPORE Singapore, 538846",1,0,0,0.21,,1,2023-07-16 13:15:12.027841
d0c5b64b-714b-4149-9cae-ea5fd3a06444,SHELL TAMPINES AVE 2,1.349153,103.947705,"9 TAMPINES AVENUE 2 SINGAPORE Singapore, 529731",1,0,0,0.2,,1,2023-07-16 13:15:12.027841
5c79d8d1-8848-49d3-adda-cfd922e11c54,SHELL LAKEVIEW 657_01,1.347975,103.838557,"80 UPPER THOMSON ROAD SINGAPORE Singapore, 574326",1,0,0,0.21,,1,2023-07-16 13:15:12.027841
660bcdf0-5795-4eb7-a490-6250e32189cd,SHELL DUNEARN ENG NEO 666_01,1.331007,103.798941,"648 DUNEARN ROAD SINGAPORE Singapore, 289629",1,0,0,0.28,,1,2023-07-16 13:15:12.027841
ad115d2d-d589-4b33-a07e-c85b96e620b8,SHELL SIN MING 625_01,1.351306,103.835411,"183A UPPER THOMSON ROAD SINGAPORE Singapore, 574332",1,0,0,0.21,,1,2023-07-16 13:15:12.027841
5b44ffd7-7711-4173-9bba-7e6514914ffc,SHELL YIO CHU KANG 633_01,1.360672,103.873902,"158 YIO CHU KANG ROAD SINGAPORE Singapore, 545612",1,0,0,0.25,,1,2023-07-16 13:15:12.027841
35d18ae4-3466-4774-bddc-13ad207eb116,SHELL SGN GDN 606_01,1.363303,103.867444,"49 SERANGOON GARDEN WAY SINGAPORE Singapore, 555944",1,0,0,0.2,,1,2023-07-16 13:15:12.027841
e0c13d5f-114f-4b71-9b13-e09ac0095310,EV LUMENS AUTO PTE LTD,1.359432,103.839865,"300 Sin Ming Road SINGAPORE Singapore, 575626",1,0,0,0.22,,1,2023-07-16 13:15:12.027841
a61545c4-4424-4bc9-a281-1b197d2349ce,SHELL PASIR RIS 607_01,1.365855,103.967185,"1 NEW LOYANG LINK SINGAPORE Singapore, 506931",1,0,0,0.22,,1,2023-07-16 13:15:12.027841
778d2a36-201f-4898-924f-4c8ea2672584,SHELL ANG MO KIO AVE 6 670_01,1.367955,103.844734,"3535 ANG MO KIO, AVENUE 6 SINGAPORE Singapore, 569839",1,0,0,0.29,,1,2023-07-16 13:15:12.027841
b9dd186d-0513-4ff9-85d3-8a00e5b067ea,SHELL UPP BT TIMAH PIE 659_01,1.338636,103.776808,"35 UPPER BUKIT TIMAH ROAD SINGAPORE Singapore, 588166",1,0,0,0.29,,1,2023-07-16 13:15:12.027841
cc8b678a-ab95-4d92-af9d-3810ea6a07de,SHELL PIERCE RESERVOIR 636_01,1.369931,103.828086,"551 UPPER THOMSON ROAD SINGAPORE Singapore, 574415",1,0,0,0.29,,1,2023-07-16 13:15:12.027841
198af7f5-34a2-40a2-9db0-c9ba59afba70,SHELL SELETAR HILLS 613_01,1.383614,103.877004,"298 YIO CHU KANG ROAD SINGAPORE Singapore, 805908",1,0,0,0.26,,1,2023-07-16 13:15:12.027841
577973c2-9f3f-471f-866e-e3b630957f11,SHELL BT TIMAH HILL 667_01,1.345916,103.772113,"219 UPPER BUKIT TIMAH ROAD SINGAPORE Singapore, 588186",1,0,0,0.26,,1,2023-07-16 13:15:12.027841
1a2c242d-ffab-4dca-b430-bfbbe2e075b4,EV SINGAPORE AERO ENGINE,1.373256,103.982242,"11 CALSHOT ROAD SINGAPORE Singapore, 509932",1,0,0,0.24,,1,2023-07-16 13:15:12.027841
ad40ec3e-81cb-4984-95b8-77a2f1c58412,SHELL BT BATOK NP 630_01,1.347664,103.764828,"28 BUKIT BATOK EAST AVENUE 6 SINGAPORE Singapore, 659760",1,0,0,0.24,,1,2023-07-16 13:15:12.027841
a822a838-a1cb-4258-afc2-68ea309b0cf0,Changi Airport Terminal 3,1.3564573010308,103.9865063972240,"65 Airport Boulevard, Singapore 819663",1,0,0,0.25,,1,2023-07-16 13:15:12.027841
6dabd93a-f6d9-4877-b9e3-464925c58c51,Asia Green,1.3562110282663,103.9416687460270,"7 Tampines Grande, Singapore 528736",1,0,0,0.1,,1,2023-07-16 13:15:12.027841
71239019-cd22-4d0d-916b-a33057daf0f2,I12 Katong,1.3060013193201,103.9050740693140,"112 East Coast Road, Singapore 428802",1,0,0,0.1,,1,2023-07-16 13:15:12.027841
90a002b5-e962-4327-a149-daf79bf1032a,Marina Collection,1.2444116410724,103.8398206112710,13-17 Cove Drive Singapore 098327,1,0,0,0.17,,1,2023-07-16 13:15:12.027841
4c50a84a-d8d7-47a5-9521-e1bba19f4db8,Riverplace,1.2899955997604,103.8408744689420,60 Havelock Road Singapore 169658,1,0,0,0.1,,1,2023-07-16 13:15:12.027841
5e672804-59db-4179-bbda-c9f810580353,Martin Place Residences,1.2943866708972,103.8382968266140,2 Martin Place Singapore 237988,1,0,0,0.23,,1,2023-07-16 13:15:12.027841
6ea0b52e-fbf6-4125-8496-b2a8ad8ac7bc,South Beach Commercial,1.2944563644357,103.8561695333600,38 Beach Road Singapore 189762,1,0,0,0.22,,1,2023-07-16 13:15:12.027841
191bd520-b36e-4e9f-8a9e-0e8c7ebef8c1,South Beach Residential,1.2944563644357,103.8561695333600,38 Beach Road Singapore 189762,1,0,0,0.23,,1,2023-07-16 13:15:12.027841
4e9c1465-36f2-4c00-90a2-2e3b7efc0805,Asia Square Tower 2,1.2783544668131,103.8511218477630,"12 Marina View, Singapore 018961",1,0,0,0.19,,1,2023-07-16 13:15:12.027841
b543cff1-ca0a-48be-9324-e15f313cb7ff,Park Royal Kitchener,1.3106927935985,103.8556902422200,"181 Kitchener Road, Singapore 208533",1,0,0,0.2,,1,2023-07-16 13:15:12.027841
9fe0d8bc-9cd4-4eb7-83ba-9e9a01e3244d,Pan Pacific Serviced Suites Beach Road,1.2997782248776,103.8599838247640,"7500B Beach Road, Singapore 199592",1,0,0,0.38,,1,2023-07-16 13:15:12.027841
7b74457d-90ac-44dc-972b-9090c0bf8a25,Capitaspring,1.2841932206467814,103.85021626832763,"88 Market St, Singapore 048948",1,0,0,0.12,,1,2023-07-16 13:15:12.027841
1aa4a42e-901c-42bb-98da-d7c11bd36528,One Degree 15 (Private access only),1.2459096091904216,103.8397942,"11 Cove Drive, #01-01, Sentosa Cove, Singapore 098497",1,0,0,0.35,,1,2023-07-16 13:15:12.027841
2e488d49-31ef-49c8-a925-e74fb35c9642,Caltex Dunearn,1.3190290968874914,103.83317511338463,"130 Dunearn Rd, Singapore 309436",1,0,0,0.14,,1,2023-07-16 13:15:12.027841
d605f4f2-5517-4e0c-9f8a-bb4ed1ce6c5a,Tampines Plaza 2,1.3535029001494643,103.94274972687707,"5 Tampines Central 1, Singapore 529541",1,0,0,0.16,,1,2023-07-16 13:15:12.027841
1d9f9c56-e4d5-4171-8edc-ca0c8544b177,Zhongshan Mall,1.3273092460580298,103.84636673878806,"20 Ah Hood Rd, Singapore 329984",1,0,0,0.14,,1,2023-07-16 13:15:12.027841
98875cb4-08bf-46aa-8d6b-aba36c5ae265,Tekka Place,1.3053312503538694,103.8514153692055,"2 Serangoon Rd, Singapore 218227",1,0,0,0.11,,1,2023-07-16 13:15:12.027841
09c1597f-8036-4ef0-921b-ce52044e136e,Sheraton Towers,1.3120496455347723,103.83654047105618,"39 Scotts Rd, Singapore 228230",1,0,0,0.15,,1,2023-07-16 13:15:12.027841
a81cb66e-13c2-4229-8fea-518bbe57f94a,Mapletree Business City,1.2746046179753079,103.79967479804148,"10 Pasir Panjang Rd, Singapore 117438",1,0,0,0.23,,1,2023-07-16 13:15:12.027841
8a005ac4-b97d-4fe6-b9d1-000e733b05a0,Marina Square,1.2914322779500189,103.85759196735496,"6 Raffles Blvd, Marina Square, Singapore 039594",1,0,0,0.13,,1,2023-07-16 13:15:12.027841
0ee34d4f-2d41-435e-8b26-3d37cfc5be74,Vantage,1.289876243058258,103.8069890673551,"305 Alexandra Road, Singapore 159942",1,0,0,0.7,,1,2023-07-16 13:15:12.027841
ae91fc8a-ffe3-4bd3-867f-23fa97154808,Caltex Changi,1.3166082011470479,103.90020161338465,"78 Changi Rd, Singapore 419714",1,0,0,0.13,,1,2023-07-16 13:15:12.027841
2c678a46-6ca8-44e0-9349-e9b6b2f72cee,Jewel Changi Airport,1.360433441062898,103.9897485692055,"78 Airport Blvd., Singapore 819666",1,0,0,0.2,,1,2023-07-16 13:15:12.027841
b8fe544d-7cfb-44bf-8248-ff541c5c27a2,Techlink,1.3358881915101088,103.90562568454875,"31 Kaki Bukit Rd 3, Singapore 417818",1,0,0,0.8,,1,2023-07-16 13:15:12.027841
ffd3e394-8d85-4eab-ae94-52ba459b85a6,Shaw Centre,1.3065506241753113,103.83186865571309,"1 Scotts Rd, Singapore 228208",1,0,0,0.11,,1,2023-07-16 13:15:12.027841
d7ef2abc-f7b1-4fb1-896a-fbe0201efd1e,Caltex Jurong Spring,1.3495935507350258,103.71475718269808,"100 Jurong West Ave 1, Singapore 649519",1,0,0,0.2,,1,2023-07-16 13:15:12.027841
3cbe2dae-eb68-4a64-a59e-ee112adc5ab4,Eightrium @ Changi Business Park,1.338116865412567,103.9644189096832,"15A Changi Business Park Central 1, Singapore 486035",1,0,0,0.32,,1,2023-07-16 13:15:12.027841
f79931ab-0485-4721-b27e-21f695693ce5,PLQ Mall,1.3176785630259229,103.89277151153401,"10 Paya Lebar Road, PLQ Mall, Paya Lebar Quarter, 409057",1,0,0,0.8,,1,2023-07-16 13:15:12.027841
6cc20e40-56c8-48e9-94aa-f33d00fc5d00,Grand Park City Hall,1.2926194733919862,103.85017532687716,"10 Coleman St, Singapore 179809",1,0,0,0.2,,1,2023-07-16 13:15:12.027841
8219a746-77bb-4889-a2db-b636fa20639b,Chinese Swimming Club,1.3004596333918585,103.90055332687734,"21 Amber Rd, Singapore 439870",1,0,0,0.21,,1,2023-07-16 13:15:12.027841
ffa68577-3bf1-4a1c-9110-3bceb61ddefe,IMM,1.3350942730466588,103.7467214808474,"2 Jurong East Street 21, Singapore 609601",1,0,0,0.3,,1,2023-07-16 13:15:12.027841
9c6ff1bd-0e43-4af9-8c37-d6657b0d0ee5,Tanah Merah Ferry Terminal,1.3144999932854695,103.98847049804131,"50 Tanah Merah Ferry Rd, Singapore 498833",1,0,0,0.26,,1,2023-07-16 13:15:12.027841
11c2bc6d-51e8-46e3-8bd7-0c0c4d8ee0a7,Caltex Chong Pang,1.4305366924935019,103.82984068095544,"3700 Yishun Ring Rd, Singapore 768690",1,0,0,0.17,,1,2023-07-16 13:15:12.027841
6b3ede07-319b-406b-a2f7-1fc80592b345,Kinex,1.3149258932504018,103.89485195756366,"11 Tanjong Katong Rd, Singapore 437157",1,0,0,0.5,,1,2023-07-16 13:15:12.027841
2cd319ec-495f-4b2b-aaac-0b80ea6de9cf,Paya Lebar Square,1.3194165488335265,103.89260719989211,"60 Paya Lebar Rd, Singapore 409051",1,0,0,0.17,,1,2023-07-16 13:15:12.027841
5abcd982-5205-455c-843a-92c628eb0a4c,Techview,1.3363751660197996,103.9097351863994,"1 Kaki Bukit View, Singapore 415941",1,0,0,0.8,,1,2023-07-16 13:15:12.027841
76e14acb-93bc-4e7c-a078-07c87d3b60b3,Autobacs Ubi,1.3323478102542938,103.896064582698,"10 Ubi View, Singapore 408543",1,0,0,0.12,,1,2023-07-16 13:15:12.027841
fd5091c1-91b6-49b0-b317-6ef6f9acae4d,Plaza 8 CBP,1.3338697844844987,103.9654734329671,"1 Changi Business Park Crescent, Changi Business Park, 486025",1,0,0,0.11,,1,2023-07-16 13:15:12.027841
bf370378-394a-4862-aadd-1f4a043cb2d4,Tampines Plaza 1,1.3535029001494643,103.94274972687707,"5 Tampines Central 1, Singapore 529541",1,0,0,0.16,,1,2023-07-16 13:15:12.027841
25fe4036-1d41-4ecd-a74c-66f5736033c6,PLQ 3,1.3161169272111835,103.89372179989206,"2 Tanjong Katong Rd, PLQ 3, Quarter 437161",1,0,0,0.5,,1,2023-07-16 13:15:12.027841
96b8ebe2-9375-4e0d-bcbe-e7089fb9c860,Pan Pacific Serviced Suites Orchard,1.3010475118933178,103.83770512502662,"96 Somerset Rd, Singapore 238163",1,0,0,0.35,,1,2023-07-16 13:15:12.027841
3cdd1d36-fede-43f3-a82b-9c9f27fd2475,UIC Building,1.2780904439075123,103.84967042687718,"5 Shenton Way, Singapore 068808",1,0,0,0.12,,1,2023-07-16 13:15:12.027841
35197f33-ba99-4479-9424-a5ee8711f00f,Citibank Changi (Private access only),1.3339668879548907,103.96608103851919,"3 Changi Business Park Cres, Level 1, Singapore 486026",1,0,0,0.37,,1,2023-07-16 13:15:12.027841
73edc44f-3d2a-4ce3-b038-fc3d7647f7e7,The Alpha,1.2886510170237973,103.77965674407113,"10 Science Park Rd, Singapore 117684",1,0,0,0.9,,1,2023-07-16 13:15:12.027841
76e3787b-e7be-46b9-acdf-5e3eb68fc75a,Connexion,1.3142882629925259,103.8537759399965,"1 Farrer Park Station Rd, Singapore 217562",1,0,0,0.9,,1,2023-07-16 13:15:12.027841
2ba4316c-0848-4182-bcf4-e593f032288b,Nordcom One,1.4458785697971703,103.81418965571275,"3 Gambas Cres, Singapore 757041",1,0,0,0.11,,1,2023-07-16 13:15:12.027841
bb8fe48f-4172-45dc-b728-288fe395ec7c,Rivervale Mall,1.3925894111071226,103.90444325833823,"11 Rivervale Cres, Singapore 545082",1,0,0,0.14,,1,2023-07-16 13:15:12.027841
ddef9a2f-5c10-4548-92dc-285c66e2279e,Hyflux Innovation Centre,1.3176494310264406,103.86336202317587,"80 Bendemeer Rd, Singapore 339949",1,0,0,0.24,,1,2023-07-16 13:15:12.027841
9dbae4e5-bc32-40fc-9809-fa492183a446,3 Changi Business Park Vista,1.3369826136710221,103.96712331153395,"3 Changi Business Park Vista, Singapore 486051",1,0,0,0.28,,1,2023-07-16 13:15:12.027841
e0c4bffe-1b92-4dde-aa47-7e82d61ec89b,Aperia Mall,1.3107261497734806,103.86429564407108,"12 Kallang Ave, Singapore 339511",1,0,0,0.11,,1,2023-07-16 13:15:12.027841
503dd0a3-db50-4214-96f1-d94645836d14,Singapore Zoo,1.4045951880674357,103.79306591338417,"80 Mandai Lake Rd, 729826",1,0,0,0.13,,1,2023-07-16 13:15:12.027841
e190e6fb-b35b-4e62-b026-2e9528ead817,Entrepreneur Business Centre,1.3376000103709433,103.90278751393072,"18 Kaki Bukit Rd 3, Singapore 415978",1,0,0,0.28,,1,2023-07-16 13:15:12.027841
ecb2d9fe-db5c-4838-a4b6-bb5f2c34b7a9,Techplace I,1.3606523410422908,103.85676749804132,"4008/ 4009/ 4010, 4012 Ang Mo Kio Ave 10, 569628",1,0,0,0.11,,1,2023-07-16 13:15:12.027841
a33c396a-6aee-424e-acca-8d63995d7c70,Orchid Country Club,1.4120004063294185,103.84434333666816,"1 Orchid Club Rd, Singapore 769162",1,0,0,0.19,,1,2023-07-16 13:15:12.027841
29dc2c18-62d4-4ef6-ac81-7df8899d2e24,United Square,1.319627713599663,103.84376251989039,"101 Thomson Rd, Singapore 307591",1,0,0,0.13,,1,2023-07-16 13:15:12.027841
86765b67-dca9-41e4-a511-37e1f7581508,Novena Square,1.3201042993444796,103.84397966311558,"238 Thomson Rd, Singapore 307683",1,0,0,0.13,,1,2023-07-16 13:15:12.027841
efe2736e-16af-4ae3-9217-ae2cfb9b6eb9,Sembawang Country Club,1.417491347776572,103.81561037105588,"249 Sembawang Rd, Singapore 758352",1,0,0,0.22,,1,2023-07-16 13:15:12.027841
62efcdf1-ef82-47a0-b6c6-a9a176ce5edd,"Resorts World Sentosa B2, East B1, West B1",1.2553405988367123,103.82180542979668,"8 Sentosa Gateway, 098269",1,0,0,0.42,,1,2023-07-16 13:15:12.027841
513cecb2-0037-4c50-88c0-145638404836,SGX Centre 2,1.2789176171246806,103.84925469672876,"4 Shenton Way, Singapore 068807",1,0,0,0.12,,1,2023-07-16 13:15:12.027841
6f5d3205-2fb2-415f-8b79-ad4780510aac,Resorts World Sentosa B2 (VIP),1.255335497272778,103.8216869448591,"8 Sentosa Gateway, 098269",1,0,0,0.3,,1,2023-07-16 13:15:12.027841
24db2667-7ecd-4302-8c23-feef98f74592,Tagore 23 Warehouse,1.3855520727816606,103.82808762502624,"23 Tagore Ln, Singapore 787601",1,0,0,0.19,,1,2023-07-16 13:15:12.027841
fd13d6a3-be88-41fd-be1f-2a575bca458a,Park Royal Pickering,1.2860015694725884,103.84601569619078,"3 Upper Pickering St, Singapore 058289",1,0,0,0.2,,1,2023-07-16 13:15:12.027841
2379d4a2-5199-4d72-b9a0-c61c3d541f77,Vivocity,1.2646499022068751,103.82221782687743,"1 HarbourFront Walk, Singapore 098585",1,0,0,0.8,,1,2023-07-16 13:15:12.027841
37393a5e-d336-42da-b7a9-ae0c6e97e78a,Tan Chin Tuan Mansion (Private access only),1.3055208503335103,103.83738408269816,"42 Cairnhill Rd, Singapore 229661",1,0,0,0.43,,1,2023-07-16 13:15:12.027841
8a32e417-ffcc-42c4-ab88-51c2682ebdbd,Odeon Towers,1.296507751298007,103.85321882502662,"331 North Bridge Road Odeon Towers, Singapore 188720",1,0,0,0.12,,1,2023-07-16 13:15:12.027841
3a2eff98-e71c-4d0c-a6bd-0e4cd8cd5ef9,Techplace II,1.377471459295966,103.86510913851887,"5012 Ang Mo Kio Ave 5, Singapore 569876",1,0,0,0.12,,1,2023-07-16 13:15:12.027841
4bfff9da-52ec-4b13-a6cb-5024af4d6992,Temasek Club,1.3474006050675817,103.78038188454853,"131 Rifle Range Rd, Singapore 588406",1,0,0,0.12,,1,2023-07-16 13:15:12.027841
3ac39984-167a-494f-8197-5b326f787fd7,Republic Plaza,1.2833620958193959,103.85087783851912,"9 Raffles Pl, Singapore 048619",1,0,0,0.14,,1,2023-07-16 13:15:12.027841
74473258-f825-413c-8dde-c4c85671df05,Great World,1.2938454949730043,103.8318863826982,"1 Kim Seng Promenade, Singapore 237994",1,0,0,0.11,,1,2023-07-16 13:15:12.027841
e87bf375-b4e9-4e9b-8094-55baf9812fd2,Meissa,1.2764820010683784,103.79596175386249,"100D Pasir Panjang Rd, Singapore 118520",1,0,0,0.6,,1,2023-07-16 13:15:12.027841
b1995b02-354b-497c-bf21-2c4ee68a120d,West Park BizCentral,1.3136185714094601,103.69497577105612,"20 Pioneer Cres, Singapore 628555",1,0,0,0.2,,1,2023-07-16 13:15:12.027841
c882ec52-8148-4b69-9a17-36743c87a86d,Liat Towers,1.3054713763910522,103.83052612502659,"541 Orchard Rd, Singapore 238881",1,0,0,0.11,,1,2023-07-16 13:15:12.027841
0359e470-4eca-4602-a5ae-4309d29f26aa,Alexandra Technopark Block A,1.2777054888149257,103.8008662250265,"438A &, 438B Alexandra Rd, 119967",1,0,0,0.28,,1,2023-07-16 13:15:12.027841
b169c445-1bdc-435d-88f8-b334758be5c0,The Galen,1.2865030262283659,103.7841566863995,"61 Science Park Road, Singapore 117525",1,0,0,0.9,,1,2023-07-16 13:15:12.027841
2c682a00-1def-41be-b7aa-467a8fbd8f98,HSL Waterfront@Penjuru,1.3062450377488148,103.7306316183668,"42D Penjuru Rd, Singapore 609162",1,0,0,0.22,,1,2023-07-16 13:15:12.027841
8d6e0ca0-32f8-46a0-9fae-6e690b0f8620,Ascent,1.2912954920855881,103.78585655491173,"2 Science Park Dr, Singapore 118222",1,0,0,0.6,,1,2023-07-16 13:15:12.027841
149da171-489c-4862-b13e-e4ac4651ad75,The Kendall,1.2864051569033701,103.78361656920569,"50 Science Park Rd, Singapore 117406",1,0,0,0.11,,1,2023-07-16 13:15:12.027841
58072a80-e675-45a9-8aa4-5490c5d29cdb,ALICE@MEDIAPOLIS,1.2941353037515957,103.79345738454887,"29 Media Cir., Singapore 138565",1,0,0,0.16,,1,2023-07-16 13:15:12.027841
551c945b-629f-4a1f-a268-96d8f6a1c810,ICON@IBP,1.3275697739032384,103.74899823481773,"3A International Business Park Rd, Singapore 609935",1,0,0,0.8,,1,2023-07-16 13:15:12.027841
4d7dc0e3-6bdb-4566-a5f2-60800eef4537,The Capricorn,1.2901137609182913,103.77884600968341,"1 Science Park Road Singapore Science Park 2, 117528",1,0,0,0.13,,1,2023-07-16 13:15:12.027841
fff4ee08-1f8a-4980-b234-738814d7ead6,Solaris@One-North,1.2984315640818178,103.78986636180299,"1 Fusionopolis Walk, Singapore 138628",1,0,0,0.17,,1,2023-07-16 13:15:12.027841
5a9f2ec4-475f-42d9-b3fa-242eff92012f,Galaxis,1.3001244944627985,103.78833167105627,"1 Fusionopolis Pl, Singapore 138522",1,0,0,0.7,,1,2023-07-16 13:15:12.027841
e913b810-718b-4f87-8257-ad6d228af639,Goldbell Tuas,1.3207750549499142,103.63918377317582,"8 Tuas Ave 18, level 3, Singapore 638892",1,0,0,0.13,,1,2023-07-16 13:15:12.027841
dd3e6d09-abd0-4a9c-97d2-5c6eb38a69a3,Singapore Polytechnic,1.3100545758784998,103.77753876920555,"500 Dover Rd, Singapore 139651",1,0,0,0.21,,1,2023-07-16 13:15:12.027841
4d486cba-873b-429d-ab95-7cad56a77215,Infinite Studios,1.292845267658751,103.79484774633238,"23 Media Cir., #02-15, Singapore 138563",1,0,0,0.16,,1,2023-07-16 13:15:12.027841
94ffdab6-f42c-4911-a90c-b51fafdfbbdc,Corporation Place,1.3256525520174542,103.7199526961907,"2 Corporation Rd, Singapore 618494",1,0,0,0.17,,1,2023-07-16 13:15:12.027841
4d7edc60-2f2e-4253-ba59-1f7fa9744223,Nordic European Centre,1.327590092202289,103.74840188084745,"3 International Business Park Rd, Singapore 609927",1,0,0,0.22,,1,2023-07-16 13:15:12.027841
5df8a928-4f64-4c32-9ad4-3d2aa897e0ba,31 International Business Park,1.3289139920921229,103.74610266920557,"31 International Business Park Rd, Singapore 609921",1,0,0,0.3,,1,2023-07-16 13:15:12.027841
c2932f0e-729f-4dc4-ada4-15077345d3ab,5 Science Park Drive,1.2925926472878033,103.78651842687725,"5 Science Park Dr, Singapore 118265",1,0,0,0.2,,1,2023-07-16 13:15:12.027841
eeb8679d-b33c-44f5-b15f-e2ea6d32042e,Bukit Panjang Plaza,1.3803291935196855,103.76408369433989,"1 Jelebu Rd, Singapore 677743",1,0,0,0.19,,1,2023-07-16 13:15:12.027841
059fbb80-1ebc-4a1f-a3a9-e2050381e6b9,Carros Centre,1.4308853577902021,103.7525576826979,"60 Jln Lam Huat, Singapore 737869",1,0,0,0.13,,1,2023-07-16 13:15:12.027841
39154674-f34d-464d-8241-b7e4d25774da,Singapore Polytechnic T11A ,1.3101508617401123,103.77915954589844,500 Dover Road Singapore 139651,1,0,0,0.27,,1,2023-07-16 13:15:12.027841
4831a2ed-96d6-4005-b6e5-fd34e17ead70,Westgate,1.3343783617019653,103.74278259277344,3 Gateway Drive Singapore 608532,1,0,0,0.8,,1,2023-07-16 13:15:12.027841
b629f37a-5b90-47a4-a2cb-6b3dee4ce40b,Six Battery Road,1.2853877544403076,103.8516616821289,6 Battery Road Singapore 049909,1,0,0,0.16,,1,2023-07-16 13:15:12.027841
82595caf-93a9-4362-97b4-8a88b1b713ee,21 Collyer Quay,1.2851792573928833,103.85275268554688,21 Collyer Quay Singapore 049320,1,0,0,0.15,,1,2023-07-16 13:15:12.027841
630e7865-3f16-4b0d-a039-2238c4272c5c,CapitaSky,1.2770323753356934,103.84796142578125,79 Robinson Road Singapore 068897,1,0,0,0.9,,1,2023-07-16 13:15:12.027841
a1cc2f47-c51f-453c-8024-77eb6bf9eafc,Capital Tower,1.2777024507522583,103.8475341796875,168 Robinson Road Singapore 068912,1,0,0,0.13,,1,2023-07-16 13:15:12.027841
9717a2f3-26a5-463d-be22-931fe65eba48,CapitaGreen,1.2824146747589111,103.85028076171875,138 Market Street Singapore 048946,1,0,0,0.11,,1,2023-07-16 13:15:12.027841
452d9243-01f3-490f-beef-62df0f569a71,Copthorne King’s Hotel,1.2882884740829468,103.83661651611328,403 Havelock Road Singapore 169632,1,0,0,0.22,,1,2023-07-16 13:15:12.027841
fa256750-abfa-4eaf-a964-1ba90598b38e,Gardens by the Bay - Bayfront Plaza,1.2792644500732422,103.86003875732422,18 Marina Gardens Drive Singapore 018953,1,0,0,0.35,,1,2023-07-16 13:15:12.027841
f798821e-e143-44a1-aee6-022bffe270f8,Gardens by the Bay - Main Entrance Carpark,1.2811683416366577,103.86572265625,18 Marina Gardens Drive Singapore 018953,1,0,0,0.42,,1,2023-07-16 13:15:12.027841
76ae9c90-e9c9-406b-9968-347a04fc63e3,Fortune Centre,1.3002822399139404,103.85269927978516,190 Middle Road Singapore 188979,1,0,0,0.14,,1,2023-07-16 13:15:12.027841
543a048d-dd16-4fa5-901d-2c0113ca3b95,M Hotel,1.2737669944763184,103.84503936767578,81 Anson Road Singapore 079908,1,0,0,0.7,,1,2023-07-16 13:15:12.027841
aa9d7956-7a29-4809-8c40-92f48e78b8e5,Orchard Building,1.3014488220214844,103.83724975585938,1 Grange Road Singapore 239693,1,0,0,0.16,,1,2023-07-16 13:15:12.027841
8fc52076-c8fa-4495-b183-953d15389390,Studio M Hotel,1.2908153533935547,103.83917236328125,3 Nanson Road Singapore 238910,1,0,0,0.14,,1,2023-07-16 13:15:12.027841
49de3a05-0b28-4c56-8088-42e1da407471,Quayside Isle,1.247928261756897,103.84172821044922,31 Ocean Way Singapore 098375,1,0,0,0.13,,1,2023-07-16 13:15:12.027841
e1938595-bd52-4413-90a7-ec5c1f09746d,UOB Plaza 1,1.285383939743042,103.8505630493164,80 Raffles Place Singapore 048624,1,0,0,0.11,,1,2023-07-16 13:15:12.027841
bb62a689-6ccd-4666-a0c8-84377b948add,Novena Square,1.3199315071105957,103.84430694580078,238 Thomson Road Singapore 307683,1,0,0,0.13,,1,2023-07-16 13:15:12.027841
0d69f559-6389-4f2e-be28-0d344e0473c3,Sentosa Cove,1.2487763166427612,103.8405532836914,1 Cove Avenue Singapore 098537,1,0,0,0.12,,1,2023-07-16 13:15:12.027841
75127443-5037-480e-8ef3-e92683132461,Waterfront Plaza,1.2905162572860718,103.83502960205078,390A Havelock Road,1,0,0,0.16,,1,2023-07-16 13:15:12.027841
18e6cb65-a04f-46cc-b79e-76f7728a5de2,Orchard Hotel,1.3075321912765503,103.82859802246094,442 Orchard Road Singapore 238879,1,0,0,0.13,,1,2023-07-16 13:15:12.027841
aacb321a-139f-4463-99d1-09cfdfd6dc82,King’s Centre,1.2896087169647217,103.83589172363281,390 Havelock Road Singapore 169662,1,0,0,0.13,,1,2023-07-16 13:15:12.027841
361efe77-9b0c-43d6-aed7-07dc3810266c,Marina One,1.2773464918136597,103.85360717773438,23 Marina Way Singapore 018979,1,0,0,0.1,,1,2023-07-16 13:15:12.027841
c164d4ca-46d7-4a6e-a2e1-ff001e9e8ddb,Palais Renaissance,1.3066492080688477,103.82950592041016,390 Orchard Road Singapore 238871,1,0,0,0.18,,1,2023-07-16 13:15:12.027841
86931288-de42-43b5-ad54-f918894686aa,Funan,1.2911354303359985,103.85015106201172,107 North Bridge Road Singapore 179105,1,0,0,0.5,,1,2023-07-16 13:15:12.027841
ec31551c-ffef-4b5b-bd37-e1a6d166a04a,The Atrium Orchard,1.2999743223190308,103.84535217285156,60A Orchard Road Singapore 238890,1,0,0,0.18,,1,2023-07-16 13:15:12.027841
512ed4fb-cb4e-4ead-b5bd-edb5e90fc5fe,Raffles City Singapore,1.293506145477295,103.8528060913086,252 North Bridge Road Singapore 179103,1,0,0,0.22,,1,2023-07-16 13:15:12.027841
7e609099-04dc-4e5c-9805-da196f694858,Clarke Quay Central,1.2890251874923706,103.84661102294922,6 Eu Tong Sen Street Singapore 059817,1,0,0,0.19,,1,2023-07-16 13:15:12.027841
9e874eee-e238-461a-8c6d-210f7b46c52e,Compass One,1.3919039964675903,103.8946304321289,1 Sengkang Square Singapore 545078,1,0,0,0.11,,1,2023-07-16 13:15:12.027841
b6336826-453e-4578-8f83-99012aec462b,NSRCC Kranji,1.4241323471069336,103.72830200195312,50 Neo Tiew Lane 3,1,0,0,0.12,,1,2023-07-16 13:15:12.027841
9e5c63d8-3ad7-4740-8b6f-930c263875a8,351 on Braddell,1.3434840440750122,103.84548950195312,351 Braddell Road Singapore 579713,1,0,0,0.15,,1,2023-07-16 13:15:12.027841
c5064512-5bc7-4d07-ab81-d098849d8248,Singapore Island Country Club,1.3589462041854858,103.81898498535156,180 Island Club Road Singapore 578774,1,0,0,0.29,,1,2023-07-16 13:15:12.027841
3abc38eb-5a3a-4f4e-a643-69c93cfff367,City Square Mall,1.3113981485366821,103.8565902709961,180 Kitchener Road Singapore 208539,1,0,0,0.16,,1,2023-07-16 13:15:12.027841
7d787225-077a-414b-9193-f2c9f6963c28,Edward Boustead Centre,1.332878589630127,103.89225006103516,82 Ubi Avenue 4 Singapore 408832,1,0,0,0.22,,1,2023-07-16 13:15:12.027841
2772c784-8ad9-4065-ab3e-ab22d99fd196,Temasek Polytechnic Carpark E,1.3475483655929565,103.93012237548828,21 Tampines Avenue 1 Singapore 529757,1,0,0,0.29,,1,2023-07-16 13:15:12.027841
3c325cff-8136-4198-9e17-b2257701ea4e,NSRCC Changi,1.318152666091919,103.97529602050781,10 Changi Coast Walk,1,0,0,0.12,,1,2023-07-16 13:15:12.027841
