id,name,latitude,longitude,address,currently_open,pv_current_in,pv_energy_level,rate_current,rate_predicted,active,last_updated
32dc266b-8cfa-46e7-b48f-0311d9eca024,Queenstown/Science Park Dr/DNV GL/Lobby,1.29014253616333,103.786895751953,"16, Science Park Dr",true,0,0,0.39,,true,2023-07-14 20:56:29.059062
33be1f7f-1499-4cab-899d-4a20ac972278,Central/Claymore Rd/21,1.3077385,103.8301985,Claymore Road 21,true,0,0,0.22,,true,2023-07-14 20:56:29.059062
a3ffece9-40c4-499e-aa77-f0f44b01d13a,Queenstown/Holland Dr/Blk 18/Deck 1A,1.3118,103.79207,18 Holland Drive,true,0,0,0.36,,true,2023-07-14 20:56:29.059062
80616736-218c-4d72-877e-eef03446a9dc,Central/Mohamed Sultan Rd/28,1.29288,103.8413,28 Mohamed Sultan Road,true,0,0,0.28,,true,2023-07-14 20:56:29.059062
234056a7-a7b2-4936-8cef-b42071d5d548,Yishun/Yishun St 22/Blk265,1.4369706,103.8383619,265 Yishun Street 22,true,0,0,0.26,,true,2023-07-14 20:56:29.059062
c1c2b43d-0396-4b3c-839b-ccc8ee34eeae,Tampines/Simei St 1/Blk 108,1.343322,103.951077,108 Simei Street 1,true,0,0,0.27,,true,2023-07-14 20:56:29.059062
564374cd-5294-4390-9460-06c023a253ae,Ang Mo Kio/Ang Mo Kio Av 4/Blk 157,1.3751449,103.839079,157 Ang Mo Kio Avenue 4,true,0,0,0.34,,true,2023-07-14 20:56:29.059062
620b9a8f-b57c-40f4-a4d3-44a6ac570ce1,Tampines/Tampines St 41/Blk 420,1.357537,103.947125,420 Tampines Street 41,true,0,0,0.31,,true,2023-07-14 20:56:29.059062
afe29f00-22ab-4e38-9508-71eb1af0da31,Queenstown/Fusionopolis Pl/1/Deck B4,1.29866,103.78748,1 Fusionopolis Place,true,0,0,0.36,,true,2023-07-14 20:56:29.059062
cac7f4ea-adab-4ab7-b9ed-f42156d34be9,Tampines/Simei Street 1/Blk 132,1.3472048,103.9562201,132 Simei Street 1,true,0,0,0.31,,true,2023-07-14 20:56:29.059062
a5ef032b-2188-4e70-b05d-30f219aff0a2,Tampines/Tampines Avenue 4/Blk 902,1.351249,103.939541,902 Tampines Avenue 4,true,0,0,0.34,,true,2023-07-14 20:56:29.059062
7bc37501-cd0c-4bde-b96c-b419146a3e38,Queenstown/11 Biopolis Way/Helios/Deck B2,1.304152,103.791778,11 Biopolis Way,true,0,0,0.41,,true,2023-07-14 20:56:29.059062
d86b77f9-086f-44f0-a1eb-bd9022dcb706,Yishun/Yishun Ring Road/Blk 853,1.416593,103.836526,850 to 855 Yishun Ring Road,true,0,0,0.31,,true,2023-07-14 20:56:29.059062
fe008b82-caf3-4242-b392-eba9c9142844,Geylang/Haig Road/Blk 8,1.31379,103.896451,8 Haig Road,true,0,0,0.23,,true,2023-07-14 20:56:29.059062
07327501-3119-41c7-a3a1-29d3762ea087,Clementi/Clementi West Street 1/Blk 602,1.304373,103.766838,Blk 602 Clementi West Street 1,true,0,0,0.39,,true,2023-07-14 20:56:29.059062
b9e9b82d-b490-4186-bfe3-71bade9d04bc,Jurong West/Boon Lay Drive/Blk 188,1.344062,103.711245,188 Boon Lay Drive,true,0,0,0.34,,true,2023-07-14 20:56:29.059062
bf70f78d-7ddd-430e-b771-c375bae2e8b7,Bedok/Chai Chee Avenue/Blk 37,1.325325,103.925817,37 Chai Chee Avenue,true,0,0,0.29,,true,2023-07-14 20:56:29.059062
2e90a083-649a-432c-a32b-b2d90fd65164,Tampines/Tampines Street 22/Blk 274,1.348438,103.950524,Blk 272/275 Tampines Street 22,true,0,0,0.35,,true,2023-07-14 20:56:29.059062
ae9ed536-13a7-4f08-92a7-00d941a3479a,Bukit Merah/Bukit Merah View/Blk 129A/Deck 2A,1.283532,103.823372,129A Bukit Merah View,true,0,0,0.45,,true,2023-07-14 20:56:29.059062
5e78f8f6-9f57-4fb5-87e4-895f449e3005,Bukit Timah/Queens Road/Blk 4/Deck 1A,1.318738,103.808169,4 Queen's Road,true,0,0,0.37,,true,2023-07-14 20:56:29.059062
89120566-1668-453e-a202-d604ff548035,Hougang/Hougang Street 61/Blk 688,1.37595,103.885492,Blk 685/691 Hougang Street 61,true,0,0,0.33,,true,2023-07-14 20:56:29.059062
be9250b3-deea-463f-b29a-fffff1e68634,Yishun/Yishun Avenue 3/Blk 769,1.424284,103.833346,773 Yishun Avenue 3,true,0,0,0.3,,true,2023-07-14 20:56:29.059062
8b3a8f8a-662c-4bdb-bbe9-447299c42622,Yishun/Yishun Ring Road/Blk 809,1.416833,103.83048,800-812 Yishun Ring Road,true,0,0,0.31,,true,2023-07-14 20:56:29.059062
2ff8679d-56e9-486f-924b-50bc5ea2458b,Geylang/Eunos Crescent/Blk 31A/Deck 1A,1.320225,103.9017609,31A Eunos Crescent,true,0,0,0.38,,true,2023-07-14 20:56:29.059062
3b6333e3-5b8c-47fb-928d-e1af945a4ae7,Clementi/West Coast Road/Blk 708,1.306052,103.761812,704-714 West Coast Road,true,0,0,0.32,,true,2023-07-14 20:56:29.059062
265d458d-1207-470b-86b4-83b0ab9bd0b6,Bedok/Bedok South Avenue 3/Behind Blk 69,1.319455,103.943098,69 Bedok South Avenue 3,true,0,0,0.4,,true,2023-07-14 20:56:29.059062
0084f95d-a38b-4edb-8435-054e6de384b7,Kembangan/21 Jalan Masjid/Beside Kembangan Plaza,1.320397,103.912296,21 Jalan Masjid,true,0,0,0.48,,true,2023-07-14 20:56:29.059062
0b572de9-0d91-44d4-9901-b6e4f1b0d80b,Bukit Batok/Bukit Batok Street 52/Blk 537,1.355013,103.751187,537 Bukit Batok Street 52,true,0,0,0.41,,true,2023-07-14 20:56:29.059062
732656cf-954e-41fc-aa60-5db95e338ae5,Jurong East/8 Jurong Town Hall Road/JTC Summit/Deck B2,1.33115,103.74184,8 Jurong Town Hall Road,true,0,0,0.54,,true,2023-07-14 20:56:29.059062
b1da46ab-370f-40ec-84a1-d6c64820c1bf,Ang Mo Kio/Ang Mo Kio Avenue 9/Blk 627,1.382052,103.841393,627 Ang Mo Kio Avenue 9,true,0,0,0.38,,true,2023-07-14 20:56:29.059062
8d99da4e-7e3c-48ca-9f25-7acfa010ebfc,Punggol/Punggol Place/Blk 273/Deck 1,1.402703,103.901963,273 Punggol Place,true,0,0,0.36,,true,2023-07-14 20:56:29.059062
3b8fe527-46c9-40f4-857a-b28a8de5a361,Tampines/Tampines Street 91/Blk 921A/Deck 1A,1.347284,103.941371,921A Tampines Street 91,true,0,0,0.44,,true,2023-07-14 20:56:29.059062
da074605-d2ab-47eb-9656-2f5d155a5de0,Jurong East/Jurong East Street 21/Blk 230,1.341813,103.737565,215-230 Jurong East Street 21,true,0,0,0.41,,true,2023-07-14 20:56:29.059062
c2cd58fe-773b-4740-8287-1e5a068efc3d,Ang Mo Kio/Ang Mo Kio Avenue 6/Blk 123,1.370392,103.844376,123 Ang Mo Kio Avenue 6,true,0,0,0.38,,true,2023-07-14 20:56:29.059062
811b55a4-eab2-4b3a-9a56-73adaab12ecf,Jurong West/Jurong West Street 81/Blk 854A/Deck 1A,1.347775,103.696495,854A Jurong West Street 81,true,0,0,0.5,,true,2023-07-14 20:56:29.059062
20575cfd-1f0a-4ae7-91a9-88003b321753,Clementi/Clementi Avenue 2/Blk 334/Beside Caltex,1.314724,103.768296,334 Clementi Avenue 2,true,0,0,0.48,,true,2023-07-14 20:56:29.059062
d6206efc-08a1-42a4-b2e8-9fcb898cdc91,Bukit Batok/Bukit Batok Street 34/Blk 346,1.362466,103.750963,346 Bukit Batok Street 34,true,0,0,0.41,,true,2023-07-14 20:56:29.059062
ceab2b5e-68b1-49fa-baab-94c3bea92729,Tampines/Tampines Street 83/Blk 851,1.353051,103.935061,851 Tampines Street 83,true,0,0,0.35,,true,2023-07-14 20:56:29.059062
4d89e5e6-cd25-4177-8aa5-205fc9160b73,Serangoon/Upper Serangoon View/Blk 476/Deck 3,1.37738,103.903721,476 Upper Serangoon View,true,0,0,0.45,,true,2023-07-14 20:56:29.059062
a7e49123-ec09-498b-907d-4092c1bbf6e8,Bishan/Bishan Street 13/Blk 186,1.349585,103.852838,186 Bishan Street 13,true,0,0,0.31,,true,2023-07-14 20:56:29.059062
22bc8ccd-a08f-4b73-bcfe-aff8f4e62a8e,Geylang/Ubi Avenue 1/Blk 326,1.327319,103.904146,326 Ubi Avenue 1,true,0,0,0.28,,true,2023-07-14 20:56:29.059062
7412f7ae-f380-4029-a635-a8ce3c381e25,Geylang/52 Sims Place/Along Sims Place,1.316531,103.880106,52 Sims Place,true,0,0,0.38,,true,2023-07-14 20:56:29.059062
cca181fa-4939-47d7-a2ba-f51c0cb20e5a,Marine Parade/Across 343 Telok Karau Road/Beside St'Patrick's Court,1.308605,103.912432,Across 343 Telok Kurau Road,true,0,0,0.67,,true,2023-07-14 20:56:29.059062
1d77c386-7448-409b-9ee5-8e203f59ffa8,Hougang/Hougang Street 92/Blk 941A/Deck 1A,1.374287,103.87912,941A Hougang Street 92,true,0,0,0.42,,true,2023-07-14 20:56:29.059062
1413d5dd-87ee-4620-905e-662b09e3d224,Jurong West/Jurong West Street 91/Blk 903,1.339625,103.686256,903 Jurong West Street 91,true,0,0,0.41,,true,2023-07-14 20:56:29.059062
ac3d8115-bfe5-45cb-8414-2f3de6a8bc9c,Toa Payoh/Potong Pasir Avenue 1/Blk 117,1.336558,103.863104,117 Potong Pasir Avenue 1,true,0,0,0.39,,true,2023-07-14 20:56:29.059062
926c0d21-2d3f-4ecc-8568-5c6761f4856f,Yishun/Yishun Ring Road/Blk 165,1.4355487,103.8320274,165 Yishun Ring Road,true,0,0,0.31,,true,2023-07-14 20:56:29.059062
8c1c7440-65e7-45f0-84bf-45e946ce733a,Punggol/Punggol Walk/Blk 213/Deck 1A,1.400134,103.898428,213 Punggol Walk,true,0,0,0.36,,true,2023-07-14 20:56:29.059062
0f26ba44-cafd-40bd-bf2e-bd56173c98da,Hougang/Hougang Avenue 2/Blk 707,1.366507,103.888389,707 Hougang Avenue 2,true,0,0,0.32,,true,2023-07-14 20:56:29.059062
c2a8ac05-363e-4500-874d-c24b38257acf,Bedok/Bedok Reservoir Road/Blk 609,1.33135,103.912391,609 Bedok Reservoir Road,true,0,0,0.34,,true,2023-07-14 20:56:29.059062
6e2fc8f4-6ef6-4870-baea-940e4fdbe022,Jurong East/Jurong East Street 13/Blk 116,1.339583,103.734451,116 Jurong East Street 13,true,0,0,0.41,,true,2023-07-14 20:56:29.059062
ecaef01a-00d6-483c-9f86-19d61ef831bb,Bukit Batok/Bukit Batok East Avenue 5/Blk 241A/Deck 1A,1.350931,103.755227,241A Bukit Batok East Avenue 5,true,0,0,0.54,,true,2023-07-14 20:56:29.059062
40f4ed63-a655-40f8-9ad8-c89c628c55e7,Hougang/Hougang Street 31/Blk 373A/Deck B1B,1.362366,103.890053,373A Hougang Street 31,true,0,0,0.43,,true,2023-07-14 20:56:29.059062
5985d9af-3ae9-42da-b30a-69f160badb9a,Pasir Ris/Pasir Ris Drive 6/Blk 417,1.372102,103.955033,417 Pasir Ris Drive 6,true,0,0,0.35,,true,2023-07-14 20:56:29.059062
f7d38184-f00b-473b-950a-cfa0427d1d04,Serangoon/Serangoon Avenue 4/Blk 212,1.356934,103.873229,212 Serangoon Avenue 4,true,0,0,0.36,,true,2023-07-14 20:56:29.059062
3c188bc6-03f5-4833-a179-c71001adb19e,Hougang/Hougang Avenue 9/Blk 966A/Deck 1A,1.377891,103.877869,966A Hougang Avenue 9,true,0,0,0.41,,true,2023-07-14 20:56:29.059062
a83adf9a-42e8-487b-9ffc-10b2fd7f0a50,Sengkang/Anchorvale Street/Blk 329/Deck 1A,1.39634,103.889296,329 Anchorvale Street,true,0,0,0.42,,true,2023-07-14 20:56:29.059062
63efc8b6-0fb9-4c39-b7f7-095eef76853d,Choa Chu Kang/Choa Chu Kang Crescent/Blk 678A/Deck 1B,1.401978,103.74481,678A Choa Chu Kang Crescent,true,0,0,0.53,,true,2023-07-14 20:56:29.059062
5793fb07-96fd-4a9c-a910-d9f43719cf1b,Ang Mo Kio/Ang Mo Kio Avenue 4/Blk 114,1.372293,103.836312,114 Ang Mo Kio Avenue 4,true,0,0,0.38,,true,2023-07-14 20:56:29.059062
51bcae72-57b5-4bf3-b1da-16be7dd946f2,Kallang/Bendemeer Road/Blk 10/Deck 1A,1.315203,103.860333,10 Bendemeer Road,true,0,0,0.37,,true,2023-07-14 20:56:29.059062
c360c6ff-0c58-4a1c-a8ad-2bd49fa8cf34,Ang Mo Kio/Ang Mo Kio Avenue 6/Blk 647,1.378898,103.843833,647 Ang Mo Kio Avenue 6,true,0,0,0.38,,true,2023-07-14 20:56:29.059062
3f0e626b-cf31-4ec0-8ea8-b794d6f8892f,Bedok/Bedok North Street 3/Blk 534,1.333285,103.92394,534 Bedok North Street 3,true,0,0,0.34,,true,2023-07-14 20:56:29.059062
cfbfc37c-e2a4-47dd-9b7f-21990ed56189,Queenstown/Commonwealth Drive/Blk 117 (Beside Blk 117 Open Space Carpark),1.306972,103.799566,117 Commonwealth Drive,true,0,0,0.73,,true,2023-07-14 20:56:29.059062
8f08abf4-05c9-4b80-8684-c2ad96dafbaf,Kallang/Jalan Rajah/Blk 103,1.327411,103.852514,103 Jalan Rajah,true,0,0,0.27,,true,2023-07-14 20:56:29.059062
4ae12ca8-8e36-46da-87b2-d97f14a17cde,Bukit Batok/Bukit Batok Street 33/Blk 319,1.361125,103.746545,319 Bukit Batok Street 33,true,0,0,0.41,,true,2023-07-14 20:56:29.059062
73e00285-966e-4941-af73-8aaae8dbcfc4,Bishan/Bishan Street 12/Blk 112,1.346756,103.848871,112 Bishan Street 12,true,0,0,0.31,,true,2023-07-14 20:56:29.059062
95b6634a-3421-40ef-bf1d-09bd5dbd1f7d,Sengkang/Fernvale Street/Blk 472/Deck 1A,1.396952,103.881727,472 Fernvale Street,true,0,0,0.4,,true,2023-07-14 20:56:29.059062
930475a1-dc3d-4e5b-8c58-1adecb5e3539,Yishun/Yishun Street 51/Blk 513/Deck 2,1.415984,103.844221,513 Yishun Street 51,true,0,0,0.38,,true,2023-07-14 20:56:29.059062
273e9d66-6f90-40ee-b795-2fbfb3779b31,Sengkang/Compassvale Road/Blk 203/Deck 1A,1.387328,103.895393,203 Compassvale Road,true,0,0,0.41,,true,2023-07-14 20:56:29.059062
68314613-a392-4f2c-b505-c0e55460fbbd,Serangoon/Serangoon North Avenue 4/Blk 512A/Deck 1B,1.371005,103.8751,512A Serangoon North Avenue 4,true,0,0,0.51,,true,2023-07-14 20:56:29.059062
dcb6a01f-856a-4350-974b-33fb5c3295c5,Ang Mo Kio/Ang Mo Kio Street 51/Blk 590/Deck 1A,1.371634,103.853064,590 Ang Mo Kio Street 51,true,0,0,0.47,,true,2023-07-14 20:56:29.059062
0b1e9851-adff-4c54-8596-b06466e8c6ed,Sengkang/Compassvale Walk/Blk 236A/Deck 1B,1.390343,103.900021,236A Compassvale Walk,true,0,0,0.42,,true,2023-07-14 20:56:29.059062
38b6f87f-006e-4203-8529-4d54b47fb9f2,Queenstown/Ghim Moh Road/Blk 2A/Deck 1,1.312774,103.787393,2A Ghim Moh Road,true,0,0,0.38,,true,2023-07-14 20:56:29.059062
165cd684-ebfc-4cf8-bc23-9e83cb3ce036,Central/9 Raffles Place/Republic Plaza/Level 4,1.283658,103.850455,"9 Raffles Place, Republic Plaza",true,0,0,0.46,,true,2023-07-14 20:56:29.059062
d4b35959-7820-48fb-8e77-cacf0cdc88ed,Choa Chu Kang/Choa Chu Kang Avenue 4/Lot one/Deck B2,1.38525,103.744922,21 Choa Chu Kang Avenue 4,true,0,0,0.52,,true,2023-07-14 20:56:29.059062
328457e0-f0fd-4649-9a7e-e57379f54fa1,Sentosa/50 Beach View/Basement/Beach Station(Near Beach Station Escalator),1.251171,103.819188,50 Beach View,true,0,0,0.74,,true,2023-07-14 20:56:29.059062
367b7272-62a2-4492-ab92-30f8abb4267a,Central/1 Esplanade Drive/Basement 1/Lift Lobby B,1.289691,103.85577,1 Esplanade Drive,true,0,0,0.49,,true,2023-07-14 20:56:29.059062
339db3b9-5142-40c3-a2f5-0aab46ce736e,Sentosa/1 Cove Avenue/Sentosa Cove/Blk B/Level 2,1.247741,103.840256,"1 Cove Avenue, Sentosa Cove",true,0,0,0.48,,true,2023-07-14 20:56:29.059062
127764ee-c503-449c-a0a5-016e322d03f4,Central/3E River Valley Road/Clark Quay Blk E/Level 3,1.290715,103.846146,3E River Valley Road,true,0,0,0.53,,true,2023-07-14 20:56:29.059062
2864420c-ffd8-4206-92b7-5683703c20ec,Kallang/Cambridge Road/Blk 43 (Opposite NTUC),1.314899,103.849479,43 Cambridge Road,true,0,0,0.45,,true,2023-07-14 20:56:29.059062
051150b3-5a48-4921-a825-6a1f7c284f3f,Ang Mo Kio/Ang Mo Kio Avenue 4/Blk 110,1.370557,103.837923,110 Ang Mo Kio Avenue 4,true,0,0,0.38,,true,2023-07-14 20:56:29.059062
4f841d05-7c87-4e76-b76f-28c25c94bba4,Yishun/Yishun Ring Road/Blk 781,1.422343,103.832121,781 Yishun Ring Road,true,0,0,0.31,,true,2023-07-14 20:56:29.059062
8cf3f739-016d-4497-843c-388f767187a6,Tampines/Simei Road/Blk 155,1.344756,103.958393,155 Simei Road,true,0,0,0.27,,true,2023-07-14 20:56:29.059062
29a8e1bf-2db0-46b4-b7cd-1f6812292507,Bukit Timah/170 Upper Bukit Timah Road (Infront Bukit Timah Shopping Centre),1.343312,103.775637,170 Upper Bukit Timah Road,true,0,0,0.76,,true,2023-07-14 20:56:29.059062
35cf4a8e-7ea7-4adc-87c7-f70c5f5f2460,Hougang/Hougang Avenue 6/Blk 524,1.373931,103.890352,524 Hougang Avenue 6,true,0,0,0.32,,true,2023-07-14 20:56:29.059062
f494090c-5dc7-468c-92aa-b1fd33300137,Ang Mo Kio/Ang Mo Kio Avenue 10/Blk 449,1.36805,103.8558,449 Ang Mo Kio Avenue 10,true,0,0,0.39,,true,2023-07-14 20:56:29.059062
dbda368e-b16d-4a95-911f-cbe19ab3a787,Tampines/Tampines Street 72/Blk 742A/Deck 1A,1.359905,103.934176,742A Tampines Street 72,true,0,0,0.44,,true,2023-07-14 20:56:29.059062
6f2ebcac-12cd-48d6-ac52-ceaa3f4676eb,Novena/Tan Tock Seng Hospital/Basement 4/Near Lift Lobby D,1.321282,103.84588,11 Jalan Tan Tock Seng,true,0,0,0.58,,true,2023-07-14 20:56:29.059062
cefeb103-9060-4413-ab32-b4478a49a605,Ang Mo Kio/Ang Mo Kio Avenue 8/Blk 510,1.373288,103.849485,510 Ang Mo Kio Avenue 8,true,0,0,0.38,,true,2023-07-14 20:56:29.059062
36b524fe-c067-4c6a-873f-f33f66775fa7,Ang Mo Kio/Ang Mo Kio Avenue 10/Blk 559,1.371022,103.857277,559 Ang Mo Kio Avenue 10,true,0,0,0.39,,true,2023-07-14 20:56:29.059062
dad358fd-baac-4d96-a80d-494330a98f3a,Pasir Ris/Pasir Ris Street 12/Blk 108A/Deck 1A,1.367987,103.956949,108A Pasir Ris Street 12,true,0,0,0.46,,true,2023-07-14 20:56:29.059062
eb7f1699-aad1-44ad-963e-f1e0eb889ef8,Woodlands/Woodlands Circle/Blk 747A/Deck 1A,1.443332,103.795599,747A Woodlands Circle,true,0,0,0.43,,true,2023-07-14 20:56:29.059062
f4cd9273-0fa5-48a8-9578-440efccb22f9,Kallang/Saint George's Road/Blk 22,1.32537,103.862659,22 Saint George's Road,true,0,0,0.34,,true,2023-07-14 20:56:29.059062
911c77a6-7fd4-4b82-871e-26a2ac104ac4,Punggol/Edgedale Plains/Blk 172/Deck 1A,1.39557,103.911788,172 Edgedale Plains,true,0,0,0.39,,true,2023-07-14 20:56:29.059062
c5d4e4cb-8d5f-4ac1-9dac-c3f0fa5a3016,Bukit Panjang/Petir Road/Blk 140,1.375471,103.769068,140 Petir Road,true,0,0,0.32,,true,2023-07-14 20:56:29.059062
2315886d-f956-4fa7-a03c-4d0923093d9c,Jurong East/Jurong East Street 32/Blk 307,1.346612,103.734402,307 Jurong East Street 32,true,0,0,0.41,,true,2023-07-14 20:56:29.059062
0cfe433a-879d-4895-b973-37c2b916b592,Bedok/Chai Chee Street/Blk 53,1.328941,103.921295,53 Chai Chee Street,true,0,0,0.29,,true,2023-07-14 20:56:29.059062
3a9c214b-e4de-480a-82f9-35261c4dfe55,Bedok/Bedok North Road/Blk 425,1.329159,103.92944,425 Bedok North Road,true,0,0,0.3,,true,2023-07-14 20:56:29.059062
2fe72e18-b61b-4277-9675-8bdd39316443,Tampines/Tampines Street 11/Blk 107,1.348142,103.947926,107 Tampines Street 11,true,0,0,0.35,,true,2023-07-14 20:56:29.059062
78b0e2ed-08d8-411a-b5d8-0ff3940470da,Queenstown/Ghim Moh Link/Blk 24/Deck 1B,1.308908,103.785607,24 Ghim Moh Link,true,0,0,0.39,,true,2023-07-14 20:56:29.059062
c30adf2d-101b-4d73-bfdf-df5aaf34a09a,Jurong West/Yung An Road/Blk 364/Deck 1A,1.337184,103.720457,364 Yung An Road,true,0,0,0.4,,true,2023-07-14 20:56:29.059062
bd27fa28-ce80-47bc-b527-794ec075da22,Clementi/Clementi Avenue 3/Blk 440/Deck 1A,1.31642,103.76392,440 Clementi Avenue 3,true,0,0,0.42,,true,2023-07-14 20:56:29.059062
d652f350-a2e5-4ace-b644-3b0b5c6c4143,Yishun/Yishun Street 31/Blk 333/Deck 1A,1.43154,103.844951,333 Yishun Street 31,true,0,0,0.39,,true,2023-07-14 20:56:29.059062
acbd49ec-63ce-4281-9613-108d737afbc2,Pasir Ris/Pasir Ris Street 71/Blk 762A/Deck 1A,1.376083,103.9333,762A Pasir Ris Street 71,true,0,0,0.46,,true,2023-07-14 20:56:29.059062
30bea549-991e-4c57-94a0-72790a082fde,Bukit Merah/Bukit Purmei Road/Blk 109,1.273803,103.8258,109 Bukit Purmei Road,true,0,0,0.37,,true,2023-07-14 20:56:29.059062
275f1421-44c1-4b13-84ff-5bc02788ab8e,Toa Payoh/Lorong 8 Toa Payoh/Blk 213,1.341068,103.8551,213 Lorong 8 Toa Payoh,true,0,0,0.36,,true,2023-07-14 20:56:29.059062
7cabbc16-aff4-4938-96ab-dd5eb49b314b,Choa Chu Kang/Choa Chu Kang Central/Blk 205,1.381051,103.7481,205 Choa Chu Kang Central,true,0,0,0.43,,true,2023-07-14 20:56:29.059062
446d7b5a-0ebc-4cb8-9c86-03617fcb3734,Tampines/Tampines Street 22/Blk 299A,1.350399,103.95424,299A Tampines Street 22,true,0,0,0.36,,true,2023-07-14 20:56:29.059062
f0f9eb78-878e-4c16-a23d-e76590c2837e,Clementi/Clementi West Street 2/Blk 727,1.304208,103.763558,727 Clementi West Street 2,true,0,0,0.39,,true,2023-07-14 20:56:29.059062
7b65612c-a230-42cd-843c-751603708a57,Bukit Merah/Henderson Road/Blk 96/Deck 1A,1.287793,103.821375,96 Henderson Road,true,0,0,0.41,,true,2023-07-14 20:56:29.059062
165c93c9-d2e8-4856-89d6-c2ad88398cdf,Bukit Batok/Bukit Batok West Avenue 5/Blk 436/Deck 1A,1.358769,103.739499,436 Bukit Batok West Avenue 5,true,0,0,0.53,,true,2023-07-14 20:56:29.059062
bb00ffef-4abe-4c9c-9437-fe67f365123c,Tampines/Tampines Avenue 8/Blk 879C/Deck 1A,1.351144,103.928663,879C Tampines Avenue 8,true,0,0,0.43,,true,2023-07-14 20:56:29.059062
ebb14656-f1aa-48f3-81a0-c51d8c6e4d10,Punggol/Punggol Field/Blk 204/Deck B1,1.398494,103.90305,204 Punggol Field,true,0,0,0.37,,true,2023-07-14 20:56:29.059062
62baf81d-3c8e-4c70-8b51-ac2701348910,Bukit Merah/Telok Blangah Rise/Blk 32,1.273125,103.82106,32 Telok Blangah Rise,true,0,0,0.37,,true,2023-07-14 20:56:29.059062
61d79866-cb5a-4a9a-b4e8-ade90889f177,Bedok/Bedok North Street 2/Blk 129,1.327761,103.93846,124 Bedok North Street 2,true,0,0,0.34,,true,2023-07-14 20:56:29.059062
8a786a09-7bbd-4807-9ba3-64fc125d0afe,Marine Parade/Marine Terrace/Blk 59,1.305782,103.914158,59 Marine Terrace,true,0,0,0.35,,true,2023-07-14 20:56:29.059062
6d9ea5d4-9fb2-402c-a63c-817e25b73563,Central/109 North Bridge Road/Funan Mall/Basement 3/Lift Lobby B,1.291599,103.849823,109 North Bridge Road,true,0,0,0.64,,true,2023-07-14 20:56:29.059062
a3db1e91-937b-4052-996b-4f6307163713,Central/252 North Bridge Road/Raffles City/Deck B3,1.2939583,103.8526163,252 North Bridge Road,true,0,0,0.5,,true,2023-07-14 20:56:29.059062
573d5228-aa7c-48d4-9060-911206d3b914,Orchard Central Supercharger,1.3007,103.83978,"181 Orchard Rd, Singapore, Singapore, 238896",true,0,0,0.28,,true,2023-07-14 20:56:29.059062
13eee8ff-6cb9-4187-b1ad-b473f4d2bde2,"Nissan Showroom, Johor Jaya",1.529448,103.816505,"1, Jalan Johor Jaya, Taman Perindustrian Plentong, 81750‎ Masai, ‎Johor, Malaysia",true,0,0,0.27,,true,2023-07-14 20:56:29.059062
0bcc6537-5efa-40b9-ad80-32c12c99b2ca,Hard Rock Hotel Desaru Coast,1.540211,104.264246,"Jln Pantai 3, 81930 Bandar Penawar, Johor, Malaysia",true,0,0,0.28,,true,2023-07-14 20:56:29.059062
16997989-d9c5-4ef1-9020-11dde3c65702,Jade Garden Seafood Corner,1.348106,104.224009,"Lot 4785, 1 Jalan Siakap, Kampung Sungai Rengit, 81620, Pengerang, Johor",true,0,0,0.26,,true,2023-07-14 20:56:29.059062
4dac270a-85df-4fa4-af78-0abf231a90e6,Causeway Point Supercharger,1.436111,103.786496,"1 Woodlands Square, Singapore 738099",true,0,0,0.27,,true,2023-07-14 20:56:29.059062
677395fe-b042-4f2a-880b-15e23a92410c,"seri negeri (government building, public carpark)",1.545174,103.55988,"seri negeri (government building, public carpark)",true,0,0,0.49,,true,2023-07-14 20:56:29.059062
19f9d93d-40f3-4bae-9e9b-2715dd5e1625,"Gentari @ XPark Sunway Iskandar (22 kW AC, 60 kW DC)",1.3953,103.62577,"Jalan Medini Selatan 2 Medini Zone F, Bandar Medini Iskandar, 79250 Nusajaya, Johor, Malaysia",true,0,0,0.52,,true,2023-07-14 20:56:29.059062
df4fc511-dcf3-4cae-90f1-fc7b08a74561,Waterway Point Supercharger,1.406303,103.901878,"83 Punggol Central, Singapore, Singapore, 828761",true,0,0,0.27,,true,2023-07-14 20:56:29.059062
fe8fef7d-c02f-4b90-b0fd-8677e75ab8fe,Century Square Supercharger,1.35235,103.943846,"2 Tampines Central 5, Singapore, Singapore, 529509",true,0,0,0.27,,true,2023-07-14 20:56:29.059062
4464d286-a023-4bac-8737-c633d95917fb,Volvo Pekin Auto,1.516984,103.674438,"PTD 144228, Taman Sutera Utama, 81300 Skudai, Johor, Malaysia",true,0,0,0.16,,true,2023-07-14 20:56:29.059062
9405e9b4-0772-4e65-a48f-84b6139f6798,Block 15 Woodlands Loop,1.449289,103.809175,"15 Woodlands Loop, Woodlands‎ 738322, Singapore",true,0,0,0.23,,true,2023-07-14 20:56:29.059062
4b48eb62-5f48-4a6f-af6b-00c27d017db1,Goldbell Tuas,1.321866,103.639587,"8 Tuas Avenue 18, Singapore 638892",true,0,0,0.13,,true,2023-07-14 20:56:29.059062
23f04cb2-504b-41a6-8f84-dcf96fe89676,Four Points By Sheraton Desaru (22 kW AC),1.5761964123956436,104.20566692948341,"Jalan Kempas 2, Taman Desaru Utama, Bandar Penawar, Malaysia, 81930",true,0,0,0.41,,true,2023-07-14 20:56:29.059062
b9657ecb-780b-431b-8430-72d06083c9aa,Katong V Supercharger,1.302678,103.903352,"30 East Coast Road, Singapore, Singapore, 428751",true,0,0,0.21,,true,2023-07-14 20:56:29.059062
bbadd54e-da05-4fde-9387-92ad54a0aa99,Carros Centre,1.43148,103.75279,"60 Jln Lam Huat, Singapore 737869",true,0,0,0.13,,true,2023-07-14 20:56:29.059062
dc48312a-c97b-4e9d-9afe-d21564ba6294,Setia Eco Garden Sales Gallery [22kWAC],1.4917392359298465,103.58541109090933,"Persiaran Lam Setia Utama, Setia Eco Garden, Gelang Patah, Johor, Malaysia",true,0,0,0.39,,true,2023-07-14 20:56:29.059062
ad427d34-289f-4ac6-a985-5659d52c089e,Shell Choa Chua Kang,1.385636,103.746452,"20 Choa Chu Kang Dr, Singapore 689717",true,0,0,0.2,,true,2023-07-14 20:56:29.059062
3dab5179-13e2-43ea-9122-2cf570189163,Eikoh Roller International (S) Pte Ltd,1.290889,103.624422,45 Tuas View Loop Singapore 637699,true,0,0,0.38,,true,2023-07-14 20:56:29.059062
bea6fd61-0d3f-424b-89a1-da39e97d004b,Petronas R&R Gelang Patah Southbound (22 kW AC),1.386627,103.593256,"LINKEDUA Malaysia - Singapura, 81550, Gelang Patah",true,0,0,0.47,,true,2023-07-14 20:56:29.059062
c6b2cebd-8200-4caf-964e-794d275e66ae,Hyundai Skudai Kiri,1.48965,103.711027,"Kampung Skudai Kiri, 81200 Johor Bahru, Johor, Malaysia",true,0,0,0.19,,true,2023-07-14 20:56:29.059062
82bb688e-9fb6-479c-ab37-6073bdd1d7df,Renaissance Hotel JB,1.4944408897944281,103.81149817047027,"No. 53-01 & 55, 01, Jalan Permas 10/1, Bandar Baru Permas Jaya, 81750 Masai, Johor, Malaysia",true,0,0,0.2,,true,2023-07-14 20:56:29.059062
842bbe90-fff2-40e3-9c27-ebb90f6c206f,Zenith Lifestyle Mall (11 kW AC; 50 kW DC),1.4635729,103.7622119,"82C, Jalan Trus, Bandar Johor Bahru, 80000 Johor Bahru, Johor, Malaysia",true,0,0,0.42,,true,2023-07-14 20:56:29.059062
8eb1e5e0-8dc7-445e-bda8-1434f7c570b5,"EcoWorld Gallery (1 x 22 kW, 1 x 3.7 kW)",1.578823,103.722933,"81100‎ Tebrau‎ Johor, Malaysia",true,0,0,0.4,,true,2023-07-14 20:56:29.059062
2478979b-ec6c-4b54-8613-2313b9c72a1a,Singapore Zoo,1.404922,103.78798,"Mandai Lake Road 80, 729826 Singapore",true,0,0,0.13,,true,2023-07-14 20:56:29.059062
9e95938d-928d-49da-bc9e-3607c83642d8,Bedok Point,1.324702,103.932418,799 Upper Changi Road ,true,0,0,0.11,,true,2023-07-14 20:56:29.059062
6d1a87a6-a8ce-4ce1-908b-2af7c0e7916a,ACO HQ Johor Bahru (180kW),1.535961,103.75342,"14, Jalan Firma 3, Kawasan Perindustrian Tebrau 4, 81100 Johor Bahru, Johor, Malaysia",true,0,0,0.26,,true,2023-07-14 20:56:29.059062
56728971-4b57-488d-bc0e-748b4342c07c,NTU Research Techno Plaza,1.343423,103.679373,"50 Nanyang Ave, Singapore 639798",true,0,0,0.25,,true,2023-07-14 20:56:29.059062
e140572d-e400-45a1-b120-217f613c364d,Petronas Pasir Gudang Highway 3 (1 x 22 kW),1.522925,103.731079,"81800‎ Kota Tinggi‎ Johore, Malaysia",true,0,0,0.43,,true,2023-07-14 20:56:29.059062
be5b0063-fc30-4f17-b5eb-ec3fda23e3af,Juice+: Changi Airport Terminal 2,1.352961,103.988037,9X3Q+56 Singapore,true,0,0,0.33,,true,2023-07-14 20:56:29.059062
96b361d3-9697-4629-a881-fda90c9c4e03,Tagore 23,1.386026,103.828227,"23 Tagore Ln, Singapore 787601",true,0,0,0.9,,true,2023-07-14 20:56:29.059062
a3fef48c-68e3-4c32-85be-a36aa051a3b0,Jen Johor Puteri Harbour (2 x 22 kW),1.417565,103.656614,"Persiaran Puteri Selatan, 79000 Perkampungan (Felcra) Tebing Runtuh, Johore, Malaysia",true,0,0,0.36,,true,2023-07-14 20:56:29.059062
b486eccc-d5df-4e59-a57b-b1cd0f8ee6c3,Harvest@Woodlands by EVone Charging,1.4514023,103.7914704,"280 Woodlands Industrial Park E5, Singapore 757322",true,0,0,0.35,,true,2023-07-14 20:56:29.059062
da83d2e8-8b7e-484e-87ed-144c1e0bc326,BMW Auto Bavaria Tebrau,1.54998,103.792759,"3B, Persiaran Desa Tebrau, Taman Desa Tebrau, 81100 Johor Bahru, Johor, Malaysia",true,0,0,0.23,,true,2023-07-14 20:56:29.059062
90f43f4e-f17d-4ccb-917f-24a698d35eb3,Palkom Motors,1.530922,103.780719,"No. 1, Jalan Kota Tinggi, Batu 7 1/4, Taman Pandan, Johor, Kawasan Perindustrian Pandan, 81100 Johor Bahru, Johor, Malaysia",true,0,0,0.13,,true,2023-07-14 20:56:29.059062
56135452-4826-455b-abbb-3ff872464f8a,Shell Dunearn University,1.323543,103.817429,"288 Dunearn Rd, Singapore 299557",true,0,0,0.24,,true,2023-07-14 20:56:29.059062
c91910a7-b87c-4eb2-ab62-2ceb81928ede,Petronas Kawasan Perindustrian Kota Puteri (22 kW AC),1.506207,103.842717,"Petronas, Kawasan Perindustrian Kota Puteri, 81750 Masai, Johor, Malaysia",true,0,0,0.53,,true,2023-07-14 20:56:29.059062
5d2efc39-6cc5-4857-ad56-a617e1b2e03f,home,1.493149,103.860469,Taman Bukit Rinting ,true,0,0,0.4,,true,2023-07-14 20:56:29.059062
8e406d0f-2c4e-4263-a9de-892e0341f872,West Coast Plaza Supercharger,1.303732,103.76663,"154 West Coast Road, Singapore, 127371",true,0,0,0.29,,true,2023-07-14 20:56:29.059062
11ad3f99-5faf-4a99-83a2-bd477fdba991,The Star Vista Supercharger,1.306932,103.788222,"1 Vista Exchange Green, Singapore 138617",true,0,0,0.27,,true,2023-07-14 20:56:29.059062
08d9b93a-9341-4dd2-8652-fcf579a0e47d,HSL Waterfront @ Penjuru,1.305972,103.730418,"42D Penjuru Road, Singapore 609162",true,0,0,0.24,,true,2023-07-14 20:56:29.059062
df8d79a0-7681-4da8-93db-4801a23b3275,Nordcom One,1.444324,103.814023,"5a Gambas Cres, Singapore",true,0,0,0.11,,true,2023-07-14 20:56:29.059062
71aa7aaf-22c7-4ce1-b967-f7c30a3d5abc,SICC Island SP Charger,1.35895,103.819354,"180 Island Club Rd, Singapore 578774",true,0,0,0.22,,true,2023-07-14 20:56:29.059062
5d6177a0-26ee-4b36-922a-908fdadecd1f,Millenia Walk Supercharger,1.292254,103.859707,"9 Raffles Blvd, Singapore 039596",true,0,0,0.26,,true,2023-07-14 20:56:29.059062
a6232f9b-6dc1-4c6b-859e-5b95e8dbea77,Shell Boon Lay,1.343959,103.707764,"2 Boon Lay Ave, Singapore 649960",true,0,0,0.14,,true,2023-07-14 20:56:29.059062
b8878b30-7c14-44fe-b715-029e5d15ed34,"Sand & Sandals Resort, Desaru (MyEVOC 1x 22 kW)",1.560694,104.253109,"29, Jalan Desaru, Desaru, 82200 Bandar Penawar, Johor, Malaysia",true,0,0,0.47,,true,2023-07-14 20:56:29.059062
1a0ce375-649c-4bc1-9856-cc09494b1654,Shell Yishun,1.430866,103.833008,"1 Yishun Street 11, Singapore 768642",true,0,0,0.12,,true,2023-07-14 20:56:29.059062
098d7d71-ffb8-4b95-b488-0355120ed9f5,Orchid Country Club,1.41139,103.84436,"Orchid Club Road 1, 769162 Singapore",true,0,0,0.19,,true,2023-07-14 20:56:29.059062
ed833023-e09a-422a-bf0c-44db0787b2ae,Shell 648 Dunearn Rd,1.3309944,103.7991123,648 Dunearn Road,true,0,0,0.2,,true,2023-07-14 20:56:29.059062
dc0420cf-59ae-464a-80f1-2cd177540017,Juice+: Gain City Sungei Kadut,1.412927,103.7459779,"71 Sungei Kadut Dr, Level 2, Singapore 729577",true,0,0,0.3,,true,2023-07-14 20:56:29.059062
3ec1feeb-6648-4679-a072-b39764f880ca,Biopolis,1.303518,103.792513,31 Biopolis Way Singapore 138668,true,0,0,0.8,,true,2023-07-14 20:56:29.059062
9d6fa76e-071c-4d7a-9499-ed359b05afc9,City Square Mall (2),1.3113234941054386,103.8563217359124,"180 Kitchener Rd, Singapore 208539",true,0,0,0.2,,true,2023-07-14 20:56:29.059062
869428e5-b419-4638-a31f-5419a9afa7fb,Republic Plaza,1.283519,103.850595,"9 Raffles Place, Singapore 048619",true,0,0,0.14,,true,2023-07-14 20:56:29.059062
d0ab8e42-233e-48fb-8d36-c3ef7f58a34d,Business Aviation Complex,1.417807,103.863333,"700 West Camp Road, Singapore",true,0,0,0.25,,true,2023-07-14 20:56:29.059062
b2673403-0769-4d0b-9098-f7842d386272,Bukit Panjang Plaza,1.379987,103.764397,"1 Jelebu Rd, Singapore 677743",true,0,0,0.19,,true,2023-07-14 20:56:29.059062
485fa98a-8dd5-4730-aba3-af06f1b675a8,CDG Engie - Singapore University Of Social Sciences (SUSS/SIM),1.329017,103.776129,"Singapore, Clementi Rd, #463号SG",true,0,0,0.62,,true,2023-07-14 20:56:29.059062
6166ff67-737f-4096-85b9-78d642c80c67,Sembawang Country Club,1.418225,103.815461,"249 Sembawang Rd, Singapore 758352",true,0,0,0.22,,true,2023-07-14 20:56:29.059062
ed292040-a338-48da-ba7c-0ece14b043c2,KSL City Mall,1.485534,103.762308,"Jalan Beruang, 80250 Taman Tasek, Johore, Malaysia",true,0,0,0.13,,true,2023-07-14 20:56:29.059062
b3e0d559-a231-47b5-801a-9d8b4fd8d3a8,SP Group: CSC Changi,1.3915290769316817,103.98520262309323,"2 Netheravon Rd, Singapore 508503",true,0,0,0.2,,true,2023-07-14 20:56:29.059062
a7d6f082-af7a-4951-9e03-24c3ab5e7012,BlueSG open to EVs: BLK 476 Upp Serangoon View,1.377267,103.903628,"476 Upper Serangoon View, Singapore 530476",true,0,0,0.46,,true,2023-07-14 20:56:29.059062
c0e1b924-a6f1-4918-811f-f3046b169e6a,Penjuru Close #01-11by EVone Charging,1.313091,103.731755,28F Penjuru Close #01-11,true,0,0,0.37,,true,2023-07-14 20:56:29.059062
f0a2da09-c2ef-4b53-83ab-b7814268c1d9,Corporation Place,1.32602,103.719828,"2 Corporation Rd, Singapore 618494",true,0,0,0.17,,true,2023-07-14 20:56:29.059062
cb18c3ef-a0c4-47c6-b2e9-2be3e33dfca4,Shell Bukit Batok,1.350191,103.738495,"11 Bukit Batok West Ave 3, Singapore 659166",true,0,0,0.17,,true,2023-07-14 20:56:29.059062
c44b7ad7-cf62-4fff-bdab-39b25427aee3,"BlueSG open to EVs: Blk 212, Serangoon Ave 4",1.356931,103.873222,"212 Serangoon Ave 4, Singapore 550212",true,0,0,0.44,,true,2023-07-14 20:56:29.059062
5bf8916f-e900-4f26-ab7a-95bc903eda3f,Johor Premium Outlets (3.7 kW AC),1.60292,103.622421,"Jalan Premium Outlets, 81400 Senai, Johore, Malaysia",true,0,0,0.33,,true,2023-07-14 20:56:29.059062
5d34b07e-8f31-43a1-bf8f-855e7e9d2011,Marina Bay Cruise Center Singapore,1.266151,103.860488,"Marina Coastal Drive, Singapore",true,0,0,0.34,,true,2023-07-14 20:56:29.059062
b626a938-0ecf-4df9-b667-4b8187b22a83,Thistle Hotel Multi Level Car Park (3 pin),1.462316,103.74322,"Jalan Sungai Chat, Sri Gelam, 80100 Johor Bahru, Johor, Malaysia",true,0,0,0.42,,true,2023-07-14 20:56:29.059062
174ffb48-e96e-4c34-a36e-6cd4c2cd427d,"BlueSG open to EVs: Blk 678A, Choa Chu Kang Crescent",1.401979,103.745077,"678A Choa Chu Kang Cres, Singapore 681678",true,0,0,0.52,,true,2023-07-14 20:56:29.059062
7366cabe-2da1-472c-9bfa-a95ac7ee297c,Shell Bukit Batok,1.347825,103.764854,"28 Bukit Batok East Ave 6, Singapore 659760",true,0,0,0.17,,true,2023-07-14 20:56:29.059062
66c6acfb-f99f-4d02-9524-3942864e1a25,Temasek Club,1.346985,103.780824,"131 Rifle Range Rd, #04-04, Singapore 588406",true,0,0,0.12,,true,2023-07-14 20:56:29.059062
282a6505-008a-4f4e-be99-407ad010dbc0,Eco Spring,1.588156,103.757771,"2, Jalan Ekoflora Utama, 81100 Johor Bahru, Johor, Malaysia",true,0,0,0.1,,true,2023-07-14 20:56:29.059062
1ef9caa5-dede-4e8f-a253-3d71fb510fd8,Starbucks Seri Austin DT,1.575883,103.747829,"Jalan Seri Austin 1, Taman Seri Austin, 81100 Johor Bahru, Johor",true,0,0,0.24,,true,2023-07-14 20:56:29.059062
a3ce8a60-7fb6-4a73-8d52-5dfcbccc0ea4,Starbucks Shell Seri Alam DT (22 kW AC),1.5107954893126725,103.87764133102405,"Bandar Baru Seri Alam, 81750 Masai, Johor, Malaysia",true,0,0,0.39,,true,2023-07-14 20:56:29.059062
de9d7ae9-0bdf-4958-8149-2131e6713156,MEDINI 7 CORPORATE OFFICE (1 x 3.7 kW),1.413718,103.628348,"Jalan Medini Sentral 5, Bandar Medini Iskandar Malaysia, 79250, Iskandar Puteri",true,0,0,0.38,,true,2023-07-14 20:56:29.059062
ca520ae7-68db-4036-a033-0214f196581d,WATT - The Rochelle,1.332928,103.790957,"188 Keng Lee Rd, Singapore 308414",true,0,0,0.19,,true,2023-07-14 20:56:29.059062
5fa20c83-8bfc-4168-86b5-a3724770c810,Tanah Merah Country Club Garden Course,1.328246,103.979775,"25 Changi Coast Road, Singapore 499803",true,0,0,0.38,,true,2023-07-14 20:56:29.059062
d48cfbaf-8cdb-412a-b702-fc80d652775f,MYDIN Mutiara Rini (3 x 22 kW AC),1.5151474195350636,103.6353126168251,"7, Persiaran Jaya 1, Mutiara Rini, 81300 Johor Bahru, Johor, Malaysia",true,0,0,0.33,,true,2023-07-14 20:56:29.059062
30834507-289a-4ae4-b7bb-70c970401d19,Petronas Toll Skudai Northbound,1.579332,103.650349,"81400 Tampoi, Johore, Malaysia",true,0,0,0.31,,true,2023-07-14 20:56:29.059062
87ed0f1d-13e6-4db1-849f-60e620139de7,Charge+: Ci Yuan Community Club Basement Carpark,1.375239,103.882883,51 Hougang Avenue 9 Singapore 538776,true,0,0,0.48,,true,2023-07-14 20:56:29.059062
70560d71-4d49-48fb-aa46-04f4559c02da,Singapore Polytechnic,1.309943,103.777368,"500 Dover Rd, Singapore 139651",true,0,0,0.21,,true,2023-07-14 20:56:29.059062
a5338dac-9db8-4386-821c-8c79b5a0c87c,West Park BizCentral,1.315185,103.695214,"32 Pioneer Cres, Singapore 628561",true,0,0,0.2,,true,2023-07-14 20:56:29.059062
3f442144-8de3-49b5-bd1a-a773a85f6620,MapleTree Pionner Logistics Hub,1.3177871878172338,103.65339044017435,76 Pionner Road ,true,0,0,0.31,,true,2023-07-14 20:56:29.059062
4487a4fa-caa9-4457-ac84-c05b59080729,SP Group: Techplace II,1.377181,103.866439,"5012 Ang Mo Kio Ave 5, Singapore 569872",true,0,0,0.22,,true,2023-07-14 20:56:29.059062
09427391-e18e-479c-9b2c-7e985a98ce5c,Tanah Merah Ferry Terminal,1.31412,103.9876,"50 Tanah Merah Ferry Rd, Singapore 498833",true,0,0,0.26,,true,2023-07-14 20:56:29.059062
7ef81d15-db84-42fe-badf-4f23145d8fa7,DC Fast Charger @JEGS (Coming Soon),1.303421,103.686712,"45 Shipyard Rd, 45, Singapore 628136",true,0,0,0.35,,true,2023-07-14 20:56:29.059062
38c8d6a8-e900-4e1a-99ee-ee23c8779ef3,Sunway Citrine Hub (3 pin),1.390931,103.639452,"Persiaran Medini 3, Sunway City Iskandar Puteri, 79250 Iskandar Puteri, Johor, Malaysia",true,0,0,0.26,,true,2023-07-14 20:56:29.059062
eff99f48-5867-465e-8ce3-36ad77c11bda,Shell Ang Mo Kio,1.367883,103.844826,"3535 Ang Mo Kio Ave 6, Singapore 569839",true,0,0,0.16,,true,2023-07-14 20:56:29.059062
40f0d625-af66-4165-9f95-1ddd7866dcc0,SP Group: Temasek Polytechnic Carpark E,1.347611,103.930455,"33 Tampines Ave 1, Singapore",true,0,0,0.39,,true,2023-07-14 20:56:29.059062
70cd57da-a469-4015-b7c1-a38c5cfafce9,Gardens by the Bay - Main Entrance Carpark,1.281584,103.866253,18 Marina Gardens Dr,true,0,0,0.42,,true,2023-07-14 20:56:29.059062
b5adbc19-e47b-472d-b5ea-028114ad6986,Woodlands Industrial Park,1.451869,103.796326,"158 Woodlands Industrial Park E5, Singapore 757867",true,0,0,0.25,,true,2023-07-14 20:56:29.059062
4db77af2-1802-4769-b38a-2b26312bd94f,Shell Punggol,1.404761,103.906631,"821 Punggol Rd, Singapore 829169",true,0,0,0.13,,true,2023-07-14 20:56:29.059062
44f6b303-8b74-4157-8724-f6c7ab1bd274,"BlueSG open to EVs: Blk 346, Bt Batok St 34",1.362406,103.750959,"347 Bukit Batok Street 34, Singapore 650347",true,0,0,0.43,,true,2023-07-14 20:56:29.059062
f189f8f5-9dab-43c7-9ef1-8b2a1ab238c1,"BlueSG open to EVs: Blk 472, Fernvale Street",1.397119,103.881632,"472 Fernvale St, Singapore 792472",true,0,0,0.44,,true,2023-07-14 20:56:29.059062
0528db6c-56bf-4cd8-8be2-5aa6b97304c0,BlueSG open to EVs: 417 Pasir Ris Dr 6,1.372044,103.955051,"417 Pasir Ris Drive 6, Singapore 510417",true,0,0,0.38,,true,2023-07-14 20:56:29.059062
c0f3dfd3-073b-42f2-b37f-4fd5c695a196,Tada Station,1.359834,103.833595,"40 Sin Ming Lane, Midview City, Singapore 573958",true,0,0,0.12,,true,2023-07-14 20:56:29.059062
1aa3f364-ddd8-4137-9891-c8a09ccf8b54,BlueSG Charger (4.8kW AC),1.31248,103.874478,"114A Lor 3 Geylang, Singapore 382114 Lor 3 Geylang, Singapore 382114",true,0,0,0.25,,true,2023-07-14 20:56:29.059062
7e61dc94-d6be-4d47-ba32-98c02c0cba06,Shell Telok Blangah,1.270457,103.812772,"450 Telok Blangah Road, Singapore 098857",true,0,0,0.19,,true,2023-07-14 20:56:29.059062
eea96f75-dbd7-4190-9d1b-b7830f87c92a,Shell Recharge Geylang Rd,1.3119747225104634,103.87556815916649,203 Geylang Road ,true,0,0,0.25,,true,2023-07-14 20:56:29.059062
ca4f48e7-d22f-403b-9e68-d6cc8cc54789,BlueSG open to EVs: 21 Jalan Masjid,1.320339,103.912298,"21 Jln Masjid, Singapore 418946",true,0,0,0.35,,true,2023-07-14 20:56:29.059062
02611aaa-6e6d-4eae-afd1-bb6a072b17b9,Starbucks Bandar Seri Alam DT (22 kW AC),1.496464,103.871663,"8, Jln Suria, Bandar Baru Seri Alam, 81750 Masai, Johor",true,0,0,0.4,,true,2023-07-14 20:56:29.059062
9b838209-a0f5-4d1e-9583-2d9596a1cc03,Aste Global -1 Tuas Link 1 by EVone Charging,1.3334408689452686,103.63838921925968,"1 Tuas Link 1, Singapore 638583",true,0,0,0.44,,true,2023-07-14 20:56:29.059062
91c29b26-3dfa-4d87-8a57-71730755cf2b,Shell Sengkang,1.391564,103.892738,"61 Sengkang E Rd, Singapore 545015",true,0,0,0.14,,true,2023-07-14 20:56:29.059062
7f216b52-f278-4d40-829d-56e18044cf02,Shell Serangoon Gardens,1.363386,103.867302,"49 Serangoon Garden Way, Singapore 555944",true,0,0,0.23,,true,2023-07-14 20:56:29.059062
b79c013e-e185-4b65-be5d-eb5e1e04ae8f,Techplace I,1.360599,103.856128,"4008 Ang Mo Kio Ave 10, Singapore 569625",true,0,0,0.11,,true,2023-07-14 20:56:29.059062
649cb997-a7bf-4d7e-bbcb-bf1235b08a94,Paradigm Mall JB,1.515891,103.685631,"Lot no. 4FK-12, 4th floor, Paradigm Mall, Taman Bukit Mewah, 81200 Johor Bahru, Johor, Malaysia",true,0,0,0.16,,true,2023-07-14 20:56:29.059062
87dbc717-e2f4-4388-9267-1718ef471969,Hougang Mall,1.3725894,103.8937225,90 Hougang Avenue 10,true,0,0,0.12,,true,2023-07-14 20:56:29.059062
125f4f45-a548-4477-a11e-68f4626a2ada,"BlueSG open to EVs: Blk 129A, Bt Merah View",1.283617,103.823466,"129A Bukit Merah View, Singapore 151129",true,0,0,0.43,,true,2023-07-14 20:56:29.059062
e8eb1be5-0fce-4e0b-baad-18c2725aa6f5,Charge+: Woodlands Waterfront Carpark,1.451662,103.778802,FQ2H+MG Singapore,true,0,0,0.37,,true,2023-07-14 20:56:29.059062
7a4e0182-15e4-434f-b7e8-2969cf2c93b2,Charge+: 29A Marsiling Drive,1.442634,103.772981,"29A Marsiling Dr, Singapore 731029",true,0,0,0.28,,true,2023-07-14 20:56:29.059062
d15ef30d-36e3-4bb9-a5f9-be1a967ec6f5,Great World Supercharger,1.293346,103.832078,"1 Kim Seng Promenade, Singapore 237994",true,0,0,0.24,,true,2023-07-14 20:56:29.059062
4d26c027-2169-44fe-af2c-433194c498f5,"BlueSG open to EVs: Blk 512A, Serangoon North Ave 4",1.370763,103.875194,"512A Serangoon North Ave 4, Singapore 551512",true,0,0,0.51,,true,2023-07-14 20:56:29.059062
d0865d65-8bb7-415d-b966-8adebee30fcf,Shell Dunman,1.309945,103.901031,"No. 743 Dunman Rd, Singapore 439241",true,0,0,0.12,,true,2023-07-14 20:56:29.059062
8c48f860-12b4-4717-9e5f-6f29eda3f31d,Pioneer Centre,1.3326227,103.6969065,"1 Soon Lee St, Singapore 627605",true,0,0,0.14,,true,2023-07-14 20:56:29.059062
358152a8-e261-43b6-9af1-e86e2e67d7e6,National Service Resort & Country Club,1.317674999999999,103.974319,"10 Changi Coast Walk, Singapore 499739",true,0,0,0.38,,true,2023-07-14 20:56:29.059062
43156d8d-d14b-4ecd-805b-0082f3628330,"BlueSG open to EVs: Blk 31A, Eunos Crescent",1.320107,103.901609,"31A Eunos Cres, Singapore 401031",true,0,0,0.43,,true,2023-07-14 20:56:29.059062
78e4494e-3164-4ad6-8f74-bbdd1b0e58a2,"BlueSG open to EVs: BLK 241A, Bt Batok East Ave 5",1.350628,103.755377,"239 Bukit Batok East Ave 5, Block 239, Singapore 650239",true,0,0,0.49,,true,2023-07-14 20:56:29.059062
e2943bcf-e7f3-47b3-aa0c-850cd78da453,Juice+: Marina Country Club,1.415565,103.899791,11 Northshore Drive Singapore 828670,true,0,0,0.27,,true,2023-07-14 20:56:29.059062
8963fc9e-1bbc-4c56-93b9-109d7a788cf7,CDG 455A Segar Rd,1.3876904485472563,103.77133410158996,"455A Segar Rd, 新加坡 671455",true,0,0,0.17,,true,2023-07-14 20:56:29.059062
1e01a5f5-50c0-4121-b7b8-4f67320637a3,CDGE: 57A Teban Gardens Road,1.322502,103.737148,"57A Teban Gardens Rd, Singapore 601057",true,0,0,0.28,,true,2023-07-14 20:56:29.059062
bf0bad7f-2081-4630-b033-159aad71547e,BlueSG open to EVs: Blk 4 Queens Road,1.319338,103.808723,"4 Queen's Rd, Singapore 260004",true,0,0,0.37,,true,2023-07-14 20:56:29.059062
c79b8e28-452c-41d1-b4f3-4b829d041d9b,"BlueSG open to EVs: Blk 112, Bishan Street 12",1.346635,103.848961,"112 Bishan Street 12, Singapore 570112",true,0,0,0.45,,true,2023-07-14 20:56:29.059062
69dbb893-76af-489d-beca-ac47f01d9430,Charge+: Les Mains Patisserie,1.315606,103.925587,47 Jalan Tua Kong Singapore 457247,true,0,0,0.29,,true,2023-07-14 20:56:29.059062
8f370c22-7127-4f23-adc0-f0a22c530893,Shell Newton Hooper,1.311417,103.843102,"150 Bukit Timah Rd, Singapore 229846",true,0,0,0.19,,true,2023-07-14 20:56:29.059062
8d8fbe83-5cf9-4c7d-acb5-4d4602b244b5,Upper Bukit Timah Shell Recharge,1.3384474506674329,103.7769100419015,"35 Upper Bukit Timah Rd, Singapore 588166",true,0,0,0.32,,true,2023-07-14 20:56:29.059062
577e23f0-f573-4747-913e-082ca6395fde,Charge+ (in operation) (Coming Soon),1.437431,103.801205,"644A Woodlands Ring Rd, Singapore 731644",true,0,0,0.36,,true,2023-07-14 20:56:29.059062
2ad48812-4563-4d69-b884-3f3f3f035786,Techlink,1.33594,103.905571,"31 Kaki Bukit Rd 3, Singapore 417818",true,0,0,0.8,,true,2023-07-14 20:56:29.059062
9b17e1a1-671f-4103-9358-3c495f282f74,Sengkang Grand Mall,1.3818507,103.8927293,70 Compassvale Bow Singapore 544692,true,0,0,0.19,,true,2023-07-14 20:56:29.059062
1b051319-0fd1-4d01-ade3-372a5a91ecec,Up@Robertson Quay,1.290676,103.837616,"75 Robertson Quay, Singapore 238238",true,0,0,0.17,,true,2023-07-14 20:56:29.059062
b84979b0-8b0f-4639-8de8-b2697b29499e,SP Group: Rivervale Mall,1.392337,103.904346,"11 Rivervale Crescent, Singapore 545082",true,0,0,0.24,,true,2023-07-14 20:56:29.059062
91978635-23d0-4427-a677-7599db9dd1e2,"BlueSG open to EVs: Blk 334, Clementi Ave 2",1.314714,103.768249,"334 Clementi Ave 2, Singapore 120334",true,0,0,0.43,,true,2023-07-14 20:56:29.059062
0c9af0c3-9f0f-4703-8e43-fca647d29a9e,700A Pasir Ris Drive 10,1.3807763343736783,103.93853976322937,511700,true,0,0,0.23,,true,2023-07-14 20:56:29.059062
5fa34e7d-323f-4cd8-975b-48c76f2186a0,Caltex Jurong spring,1.349641,103.71487,"100 Jurong West Ave 1, Singapore 649519",true,0,0,0.2,,true,2023-07-14 20:56:29.059062
64f063ef-52a9-4750-bb1a-8dd306ff67c5,LHN Energy Phoenix Park,1.29804,103.816568,"318 Tanglin Rd, Singapore 247979",true,0,0,0.23,,true,2023-07-14 20:56:29.059062
234e33b8-4987-4051-b1df-d4359f69db64,National Heart Center,1.281513,103.836831,"17 Third Hospital Avenue, Singapore",true,0,0,0.21,,true,2023-07-14 20:56:29.059062
8f5bae64-60c1-4538-a0f1-a1f8a3b0ca56,BlueSG open to EVs: Across 343 Telok Kurau Road,1.308638,103.912318,"21A St. Patrick's Road, Singapore 424143",true,0,0,0.47,,true,2023-07-14 20:56:29.059062
6e37405e-7d47-48c5-bcee-5822f463ad47,"BlueSG open to EVs: Blk 230, Jurong East St 21",1.341795,103.737547,"230 Jurong East Street 21, Singapore 600231",true,0,0,0.46,,true,2023-07-14 20:56:29.059062
73fa4631-e803-40b6-bfdb-e81f99675f21,Resorts World Sentosa,1.257043,103.820353,"8 Sentosa Gateway, Singapore 098269",true,0,0,0.21,,true,2023-07-14 20:56:29.059062
237c32b5-8e79-468c-865f-b877def9c2a1,SP: Vivocity,1.264843,103.823285,"1 HarbourFront Walk, Singapore 098585",true,0,0,0.12,,true,2023-07-14 20:56:29.059062
62f9fce2-27d1-43d3-aefb-75c1c0baaf37,Connexion,1.312553,103.854282,"1 Farrer Park Station Rd, Singapore 217562",true,0,0,0.9,,true,2023-07-14 20:56:29.059062
0bea976a-26ea-4e6a-bbc2-22026f18abd8,GoParkin: Union Gas building,1.350622,103.89087,"89 Defu Lane 10, Singapore 539220",true,0,0,0.28,,true,2023-07-14 20:56:29.059062
0e3feb08-aa1c-4b81-994b-366626914531,Charge+: Defu Industrial City,1.3448827324526693,103.89675123010906,2 Defu South Street 1,true,0,0,0.29,,true,2023-07-14 20:56:29.059062
1b6cb975-8dda-4655-ac21-35d839e546a2,ESSO Pioneer,1.312940252173984,103.68734506001852,19 Pioneer Road S628499,true,0,0,0.12,,true,2023-07-14 20:56:29.059062
46cb5443-af1c-4734-aabf-4553cba0c736,The Concourse,1.30136,103.862236,"300 Beach Rd, Singapore 199555",true,0,0,0.13,,true,2023-07-14 20:56:29.059062
0a9575c7-da17-49f3-9924-b268d6c05eb1,"BlueSG open to EVs: Blk 854A, Jurong West St 81",1.347799,103.696657,"854A Jurong West Street 81, Singapore 641854",true,0,0,0.47,,true,2023-07-14 20:56:29.059062
e10605aa-805f-412a-ae36-b3615066a2ee,BlueSG open to EVs: Blk 265 Yishun St 22,1.436903,103.838345,"266 Yishun Street 22, Singapore 760266",true,0,0,0.4,,true,2023-07-14 20:56:29.059062
ccd80d38-dcde-468b-95bf-4fa0ccc535df,Singapore Polytechnic MSCP,1.311246,103.776681,"Dover Road, Commonwealth‎ 13, Singapore",true,0,0,0.26,,true,2023-07-14 20:56:29.059062
5011f9e8-75a5-44b8-b14c-a857b1ae1af5,Autobacs Ubi,1.33314,103.896672,"10 Ubi View, Singapore 408543",true,0,0,0.12,,true,2023-07-14 20:56:29.059062
c23d9cc5-a435-438d-a99f-fc9aaf488063,KED ENERGY PTE LTD,1.3363712654194329,103.75465851277113,"48 Toh Guan Rd E, Singapore 608586",true,0,0,0.18,,true,2023-07-14 20:56:29.059062
831adea4-1783-4e68-98a6-231a5f75c7e4,CDG Engie: West Coast Park (McDonald’s),1.297562,103.763779,"71 W Coast Hwy, Singapore 126844",true,0,0,0.39,,true,2023-07-14 20:56:29.059062
5d1c59df-b07e-43b0-8b85-b3cd35941331,Shell,1.331795,103.888855,"255 Paya Lebar Rd, Singapore 409037",true,0,0,0.5,,true,2023-07-14 20:56:29.059062
ec51c54e-921e-48b1-ba0f-052d9f1798f9,CDGE: Esso Upper Aljunied,1.3322678261427052,103.8790348300666,"373 Upper Aljunied Rd, Singapore 367859",true,0,0,0.25,,true,2023-07-14 20:56:29.059062
7880464e-e070-494e-9e05-68e8fcaae0cc,"BlueSG open to EVs: Blk 903, Jurong West St 91",1.33961,103.686232,"903 Jurong West Street 91, Singapore 640903",true,0,0,0.46,,true,2023-07-14 20:56:29.059062
647874cc-fda6-46b9-8930-ed12ad2bb7cd,"BlueSG open to EVs: Blk 117, Commonwealth Drive",1.306944,103.799533,"117 Commonwealth Cres, Singapore",true,0,0,0.47,,true,2023-07-14 20:56:29.059062
4dde4687-ce78-481c-8025-c2d59d2216e9,UE Square Tower (red zone),1.293274,103.84234,"205 River Valley Rd, Singapore 238274",true,0,0,0.26,,true,2023-07-14 20:56:29.059062
b78adb1a-0bbf-47e8-8674-8b8bb79ab904,"BlueSG open to EVs: Blk 966A, Hougang Ave 9",1.377945,103.877754,"966A Hougang Avenue 9, Singapore 531966",true,0,0,0.43,,true,2023-07-14 20:56:29.059062
62c816a7-1436-482c-8f1e-29f7f025f8c1,"BlueSG open to EVs: Blk 326, Ubi Ave 1",1.32726,103.904208,"327 Ubi Ave 1, Block 327, Singapore 400327",true,0,0,0.38,,true,2023-07-14 20:56:29.059062
b9052a50-f143-406a-9659-91f41ae2238c,BlueSG open to EVs: BLK 853 Yishun Ring Road,1.416467,103.836745,"853 Yishun Ring Road, Singapore 760853",true,0,0,0.44,,true,2023-07-14 20:56:29.059062
22304a8f-64e0-48f5-b5b6-460f295ee30f,BlueSG open to EVs: Blk 513 Yishun Street 51,1.415948,103.8442,"513c Yishun Street 51, Singapore 760513",true,0,0,0.44,,true,2023-07-14 20:56:29.059062
9e170c1d-f33f-49a4-b251-c6462f8ff544,LHN Energy Raeburn Park,1.273106,103.833155,"10 Raeburn Park, Singapore 088702",true,0,0,0.23,,true,2023-07-14 20:56:29.059062
34864768-c483-413e-af89-70422743ae58,135A Pasir Ris Street 11,1.364802,103.956863,135A Pasir Ris Street 11,true,0,0,0.24,,true,2023-07-14 20:56:29.059062
9b45b1fd-3a94-45f6-84c3-8f9f0ca6d1ea,SP Group: Jewel Changi Airport,1.360699,103.989603,78 Airport Boulevard Singapore 819666,true,0,0,0.3,,true,2023-07-14 20:56:29.059062
8cef7b49-ed47-4104-9269-17842e298deb,Tanah Merah Country Club Tampines Course,1.3270196096163687,103.96994161767903,151 Xilin Avenue,true,0,0,0.4,,true,2023-07-14 20:56:29.059062
332b5d4e-47e7-4a9e-8072-0b148d0905f6,Mapletree,1.319214800107794,103.6882628000002,21 benoi sector,true,0,0,0.9,,true,2023-07-14 20:56:29.059062
5db6dfbf-4236-4ca8-9aab-7baf6106db02,SPC Bukit Batok,1.3432427908352402,103.75834370192821,"50 Bukit Batok East Ave 3, Singapore 659879",true,0,0,0.15,,true,2023-07-14 20:56:29.059062
a0298cf5-e991-4898-8666-ff9c3bf4671e,Expo Carpark D,1.3339762545044767,103.95838708806289,1 Expo drive ,true,0,0,0.14,,true,2023-07-14 20:56:29.059062
93c7242b-3a80-4332-b7c7-e2ce2eb01f57,CDG 787A Choa Chu Kang Dr,1.3951133955580453,103.74766113446626,"787A Choa Chu Kang Dr, 新加坡 680787",true,0,0,0.25,,true,2023-07-14 20:56:29.059062
e5757490-946a-4585-88e2-ed66bb53efdb,LHN Energy,1.372804,103.763206,794 Upper Bukit Timah Road,true,0,0,0.1,,true,2023-07-14 20:56:29.059062
369b4ff1-1b51-442b-9c15-966f9dcbcbb0,CDGE: 117 Alkaff Crescent,1.3368648834995271,103.87302016909817,"117 Alkaff Cres, Singapore 341115",true,0,0,0.25,,true,2023-07-14 20:56:29.059062
e928d448-520e-421e-b924-b3939375eb4a,IKEA Tampines,1.373907,103.932551,"60 Tampines North Drive 2, Singapore 528764",true,0,0,0.13,,true,2023-07-14 20:56:29.059062
87bc5b0c-ec33-4a79-aeec-b44eaae73f3f,BlueSG open to EVs: Blk 157 Ang Mo Kio Ave 4,1.375126,103.839276,"157 Ang Mo Kio Avenue 4, Singapore 56",true,0,0,0.44,,true,2023-07-14 20:56:29.059062
354efe32-25b5-41df-b8c4-f582fbbed2a8,Charge+: 220 Hougang Street 21,1.356983,103.884404,220 Hougang St 21,true,0,0,0.3,,true,2023-07-14 20:56:29.059062
8bc77ae5-df4e-4acb-923e-2764a3adc97d,BlueSG open to EVs: 52 Sims Place,1.316535,103.880084,"52 Sims Pl, Singapore 380052",true,0,0,0.33,,true,2023-07-14 20:56:29.059062
70ac22d6-c689-497b-9036-6072cd50b184,bluecharge@senja link 651,1.3868954434701355,103.76439869962157,senja link 651 carpark,true,0,0,0.25,,true,2023-07-14 20:56:29.059062
797ab89f-2960-465c-b64c-4eb865a88f58,Jit Poh Building,1.272962,103.842388,"19 Keppel Road, Singapore",true,0,0,0.16,,true,2023-07-14 20:56:29.059062
92be3c39-e165-4e4f-be02-e652377fef7a,"BlueSG open to EVs: Blk 602, Clementi West St 1",1.305137,103.766255,"602 Clementi West Street 1, Singapore 120602",true,0,0,0.47,,true,2023-07-14 20:56:29.059062
4d4dfef2-2d75-4eb7-8d88-9e34f5ef4986,CDGEG: Blk 146A Lorong 2 Toa Payoh,1.334501,103.845655,"146A Lor 2 Toa Payoh, Singapore 311146",true,0,0,0.34,,true,2023-07-14 20:56:29.059062
321c648c-4fc0-464a-9c47-240c92897ca6,"BlueSG open to EVs: Blk 117, Potong Pasir Ave 1",1.336562,103.863076,"114 Potong Pasir Ave 1, Singapore 350114",true,0,0,0.47,,true,2023-07-14 20:56:29.059062
fe63cb4a-1539-4032-9c84-19de61151a4e,Molek Pine 4 (3.7 kW AC),1.525273,103.784371,"Jalan Molek 1/27, 81750‎ Pasir Gudang‎ Johor, Maleisië",true,0,0,0.24,,true,2023-07-14 20:56:29.059062
3b423abc-7eec-4fb8-92bd-62ba8a2ddec7,Sheraton Towers,1.311664,103.83638,"39 Scotts Rd, Singapore 228230",true,0,0,0.15,,true,2023-07-14 20:56:29.059062
d593d5d3-0d38-4f0b-8713-039fcd4cb7ab,CDG EV Charger,1.35583,103.844308,290A Bishan St 24,true,0,0,0.14,,true,2023-07-14 20:56:29.059062
8e3fa241-af03-4939-8592-1d7beb42beb5,"BlueSG open to EVs: Bedok South Ave 3, behind blk 69",1.319527,103.942997,"behind blk 69, bedok south ave 3",true,0,0,0.52,,true,2023-07-14 20:56:29.059062
290c63fb-1bcf-4e2c-a2f6-e1fef006954b,D'Arena@Upper Jurong by EVone Charging,1.3294741,103.6822694,"511 Upper Jurong Rd, Singapore 638366",true,0,0,0.38,,true,2023-07-14 20:56:29.059062
9e0cecf0-ab5e-4a1f-8991-8e9612ff58e2,BlueSG open to EVs: 37 Chai Chee Street,1.325191,103.925778,"36 Chai Chee Avenue, Singapore 461037",true,0,0,0.39,,true,2023-07-14 20:56:29.059062
7c19afd6-e25f-46fa-89dc-992aa83952c1,CDG Engie - 274A Toh Guan Road,1.341565,103.747455,"274A Toh Guan Rd, Singapore 600276",true,0,0,0.3,,true,2023-07-14 20:56:29.059062
533e28e3-09c3-48f4-8d69-3acceac02c1d,BlueSG open to EVs: 420 Tampines St 41,1.357784,103.947142,"419 Tampines Street 41, Singapore 529204",true,0,0,0.38,,true,2023-07-14 20:56:29.059062
f10b0418-d44a-48f3-9069-4ec4e809d469,CDGE: Singapore Botanic Gardens Botany Centre,1.3084224,103.8182032,"1 Cluny Rd, Singapore 259569",true,0,0,0.45,,true,2023-07-14 20:56:29.059062
2ee97733-81d5-49f5-9248-63158e4f84cb,Charge+: 633 Punggol Drive,1.400696,103.913915,"633 Punggol Dr, Singapore 820633",true,0,0,0.26,,true,2023-07-14 20:56:29.059062
07d4d431-dabe-456c-b00b-e5d37e2234fd,"BlueSG open to EVs: Blk 688, Hougang St 61",1.375892,103.885486,"688 Hougang Street 61, Block 688, Singapore 530688",true,0,0,0.42,,true,2023-07-14 20:56:29.059062
5cf65cfb-0eca-4f1f-9955-1ebdfde05fbf,Shell Recharge Tanglin Mall,1.305026,103.823851,"163, Tanglin Road, 247933",true,0,0,0.27,,true,2023-07-14 20:56:29.059062
59232380-a3e5-416f-9635-683cd39adbfc,BlueSG open to EVs: Blk 769 Yishun Ave 3,1.424279,103.833275,"769 Yishun Avenue 3, Singapore 760769",true,0,0,0.4,,true,2023-07-14 20:56:29.059062
e38026d9-0667-4842-8d9e-e21be6148f2a,Gardens By The Bay - Bayfront Plaza,1.279198,103.860073,"Unnamed Road, Singapore",true,0,0,0.35,,true,2023-07-14 20:56:29.059062
f3f836b8-7a21-47de-809b-ed80d5606ba2,ChargEco: Block 80 HDB Car Park,1.274012010646763,103.80735956132412,"80 Telok Blangah Street 31, Singapore 102080",true,0,0,0.31,,true,2023-07-14 20:56:29.059062
5d1b8223-2c2d-4ce8-ac07-cf87c99647ff,NUS Stephen Riady Center,1.304036,103.77304,"2 College Ave West, Singapore",true,0,0,0.24,,true,2023-07-14 20:56:29.059062
ce81a3b6-4d54-4c63-a140-661cbc054e48,Willing Hearts,1.3142482784278031,103.90704547618223,1 LorJ Telok Kurau,true,0,0,0.14,,true,2023-07-14 20:56:29.059062
a51db61a-8412-479d-b294-dba2c61bf0f6,Shell Tampines,1.349178,103.948016,"9 Tampines Ave 2, Singapore 529731",true,0,0,0.14,,true,2023-07-14 20:56:29.059062
051e55aa-8765-4c63-92bb-8aa8bd0278eb,Marina Bay Sands,1.285604,103.861107,"10 Bayfront Ave, Singapore 018956",true,0,0,0.16,,true,2023-07-14 20:56:29.059062
5ab71705-67ed-444d-80dc-1a23bab17bd8,Bluecharge: Blk 32 Telok Blangah Rise,1.2731828240010936,103.82100548832092,"Telok Blangah Rise, Mount Faber Grace Park, Singapore",true,0,0,0.37,,true,2023-07-14 20:56:29.059062
5f4213c7-70ea-4627-8ad1-616b0f551e0b,Shell Braddell,1.3449,103.864464,"110 Braddell Rd, Singapore 359914",true,0,0,0.14,,true,2023-07-14 20:56:29.059062
1affeb77-4583-4afe-b5d4-e7f7c1554c78,"BlueSG open to EVs: Blk 809, Yishun Ring Road",1.416877,103.83055,"809 Yishun Ring Rd, Singapore 760809",true,0,0,0.45,,true,2023-07-14 20:56:29.059062
c607d8d1-0e59-4465-a1b6-2a1f4fcde3ff,SP Group: Marina Square,1.29179,103.857758,"Raffles Blvd, Singapore",true,0,0,0.23,,true,2023-07-14 20:56:29.059062
6a4bb95c-6aaa-46d5-bc0c-acf2def7a4d5,Tampines Plaza,1.353142,103.943078,"3 Tampines Central 1, Singapore 529540",true,0,0,0.14,,true,2023-07-14 20:56:29.059062
3c63ef32-052c-4c07-affe-25571ba2c234,"BlueSG open to EVs: Blk 103, Jalan Rajah",1.327412,103.852496,"103 Jln Rajah, Block 103, Singapore 321103",true,0,0,0.4,,true,2023-07-14 20:56:29.059062
4736be7a-732c-4b4e-9a98-03033f99fdaf,Lee Kong Chian School of Medicine,1.321851,103.848984,"11 Mandalay Rd, Singapore",true,0,0,0.33,,true,2023-07-14 20:56:29.059062
b2900df2-4c30-467a-bec0-a9ecbd3c0ef9,Charge+: 519A Woodlands Drive 14,1.4344276124617934,103.79231706261635,"519A Woodlands Drive 14, Singapore 731519",true,0,0,0.32,,true,2023-07-14 20:56:29.059062
8df19922-ebdf-4f9a-bfb6-c2c94c17644e,Shell Recharge Pasir Ris,1.365821,103.966996,"1 New Loyang Link, Singapore 506931",true,0,0,0.24,,true,2023-07-14 20:56:29.059062
2350912e-68a8-4a66-ad4c-9bb32d6c9d8a,Tiong Bahru Plaza,1.2862842,103.8277824,"355 Jln Bukit Ho Swee, Singapore 169567",true,0,0,0.17,,true,2023-07-14 20:56:29.059062
ffdf1b0a-df89-4fec-8747-13d6d8881c37,Charge+: 226 Sumang Lane,1.4029418,103.8934653,"226 Sumang Lane, Singapore 820226",true,0,0,0.24,,true,2023-07-14 20:56:29.059062
e6cb7bc7-30f5-4e89-86a9-212b69f110a6,"BlueSG open to EVs: Blk 537, Bt Batok St 52",1.354886,103.751171,"539 Bukit Batok Street 52, Block 539, Singapore 650539",true,0,0,0.43,,true,2023-07-14 20:56:29.059062
d617feb1-588c-496d-ab88-a50199bf0773,65A Kallang Bahru MSCP,1.3198411,103.8690631,65A Kallang Bahru S(331065),true,0,0,0.22,,true,2023-07-14 20:56:29.059062
bf3bb372-3131-41db-aa4a-82b4222a7737,"Bluecharge: 50 Beach View, Basement",1.251294,103.818745,"50 Beach View, Singapore 098604",true,0,0,0.35,,true,2023-07-14 20:56:29.059062
aa5d03da-3196-4a4c-a447-24a860a0abf1,"BlueSG open to EVs: Blk 329, Anchorvale St",1.396432,103.88939,"329 Anchorvale St, Singapore 540329",true,0,0,0.42,,true,2023-07-14 20:56:29.059062
c1ff57aa-6bac-4d0c-a04d-2260c9e07337,CDGE: Autobay @ Kakit Bukit,1.3416647,103.9125865,1 Kakit Bukit Ave 6 ,true,0,0,0.27,,true,2023-07-14 20:56:29.059062
4f52fed5-7487-4658-aeac-3e0d5ec8240f,CDGE: 635A Jurong West Street Car Park,1.342288,103.69866,"635A Jurong West Street 65, Singapore 641635",true,0,0,0.38,,true,2023-07-14 20:56:29.059062
3c10f60e-7250-4ebf-a1fa-6f7aad8070a3,Storhub Toa Payoh,1.333221,103.852334,"615 Lrg. 5 Toa Payoh, Singapore 319457",true,0,0,0.17,,true,2023-07-14 20:56:29.059062
92f4d9ff-9c24-4fb7-a4a2-5119d0b351fd,Capella Hotel Solacharge,1.2496291,103.8243003,"1 The Knolls, Sentosa Island, 098297",true,0,0,0.24,,true,2023-07-14 20:56:29.059062
bce9f2e6-804a-4521-b1dd-0cb18bd6edea,Shell Paya Lebar,1.322042,103.891624,"98 Paya Lebar Rd, Singapore 409008",true,0,0,0.16,,true,2023-07-14 20:56:29.059062
af182f4e-288b-488e-a05b-fe448e05ac85,"Bluecharge: 534, Bedok North St 3",1.334142,103.927754,"534 Bedok North Street 3, Singapore 460534",true,0,0,0.33,,true,2023-07-14 20:56:29.059062
c4955d82-3930-4af0-a457-8a03774fd4fd,The Siemens Center,1.328057,103.870776,"62 MacPherson Rd, Singapore",true,0,0,0.18,,true,2023-07-14 20:56:29.059062
650a36e6-682d-4844-9d6c-444e39da1b1e,AA CENTRE,1.289876,103.812956,"2 Kung Chong Rd, Singapore 159140",true,0,0,0.9,,true,2023-07-14 20:56:29.059062
4fddf1ae-3f0d-4362-840f-17029a350739,CDGE: Sin Ming Autocity,1.3592956,103.8392412,160 Sin Ming Drive,true,0,0,0.23,,true,2023-07-14 20:56:29.059062
0f3a869e-641d-430d-b6a5-38dacf13a7f2,CDG Engie- Blk 451 Bukit Batok West Ave 6,1.353007,103.743458,Blk 451 Bukit Batok West Ave 6,true,0,0,0.41,,true,2023-07-14 20:56:29.059062
e5f49d12-1d2f-41d4-b667-eb4a11877cf1,"BlueSG open to EVs: Blk 609, Bedok Reservoir Road",1.33138,103.912313,"610 Bedok Reservoir Rd, Block 610, Singapore 470610",true,0,0,0.49,,true,2023-07-14 20:56:29.059062
e970b6fb-9d63-4a07-a8e7-0de9f2349a2a,BlueSG open to EVs: Blk 108 Simei St 1,1.343233,103.950837,"108 Simei Street 1, Singapore 520108",true,0,0,0.38,,true,2023-07-14 20:56:29.059062
0caaae11-16c1-4acc-a68a-a000597460c3,SP Group: Caltex Changi,1.316149,103.900084,"78 Changi Rd, Singapore 419714",true,0,0,0.23,,true,2023-07-14 20:56:29.059062
8e6d9007-1bf1-43d1-a3e9-88cbcce87b1b,Charge+: BLK 315 MSCP Y65M,1.432573,103.841762,"315 Yishun Ave 9, Block 315 Carpark, Singapore",true,0,0,0.26,,true,2023-07-14 20:56:29.059062
a20e047c-f5c8-45d5-bb4d-c8977a19b4b9,"Charge+: 431 Yishun Ave 1, Deck 5",1.420133,103.847638,"431c Yishun Ave 1, Singapore",true,0,0,0.33,,true,2023-07-14 20:56:29.059062
11a206f3-308a-44d7-b017-1e43bc390255,CDG: 183 Boon Lay MSCP,1.349273760519521,103.70946689980984,"183 Boon Lay Ave, Singapore 641183",true,0,0,0.22,,true,2023-07-14 20:56:29.059062
1d8e16ab-5ea7-4766-b83e-27e9024b3e81,"CDG Engie - 311, Clementi Ave 4",1.319082,103.765158,"311 Clementi Ave 4, Singapore 120311",true,0,0,0.31,,true,2023-07-14 20:56:29.059062
8b65780d-d3da-4628-9874-c430c6b6a3b5,BlueSG open to EVs: Blk 590 Ang Mo Kio St 51,1.371474,103.853217,"590 Ang Mo Kio Street 51, Singapore",true,0,0,0.44,,true,2023-07-14 20:56:29.059062
48173c6f-fbd7-49c5-b920-5dadb81dbaea,CDG Engie - 85 Dawson Road,1.29541,103.809262,85 Dawson Road,true,0,0,0.26,,true,2023-07-14 20:56:29.059062
3050ea75-955e-4ad5-9a60-c75845183030,116 Jalan Tenteram MSCP,1.3277547,103.8611462,116 Jalan Tenteram,true,0,0,0.23,,true,2023-07-14 20:56:29.059062
f8ddb609-6505-4cd8-8b7f-9518717ecc85,"BlueSG open to EVs: Blk 203, Compassvale Road",1.387004,103.895935,"Blk 203, Singapore",true,0,0,0.45,,true,2023-07-14 20:56:29.059062
4ceb94bb-ece7-4b14-b84c-1bd7e0e659aa,Zhongshan Mall,1.327329,103.846394,"20 Ah Hood Rd, Singapore",true,0,0,0.14,,true,2023-07-14 20:56:29.059062
e6a93da3-48e1-46be-a5e8-ac7976760263,Shell,1.324259,103.842094,"324 Thomson Rd, Singapore 307672",true,0,0,0.5,,true,2023-07-14 20:56:29.059062
38f31e1f-da49-47fe-ad96-06a8bf28dceb,CDG Blk 289H Bukit Batok Street 25,1.344397052573844,103.76003090089257,"Blk 289H Bukit Batok Street 25, 新加坡 657289",true,0,0,0.34,,true,2023-07-14 20:56:29.059062
b763a753-6684-4b9c-b063-7ac41b4c1f2e,BlueCharge: 425 Bedok North Road,1.329215,103.929551,425 Bedok Road Singapore 460425 ,true,0,0,0.32,,true,2023-07-14 20:56:29.059062
57d2d4d7-c756-4fab-86ce-a1c1499007b3,CDG Engie - Blk 810 Choa Chu Kang Ave 7,1.373813,103.746674,"810 Choa Chu Kang Ave 7, Singapore 681810",true,0,0,0.39,,true,2023-07-14 20:56:29.059062
04d033b6-e5bc-41eb-ba0e-70bb615bf9da,870B Tampines St 86 (MSCP),1.356331,103.931039,"870B Tampines Street 86, Singapore 522870",true,0,0,0.26,,true,2023-07-14 20:56:29.059062
4bb25fb3-13c5-4886-bb46-051139eab643,Charge+: Blk 440 (MSCP) Fernvale Link,1.392986,103.878422,"440 Fernvale Link, Singapore 790440",true,0,0,0.37,,true,2023-07-14 20:56:29.059062
15205486-7abd-4c4a-b66d-bf75ca60f367,Jurong Point,1.339342,103.705387,"1 Jurong West Central 2, Jurong Point, Singapore 648886",true,0,0,0.12,,true,2023-07-14 20:56:29.059062
09ac92c8-1200-4f92-87ae-bcaa12c3e187,"20 Ayer Rajah Crescent, Technopreneur Centre",1.295231,103.789842,"20 Ayer Rajah Crescent, Singapore",true,0,0,0.44,,true,2023-07-14 20:56:29.059062
f956a1bf-08a6-4738-b616-032b6e60cafb,The Capricorn Underground Car Park,1.289639,103.778957,"1 Science Park Rd, Singapore 117528",true,0,0,0.34,,true,2023-07-14 20:56:29.059062
2bae1a37-4520-408b-af8e-b923f7fff6d0,Storhub Jurong East by EVone Charging,1.3392365,103.7493724,3C Toh Guan Road East,true,0,0,0.37,,true,2023-07-14 20:56:29.059062
c313dc39-2845-48c6-b94a-5ecea752b658,PE Drive Charging Station,1.331391,103.89573,"52 Ubi Avenue 3, Singapore 408867",true,0,0,0.25,,true,2023-07-14 20:56:29.059062
1b43e48f-18a6-4eb0-a76f-5496146c1c18,"BlueSG open to EVs: Blk 269, Tampines St 21",1.350668,103.947558,"269 Tampines Street 21, Singapore 520269",true,0,0,0.43,,true,2023-07-14 20:56:29.059062
d221fb81-0dae-4a1e-8e7e-e72ed822f27a,One@Redhill Centre,1.284876,103.808552,"1 Jln Kilang Barat, Singapore 159345",true,0,0,0.18,,true,2023-07-14 20:56:29.059062
9fc663db-7a42-4219-8cf1-7ac583eb5925,Millenia Walk,1.291826,103.860199,9 Raffles Boulevard ,true,0,0,0.13,,true,2023-07-14 20:56:29.059062
2c2ea376-92ac-440c-a874-ea67817d50ac,CDG Teck Whye Ln Blk 118A Carpark,1.379520435889066,103.74993425995183,"118A Teck Whye Ln, Singapore 681118",true,0,0,0.33,,true,2023-07-14 20:56:29.059062
9362ef9d-f51b-4065-995d-c51a606304df,Kim Chuan-Tai Seng by EVone Charging,1.33778,103.891319,"1005 Tai Seng Ave, #01-2576",true,0,0,0.36,,true,2023-07-14 20:56:29.059062
cc716440-56ed-4ee1-8844-b62f39c5bf78,"BlueSG open to EVs: Blk 165, Yishun Ring Road",1.435556,103.831963,"165 Yishun Ring Rd, Singapore 760165",true,0,0,0.45,,true,2023-07-14 20:56:29.059062
f3b2524a-b18a-4900-8912-082bc7ca9c92,Pan Pacific Serviced Suites Beach Road,1.299576,103.860151,7500B Beach Road,true,0,0,0.38,,true,2023-07-14 20:56:29.059062
863fa408-93a3-451f-90e8-21ec17e0c078,MILLENIA PRIVATE LIMITED,1.291937,103.859741,"#B1-01 MILLENIA TOWER SINGAPORE Singapore, 039192",true,0,0,0.24,,true,2023-07-14 20:56:29.059062
3394fef3-f1d8-4b7c-9395-ce7c769c49e4,SHELL TELOK BLANGAH 621_01,1.270383,103.812867,"450 TELOK BLANGAH ROAD SINGAPORE Singapore, 098857",true,0,0,0.26,,true,2023-07-14 20:56:29.059062
55244f1f-21af-4783-a063-5c199e3f2b84,SUNTEC CITY (6 ZONES),1.29448,103.858305,"3 TEMASEK BOULEVARD SINGAPORE Singapore, 038983",true,0,0,0.21,,true,2023-07-14 20:56:29.059062
bac96980-bba9-41e0-a94f-416586575838,SHELL 305 OUTRAM 661_01.,1.28774,103.835,"305 OUTRAM ROAD SINGAPORE Singapore, 169072",true,0,0,0.24,,true,2023-07-14 20:56:29.059062
f8580a50-6f59-4c0c-8f87-9f2a2261aaed,SHELL HAVELOCK 669_01.,1.290006,103.832466,"548 HAVELOCK ROAD SINGAPORE Singapore, 169637",true,0,0,0.22,,true,2023-07-14 20:56:29.059062
db862474-5975-4cbb-a839-b9f1990a7882,SHELL EAST COAST 631_01,1.308193,103.909796,"338 EAST COAST ROAD SINGAPORE Singapore, 428961",true,0,0,0.23,,true,2023-07-14 20:56:29.059062
15cb3141-2107-4b0b-b630-90b09a486a69,SHELL DUNMAN 639_01,1.309721,103.900959,"743 DUNMAN ROAD SINGAPORE Singapore, 439241",true,0,0,0.19,,true,2023-07-14 20:56:29.059062
1d9cdfb1-d6f8-470d-ba13-395e965f0efb,SHELL TANJONG KATONG 650_01,1.310955,103.894427,"191 TANJONG KATONG ROAD SINGAPORE Singapore, 436993",true,0,0,0.27,,true,2023-07-14 20:56:29.059062
e38fd924-1412-4702-b298-c8f96453b356,SHELL GUILLEMARD 662_01,1.310577,103.883834,"132 GUILLEMARD ROAD SINGAPORE Singapore, 399720",true,0,0,0.23,,true,2023-07-14 20:56:29.059062
3b253c0d-0e5d-405e-bb33-92fbe8c79787,SHELL TIONG BAHRU 629_01,1.288301,103.819613,"603 TIONG BAHRU ROAD SINGAPORE Singapore, 158788",true,0,0,0.24,,true,2023-07-14 20:56:29.059062
3c741313-0987-4c23-b661-0d28682c929d,SHELL SIGLAP 602_01,1.312499,103.926555,"40 UPPER EAST COAST ROAD SINGAPORE Singapore, 455212",true,0,0,0.19,,true,2023-07-14 20:56:29.059062
3b532b3f-a7d0-4b66-b9c3-fc3bbb087874,SHELL GEYLANG LOR 7 668_01,1.311984,103.875625,"203 GEYLANG ROAD SINGAPORE Singapore, 389266",true,0,0,0.26,,true,2023-07-14 20:56:29.059062
7e09b5ef-15a8-432a-9aa9-0d75ee6aac26,SHELL CHANGI KEMBANGAN 601_01,1.318787,103.912929,"460 CHANGI ROAD SINGAPORE Singapore, 419883",true,0,0,0.29,,true,2023-07-14 20:56:29.059062
6180ac52-4a0c-4ac6-9caf-f7ba3f3542f3,KOMOCO MOTORS - EV,1.291688,103.810306,"253 ALEXANDRA ROAD #01-01 SINGAPORE Singapore, 159936",true,0,0,0.18,,true,2023-07-14 20:56:29.059062
f3c9e93e-c922-41be-9276-38e84575954c,SHELL ALEXANDRA 651_01,1.290666,103.806853,"358 ALEXANDRA ROAD SINGAPORE Singapore, 159950",true,0,0,0.22,,true,2023-07-14 20:56:29.059062
cc585533-cda7-4732-bddd-cc07b05dd2fe,SHELL SERANGOON RD 645_01,1.314435,103.857134,"509 SERANGOON ROAD SINGAPORE Singapore, 218152",true,0,0,0.25,,true,2023-07-14 20:56:29.059062
b35d5103-2d32-4eff-88ff-8b9f78d8818b,SHELL 168 PASIR PANJANG 635_01,1.277511,103.789709,"168 PASIR PANJANG ROAD SINGAPORE Singapore, 118556",true,0,0,0.3,,true,2023-07-14 20:56:29.059062
d585381f-9d4f-42f4-878c-67bd7986a97b,SHELL Q'WAY ANCHORAGE 640_01,1.289379,103.802905,"260 QUEENSWAY SINGAPORE Singapore, 149060",true,0,0,0.28,,true,2023-07-14 20:56:29.059062
19495f27-5c97-44fd-8e56-8694d61bc342,SHELL PAYA LEBAR PIE 627_01,1.321708,103.891643,"98 PAYA LEBAR ROAD SINGAPORE Singapore, 409008",true,0,0,0.27,,true,2023-07-14 20:56:29.059062
665ab85d-68b5-4459-9ba8-060367bbf15d,SHELL NEWTON HOOPER RD 643_01,1.311378,103.843095,"150 BUKIT TIMAH ROAD SINGAPORE Singapore, 229846",true,0,0,0.29,,true,2023-07-14 20:56:29.059062
f06a45dc-3e9d-467b-9834-41060293ec26,SHELL NEWTON CIRCUS 655_01,1.311142,103.842285,"143 BUKIT TIMAH RD SINGAPORE Singapore, 229843",true,0,0,0.26,,true,2023-07-14 20:56:29.059062
07d3149e-72cd-445b-877a-97ce35d2e6ca,CUSCADEN TANGLIN MALL,1.304805,103.823901,"163 TANGLIN ROAD B2-01 TANGLIN MALL SINGAPORE Singapore, 247933",true,0,0,0.21,,true,2023-07-14 20:56:29.059062
50c41c71-ab3e-435b-a742-79895a054eb2,SHELL MOULMEIN 632_01,1.318876,103.849692,"103 MOULMEIN ROAD SINGAPORE Singapore, 308080",true,0,0,0.21,,true,2023-07-14 20:56:29.059062
4f13d6e0-6a8e-4a72-b270-a59fe9fec27d,SHELL CWEALTH/STIRLING 612_01,1.297515,103.803366,"355 COMMONWEALTH AVENUE SINGAPORE Singapore, 149731",true,0,0,0.29,,true,2023-07-14 20:56:29.059062
ec8af725-a236-4e71-854a-9bea404bb4ee,SHELL P.LEBAR M'PHERSON 638_01,1.331822,103.888725,"255 PAYA LEBAR ROAD SINGAPORE Singapore, 409037",true,0,0,0.3,,true,2023-07-14 20:56:29.059062
34ccdac5-d260-4837-8b53-2964f2ccacd0,SHELL MACPHERSON 617_01,1.331146,103.877749,"259 MACPHERSON ROAD SINGAPORE Singapore, 348584",true,0,0,0.23,,true,2023-07-14 20:56:29.059062
6436e983-f9d8-482f-a72f-3efaf1379d5b,SHELL THOMSON NOVENA 665_01,1.324175,103.842151,"324 THOMSON ROAD SINGAPORE Singapore, 307672",true,0,0,0.27,,true,2023-07-14 20:56:29.059062
c8a994fe-90ba-4b97-a66e-0777a4a5a6da,SHELL SIMPANG BEDOK 623_01,1.330835,103.947557,"331 BEDOK ROAD SINGAPORE Singapore, 469504",true,0,0,0.26,,true,2023-07-14 20:56:29.059062
869b5d9f-342d-4fcf-81d7-572bafc46fd6,SHELL 328 PASIR PANJANG 646_01,1.289315,103.777853,"328 PASIR PANJANG ROAD SINGAPORE Singapore, 118654",true,0,0,0.3,,true,2023-07-14 20:56:29.059062
7b12e334-efda-4fe2-8c6b-a7f2d6fd9982,SINGAPORE EXPO,1.3341,103.959,"02-01 SINGAPORE EXPO SINGAPORE Singapore, 486150",true,0,0,0.14,,true,2023-07-14 20:56:29.059062
feef9bdd-b84c-4d6e-b859-9ef3c16ad924,SHELL EASTERN PETROLEUM (PTE) LTD,1.305927,103.791651,"9 NORTH BOUNA VISTA DRI, BASEMENT 1 SINGAPORE Singapore, 138588",true,0,0,0.33,,true,2023-07-14 20:56:29.059062
4c0c475e-dcb7-4f0d-bd0b-8dbe1589c51f,SHELL DUNEARN UNI 658_01,1.323306,103.817319,"314 DUNEARN ROAD SINGAPORE Singapore, 299551",true,0,0,0.24,,true,2023-07-14 20:56:29.059062
0ce68f3f-eba9-46b7-9af1-529b2149666f,SHELL BRADDELL 642_01,1.344578,103.864639,"110 BRADDELL ROAD SINGAPORE Singapore, 359914",true,0,0,0.21,,true,2023-07-14 20:56:29.059062
ace0f583-6100-4a0a-94a5-805241a5ea97,SHELL TOA PAYOH 663_01,1.341095,103.848894,"248 LORONG 1 TOA PAYOH SINGAPORE Singapore, 319755",true,0,0,0.22,,true,2023-07-14 20:56:29.059062
056a8b88-14cd-452c-889c-4e1fd9ae2630,SHELL HOUGANG 675_01.,1.349386,103.889993,"600 HOUGANG AVE 3 SINGAPORE Singapore, 538846",true,0,0,0.21,,true,2023-07-14 20:56:29.059062
cb3e592e-9595-4488-b0cc-c821cd959414,SHELL TAMPINES AVE 2,1.349153,103.947705,"9 TAMPINES AVENUE 2 SINGAPORE Singapore, 529731",true,0,0,0.2,,true,2023-07-14 20:56:29.059062
56bbf75f-104d-40f8-a80f-8ccb0b1e99cf,SHELL LAKEVIEW 657_01,1.347975,103.838557,"80 UPPER THOMSON ROAD SINGAPORE Singapore, 574326",true,0,0,0.21,,true,2023-07-14 20:56:29.059062
120ce3ec-f8ec-4662-9b91-6465f140b683,SHELL DUNEARN ENG NEO 666_01,1.331007,103.798941,"648 DUNEARN ROAD SINGAPORE Singapore, 289629",true,0,0,0.28,,true,2023-07-14 20:56:29.059062
895e4616-8457-4fd6-9ec7-96e0e8e6b3c1,SHELL SIN MING 625_01,1.351306,103.835411,"183A UPPER THOMSON ROAD SINGAPORE Singapore, 574332",true,0,0,0.21,,true,2023-07-14 20:56:29.059062
c04d8af1-a4a6-4df3-971a-112a5966b143,SHELL YIO CHU KANG 633_01,1.360672,103.873902,"158 YIO CHU KANG ROAD SINGAPORE Singapore, 545612",true,0,0,0.25,,true,2023-07-14 20:56:29.059062
a5444b91-ede8-4d0f-9ede-6543a0dfcc2c,SHELL SGN GDN 606_01,1.363303,103.867444,"49 SERANGOON GARDEN WAY SINGAPORE Singapore, 555944",true,0,0,0.2,,true,2023-07-14 20:56:29.059062
3dcd3825-024b-4944-b9f2-59922cefd1cf,EV LUMENS AUTO PTE LTD,1.359432,103.839865,"300 Sin Ming Road SINGAPORE Singapore, 575626",true,0,0,0.22,,true,2023-07-14 20:56:29.059062
64964b87-6b7b-42bc-b9e2-dee21b2897f6,SHELL PASIR RIS 607_01,1.365855,103.967185,"1 NEW LOYANG LINK SINGAPORE Singapore, 506931",true,0,0,0.22,,true,2023-07-14 20:56:29.059062
7a4d9ecf-a173-4838-afa0-ca24701a835f,SHELL ANG MO KIO AVE 6 670_01,1.367955,103.844734,"3535 ANG MO KIO, AVENUE 6 SINGAPORE Singapore, 569839",true,0,0,0.29,,true,2023-07-14 20:56:29.059062
0bccae1d-a230-4eb6-bf7f-81a2ac30581e,SHELL UPP BT TIMAH PIE 659_01,1.338636,103.776808,"35 UPPER BUKIT TIMAH ROAD SINGAPORE Singapore, 588166",true,0,0,0.29,,true,2023-07-14 20:56:29.059062
bf74155e-ff57-4a01-b7b1-711c43c74edf,SHELL PIERCE RESERVOIR 636_01,1.369931,103.828086,"551 UPPER THOMSON ROAD SINGAPORE Singapore, 574415",true,0,0,0.29,,true,2023-07-14 20:56:29.059062
9ee7c3e4-dc0b-42e7-8388-40934b794bab,SHELL SELETAR HILLS 613_01,1.383614,103.877004,"298 YIO CHU KANG ROAD SINGAPORE Singapore, 805908",true,0,0,0.26,,true,2023-07-14 20:56:29.059062
3a3cfe97-e340-4c3f-b3fa-e18e1c3e6b6e,SHELL BT TIMAH HILL 667_01,1.345916,103.772113,"219 UPPER BUKIT TIMAH ROAD SINGAPORE Singapore, 588186",true,0,0,0.26,,true,2023-07-14 20:56:29.059062
e57dfc83-b911-4ddc-9b20-4cdeb55e58de,EV SINGAPORE AERO ENGINE,1.373256,103.982242,"11 CALSHOT ROAD SINGAPORE Singapore, 509932",true,0,0,0.24,,true,2023-07-14 20:56:29.059062
1597b3ee-7132-4633-86d8-03b0e5d217ef,SHELL BT BATOK NP 630_01,1.347664,103.764828,"28 BUKIT BATOK EAST AVENUE 6 SINGAPORE Singapore, 659760",true,0,0,0.24,,true,2023-07-14 20:56:29.059062
99238731-c63c-4c85-a3cb-1c2c5af1455b,Changi Airport Terminal 3,1.3564573010308,103.9865063972240,"65 Airport Boulevard, Singapore 819663",true,0,0,0.25,,true,2023-07-14 20:56:29.059062
accc0636-32a2-4897-a91d-26675f91b159,Asia Green,1.3562110282663,103.9416687460270,"7 Tampines Grande, Singapore 528736",true,0,0,0.1,,true,2023-07-14 20:56:29.059062
af7354de-3169-47dd-82ae-639ff103f64d,I12 Katong,1.3060013193201,103.9050740693140,"112 East Coast Road, Singapore 428802",true,0,0,0.1,,true,2023-07-14 20:56:29.059062
f07424a1-3671-4627-8a0a-572412cb81cf,Marina Collection,1.2444116410724,103.8398206112710,13-17 Cove Drive Singapore 098327,true,0,0,0.17,,true,2023-07-14 20:56:29.059062
305a2920-9ad8-4fe9-b85a-76e99d7064cd,Riverplace,1.2899955997604,103.8408744689420,60 Havelock Road Singapore 169658,true,0,0,0.1,,true,2023-07-14 20:56:29.059062
e0355d86-754b-4e5d-b286-ab784d97d87a,Martin Place Residences,1.2943866708972,103.8382968266140,2 Martin Place Singapore 237988,true,0,0,0.23,,true,2023-07-14 20:56:29.059062
30ed6ce7-8cb6-485d-90cc-73bdba1a2294,South Beach Commercial,1.2944563644357,103.8561695333600,38 Beach Road Singapore 189762,true,0,0,0.22,,true,2023-07-14 20:56:29.059062
a7e071fa-6da1-4fae-a941-19a2abcf17ae,South Beach Residential,1.2944563644357,103.8561695333600,38 Beach Road Singapore 189762,true,0,0,0.23,,true,2023-07-14 20:56:29.059062
29249083-61fd-47a8-b52f-d7d6ec80a1bd,Asia Square Tower 2,1.2783544668131,103.8511218477630,"12 Marina View, Singapore 018961",true,0,0,0.19,,true,2023-07-14 20:56:29.059062
74120527-e49f-4360-ae1f-8d07ca307967,Park Royal Kitchener,1.3106927935985,103.8556902422200,"181 Kitchener Road, Singapore 208533",true,0,0,0.2,,true,2023-07-14 20:56:29.059062
d86d635f-476b-44b5-b881-a760c63e8157,Pan Pacific Serviced Suites Beach Road,1.2997782248776,103.8599838247640,"7500B Beach Road, Singapore 199592",true,0,0,0.38,,true,2023-07-14 20:56:29.059062
85f65a3e-02a3-4a10-bb74-19daa1091e8f,Capitaspring,1.2841932206467814,103.85021626832763,"88 Market St, Singapore 048948",true,0,0,0.12,,true,2023-07-14 20:56:29.059062
4b2eb8ae-bd25-4843-8498-58271df44643,One Degree 15 (Private access only),1.2459096091904216,103.8397942,"11 Cove Drive, #01-01, Sentosa Cove, Singapore 098497",true,0,0,0.35,,true,2023-07-14 20:56:29.059062
c4122d71-dd72-4184-ae79-36fa2e93343c,Caltex Dunearn,1.3190290968874914,103.83317511338463,"130 Dunearn Rd, Singapore 309436",true,0,0,0.14,,true,2023-07-14 20:56:29.059062
72738a53-ec23-4240-8273-cfe52d6e3f60,Tampines Plaza 2,1.3535029001494643,103.94274972687707,"5 Tampines Central 1, Singapore 529541",true,0,0,0.16,,true,2023-07-14 20:56:29.059062
a2cdc52b-386a-4dff-ac0a-e64f02f0142f,Zhongshan Mall,1.3273092460580298,103.84636673878806,"20 Ah Hood Rd, Singapore 329984",true,0,0,0.14,,true,2023-07-14 20:56:29.059062
fbf28705-95cd-4328-89a5-53141a2a352b,Tekka Place,1.3053312503538694,103.8514153692055,"2 Serangoon Rd, Singapore 218227",true,0,0,0.11,,true,2023-07-14 20:56:29.059062
3f875eb4-e419-4210-9964-f8c32daea585,Sheraton Towers,1.3120496455347723,103.83654047105618,"39 Scotts Rd, Singapore 228230",true,0,0,0.15,,true,2023-07-14 20:56:29.059062
a938f91a-2a38-4852-aba2-b3f8347e92ad,Mapletree Business City,1.2746046179753079,103.79967479804148,"10 Pasir Panjang Rd, Singapore 117438",true,0,0,0.23,,true,2023-07-14 20:56:29.059062
334dcdac-94ed-4c1c-bd9d-2797826bc738,Marina Square,1.2914322779500189,103.85759196735496,"6 Raffles Blvd, Marina Square, Singapore 039594",true,0,0,0.13,,true,2023-07-14 20:56:29.059062
a0d32e9c-a4b3-44df-80c8-d5b2c1a79024,Vantage,1.289876243058258,103.8069890673551,"305 Alexandra Road, Singapore 159942",true,0,0,0.7,,true,2023-07-14 20:56:29.059062
c03e61e8-546b-4917-bbf4-6aea746167e7,Caltex Changi,1.3166082011470479,103.90020161338465,"78 Changi Rd, Singapore 419714",true,0,0,0.13,,true,2023-07-14 20:56:29.059062
3fc7dd79-1c2a-41c8-8a40-db1dae3117b2,Jewel Changi Airport,1.360433441062898,103.9897485692055,"78 Airport Blvd., Singapore 819666",true,0,0,0.2,,true,2023-07-14 20:56:29.059062
bd1ef30d-688f-457c-b558-b6741aaba7f6,Techlink,1.3358881915101088,103.90562568454875,"31 Kaki Bukit Rd 3, Singapore 417818",true,0,0,0.8,,true,2023-07-14 20:56:29.059062
cfe55820-0f45-40fb-bc3c-cc7bcf8565b4,Shaw Centre,1.3065506241753113,103.83186865571309,"1 Scotts Rd, Singapore 228208",true,0,0,0.11,,true,2023-07-14 20:56:29.059062
1cbf9da5-e901-41d3-9058-05632911abee,Caltex Jurong Spring,1.3495935507350258,103.71475718269808,"100 Jurong West Ave 1, Singapore 649519",true,0,0,0.2,,true,2023-07-14 20:56:29.059062
1bb6da4c-f7c7-4891-bb31-1eb444233edc,Eightrium @ Changi Business Park,1.338116865412567,103.9644189096832,"15A Changi Business Park Central 1, Singapore 486035",true,0,0,0.32,,true,2023-07-14 20:56:29.059062
c3c3b719-bfa8-4dcf-80b3-717af034c5b3,PLQ Mall,1.3176785630259229,103.89277151153401,"10 Paya Lebar Road, PLQ Mall, Paya Lebar Quarter, 409057",true,0,0,0.8,,true,2023-07-14 20:56:29.059062
03fe514b-bf3b-4de8-9c39-e1cbea40f178,Grand Park City Hall,1.2926194733919862,103.85017532687716,"10 Coleman St, Singapore 179809",true,0,0,0.2,,true,2023-07-14 20:56:29.059062
6b8ec912-853d-42a7-a326-51c8745d8028,Chinese Swimming Club,1.3004596333918585,103.90055332687734,"21 Amber Rd, Singapore 439870",true,0,0,0.21,,true,2023-07-14 20:56:29.059062
ee061003-f874-4308-a266-8ccc1db31e47,IMM,1.3350942730466588,103.7467214808474,"2 Jurong East Street 21, Singapore 609601",true,0,0,0.3,,true,2023-07-14 20:56:29.059062
1cae6a7a-c0f9-495f-ba32-d22722e94be6,Tanah Merah Ferry Terminal,1.3144999932854695,103.98847049804131,"50 Tanah Merah Ferry Rd, Singapore 498833",true,0,0,0.26,,true,2023-07-14 20:56:29.059062
390ec743-b4db-4e94-8aac-60d9e7e29d4f,Caltex Chong Pang,1.4305366924935019,103.82984068095544,"3700 Yishun Ring Rd, Singapore 768690",true,0,0,0.17,,true,2023-07-14 20:56:29.059062
d62702b9-a806-4ea0-a1a5-fa3c3b8f5976,Kinex,1.3149258932504018,103.89485195756366,"11 Tanjong Katong Rd, Singapore 437157",true,0,0,0.5,,true,2023-07-14 20:56:29.059062
3e5f22b6-03ac-4356-8db7-d688c86f6033,Paya Lebar Square,1.3194165488335265,103.89260719989211,"60 Paya Lebar Rd, Singapore 409051",true,0,0,0.17,,true,2023-07-14 20:56:29.059062
a1ecd7a9-ae83-4534-a70f-2964645359f6,Techview,1.3363751660197996,103.9097351863994,"1 Kaki Bukit View, Singapore 415941",true,0,0,0.8,,true,2023-07-14 20:56:29.059062
3022afd4-03c7-4fb1-aa92-4860aaff042b,Autobacs Ubi,1.3323478102542938,103.896064582698,"10 Ubi View, Singapore 408543",true,0,0,0.12,,true,2023-07-14 20:56:29.059062
19e41dcc-8f29-45b8-a55a-0993d000ebf0,Plaza 8 CBP,1.3338697844844987,103.9654734329671,"1 Changi Business Park Crescent, Changi Business Park, 486025",true,0,0,0.11,,true,2023-07-14 20:56:29.059062
71e1d260-80fc-4611-a499-f9720954de23,Tampines Plaza 1,1.3535029001494643,103.94274972687707,"5 Tampines Central 1, Singapore 529541",true,0,0,0.16,,true,2023-07-14 20:56:29.059062
2850df4a-4dab-43db-b3c3-edcd488e4ef6,PLQ 3,1.3161169272111835,103.89372179989206,"2 Tanjong Katong Rd, PLQ 3, Quarter 437161",true,0,0,0.5,,true,2023-07-14 20:56:29.059062
6769772c-2862-40ae-83b1-76c7680fe950,Pan Pacific Serviced Suites Orchard,1.3010475118933178,103.83770512502662,"96 Somerset Rd, Singapore 238163",true,0,0,0.35,,true,2023-07-14 20:56:29.059062
7355aca0-b7ae-475f-bbdd-f43703877c2d,UIC Building,1.2780904439075123,103.84967042687718,"5 Shenton Way, Singapore 068808",true,0,0,0.12,,true,2023-07-14 20:56:29.059062
f7100148-e169-4b88-90df-61fde9bdb419,Citibank Changi (Private access only),1.3339668879548907,103.96608103851919,"3 Changi Business Park Cres, Level 1, Singapore 486026",true,0,0,0.37,,true,2023-07-14 20:56:29.059062
ccde2d93-504c-4848-a5c5-0cad3389e91a,The Alpha,1.2886510170237973,103.77965674407113,"10 Science Park Rd, Singapore 117684",true,0,0,0.9,,true,2023-07-14 20:56:29.059062
5cabde74-4020-4bbb-938f-8a8f445db367,Connexion,1.3142882629925259,103.8537759399965,"1 Farrer Park Station Rd, Singapore 217562",true,0,0,0.9,,true,2023-07-14 20:56:29.059062
a6c68330-6fe9-4d2e-a749-80668397b9e4,Nordcom One,1.4458785697971703,103.81418965571275,"3 Gambas Cres, Singapore 757041",true,0,0,0.11,,true,2023-07-14 20:56:29.059062
66833983-81f5-4362-864b-6d1ff54e7272,Rivervale Mall,1.3925894111071226,103.90444325833823,"11 Rivervale Cres, Singapore 545082",true,0,0,0.14,,true,2023-07-14 20:56:29.059062
ef573575-801b-48e3-ba20-8f165c1a5080,Hyflux Innovation Centre,1.3176494310264406,103.86336202317587,"80 Bendemeer Rd, Singapore 339949",true,0,0,0.24,,true,2023-07-14 20:56:29.059062
78dccd86-7143-4ad2-a4a4-82f7fb9c78b1,3 Changi Business Park Vista,1.3369826136710221,103.96712331153395,"3 Changi Business Park Vista, Singapore 486051",true,0,0,0.28,,true,2023-07-14 20:56:29.059062
88e64c3b-ec03-4314-b4b1-7182a921acdd,Aperia Mall,1.3107261497734806,103.86429564407108,"12 Kallang Ave, Singapore 339511",true,0,0,0.11,,true,2023-07-14 20:56:29.059062
0687465e-6629-41cf-8794-3f027f2ba011,Singapore Zoo,1.4045951880674357,103.79306591338417,"80 Mandai Lake Rd, 729826",true,0,0,0.13,,true,2023-07-14 20:56:29.059062
b7e31262-dbca-456b-b5e6-90edbe33605f,Entrepreneur Business Centre,1.3376000103709433,103.90278751393072,"18 Kaki Bukit Rd 3, Singapore 415978",true,0,0,0.28,,true,2023-07-14 20:56:29.059062
d387c9e0-005c-464e-bdd6-303c3bdc8302,Techplace I,1.3606523410422908,103.85676749804132,"4008/ 4009/ 4010, 4012 Ang Mo Kio Ave 10, 569628",true,0,0,0.11,,true,2023-07-14 20:56:29.059062
6d3abc76-878b-4596-b333-7fe7c40726b4,Orchid Country Club,1.4120004063294185,103.84434333666816,"1 Orchid Club Rd, Singapore 769162",true,0,0,0.19,,true,2023-07-14 20:56:29.059062
c8a14828-1898-420a-8d42-f830f1c3c184,United Square,1.319627713599663,103.84376251989039,"101 Thomson Rd, Singapore 307591",true,0,0,0.13,,true,2023-07-14 20:56:29.059062
a4c19dbc-a228-4828-bbc4-f5a8ef1f0f23,Novena Square,1.3201042993444796,103.84397966311558,"238 Thomson Rd, Singapore 307683",true,0,0,0.13,,true,2023-07-14 20:56:29.059062
28d1f611-3d5c-4144-9100-653baf0cdbee,Sembawang Country Club,1.417491347776572,103.81561037105588,"249 Sembawang Rd, Singapore 758352",true,0,0,0.22,,true,2023-07-14 20:56:29.059062
3308d1d4-a12d-42c9-916c-0077756cb5cc,"Resorts World Sentosa B2, East B1, West B1",1.2553405988367123,103.82180542979668,"8 Sentosa Gateway, 098269",true,0,0,0.42,,true,2023-07-14 20:56:29.059062
eff8c3f5-9b3e-45d8-b907-1f5c125e507c,SGX Centre 2,1.2789176171246806,103.84925469672876,"4 Shenton Way, Singapore 068807",true,0,0,0.12,,true,2023-07-14 20:56:29.059062
89c39f7e-942e-44a3-803f-90503f46c161,Resorts World Sentosa B2 (VIP),1.255335497272778,103.8216869448591,"8 Sentosa Gateway, 098269",true,0,0,0.3,,true,2023-07-14 20:56:29.059062
3c6271b7-e9bb-48b7-ba05-94479678499d,Tagore 23 Warehouse,1.3855520727816606,103.82808762502624,"23 Tagore Ln, Singapore 787601",true,0,0,0.19,,true,2023-07-14 20:56:29.059062
225df7c8-fbda-456d-9c1c-d454183e9a08,Park Royal Pickering,1.2860015694725884,103.84601569619078,"3 Upper Pickering St, Singapore 058289",true,0,0,0.2,,true,2023-07-14 20:56:29.059062
6a0069d4-27ac-47e1-8709-3485e3121220,Vivocity,1.2646499022068751,103.82221782687743,"1 HarbourFront Walk, Singapore 098585",true,0,0,0.8,,true,2023-07-14 20:56:29.059062
87493cf4-12a6-48e2-9e34-92c42cb2464b,Tan Chin Tuan Mansion (Private access only),1.3055208503335103,103.83738408269816,"42 Cairnhill Rd, Singapore 229661",true,0,0,0.43,,true,2023-07-14 20:56:29.059062
e32ce4a4-e6f4-4cbf-8958-7eb23e2256c6,Odeon Towers,1.296507751298007,103.85321882502662,"331 North Bridge Road Odeon Towers, Singapore 188720",true,0,0,0.12,,true,2023-07-14 20:56:29.059062
948970a3-593e-43e0-8bcb-374ee5a05e14,Techplace II,1.377471459295966,103.86510913851887,"5012 Ang Mo Kio Ave 5, Singapore 569876",true,0,0,0.12,,true,2023-07-14 20:56:29.059062
11a1784b-9a21-45f6-aa05-2306e5d88c48,Temasek Club,1.3474006050675817,103.78038188454853,"131 Rifle Range Rd, Singapore 588406",true,0,0,0.12,,true,2023-07-14 20:56:29.059062
159aec41-bcf5-4e63-976c-b0f1e3cc0795,Republic Plaza,1.2833620958193959,103.85087783851912,"9 Raffles Pl, Singapore 048619",true,0,0,0.14,,true,2023-07-14 20:56:29.059062
108ce71d-426b-4601-b261-88cd5475b3dc,Great World,1.2938454949730043,103.8318863826982,"1 Kim Seng Promenade, Singapore 237994",true,0,0,0.11,,true,2023-07-14 20:56:29.059062
a9cb319d-91d2-4011-b468-b03b13b23d6e,Meissa,1.2764820010683784,103.79596175386249,"100D Pasir Panjang Rd, Singapore 118520",true,0,0,0.6,,true,2023-07-14 20:56:29.059062
a7b028c3-6f7c-4f5e-8fe8-5b17f7cbdb6d,West Park BizCentral,1.3136185714094601,103.69497577105612,"20 Pioneer Cres, Singapore 628555",true,0,0,0.2,,true,2023-07-14 20:56:29.059062
d083e25c-a621-4a4b-8f6f-0f11acb15e48,Liat Towers,1.3054713763910522,103.83052612502659,"541 Orchard Rd, Singapore 238881",true,0,0,0.11,,true,2023-07-14 20:56:29.059062
9e64a5f6-601f-481b-8aa0-55445903118b,Alexandra Technopark Block A,1.2777054888149257,103.8008662250265,"438A &, 438B Alexandra Rd, 119967",true,0,0,0.28,,true,2023-07-14 20:56:29.059062
128492c9-5fb6-431a-bee5-c57a751cfc05,The Galen,1.2865030262283659,103.7841566863995,"61 Science Park Road, Singapore 117525",true,0,0,0.9,,true,2023-07-14 20:56:29.059062
b9bbda7f-2560-4d9d-a881-3877b300606c,HSL Waterfront@Penjuru,1.3062450377488148,103.7306316183668,"42D Penjuru Rd, Singapore 609162",true,0,0,0.22,,true,2023-07-14 20:56:29.059062
7fc599f8-3be9-4cfb-b6c9-f758fd83b7d3,Ascent,1.2912954920855881,103.78585655491173,"2 Science Park Dr, Singapore 118222",true,0,0,0.6,,true,2023-07-14 20:56:29.059062
6940ab9f-17e2-4d46-85e1-2fe89860e6c0,The Kendall,1.2864051569033701,103.78361656920569,"50 Science Park Rd, Singapore 117406",true,0,0,0.11,,true,2023-07-14 20:56:29.059062
3f3f7b73-dce9-4ee1-a17a-815126b302e2,ALICE@MEDIAPOLIS,1.2941353037515957,103.79345738454887,"29 Media Cir., Singapore 138565",true,0,0,0.16,,true,2023-07-14 20:56:29.059062
b15135de-5d99-40fe-850e-841ec05b5903,ICON@IBP,1.3275697739032384,103.74899823481773,"3A International Business Park Rd, Singapore 609935",true,0,0,0.8,,true,2023-07-14 20:56:29.059062
2ea5ceda-e482-47c7-9bbb-31e9d874976d,The Capricorn,1.2901137609182913,103.77884600968341,"1 Science Park Road Singapore Science Park 2, 117528",true,0,0,0.13,,true,2023-07-14 20:56:29.059062
9de34063-3540-4c4c-bb7c-05d34319ea4b,Solaris@One-North,1.2984315640818178,103.78986636180299,"1 Fusionopolis Walk, Singapore 138628",true,0,0,0.17,,true,2023-07-14 20:56:29.059062
90eb0ff2-6834-4211-9532-940d73b427ed,Galaxis,1.3001244944627985,103.78833167105627,"1 Fusionopolis Pl, Singapore 138522",true,0,0,0.7,,true,2023-07-14 20:56:29.059062
7161595d-ca00-48d8-965d-efbe9b89a049,Goldbell Tuas,1.3207750549499142,103.63918377317582,"8 Tuas Ave 18, level 3, Singapore 638892",true,0,0,0.13,,true,2023-07-14 20:56:29.059062
307d782a-d599-44d4-ac4e-5ac515e408f4,Singapore Polytechnic,1.3100545758784998,103.77753876920555,"500 Dover Rd, Singapore 139651",true,0,0,0.21,,true,2023-07-14 20:56:29.059062
06cae8c6-f4a0-4ee8-910e-92fe46924b4f,Infinite Studios,1.292845267658751,103.79484774633238,"23 Media Cir., #02-15, Singapore 138563",true,0,0,0.16,,true,2023-07-14 20:56:29.059062
0eacd82d-61a0-4a41-a75e-e11cf1eb6222,Corporation Place,1.3256525520174542,103.7199526961907,"2 Corporation Rd, Singapore 618494",true,0,0,0.17,,true,2023-07-14 20:56:29.059062
434cfdbe-927a-453a-813b-6b64fc476799,Nordic European Centre,1.327590092202289,103.74840188084745,"3 International Business Park Rd, Singapore 609927",true,0,0,0.22,,true,2023-07-14 20:56:29.059062
cd76d7f0-2738-4f11-b653-b1afe76d7036,31 International Business Park,1.3289139920921229,103.74610266920557,"31 International Business Park Rd, Singapore 609921",true,0,0,0.3,,true,2023-07-14 20:56:29.059062
ea47d87a-7bfb-49e7-beb4-f1fd2f39c0a7,5 Science Park Drive,1.2925926472878033,103.78651842687725,"5 Science Park Dr, Singapore 118265",true,0,0,0.2,,true,2023-07-14 20:56:29.059062
84ff3d31-7644-4f24-bca2-ff39108e566d,Bukit Panjang Plaza,1.3803291935196855,103.76408369433989,"1 Jelebu Rd, Singapore 677743",true,0,0,0.19,,true,2023-07-14 20:56:29.059062
f458cfa5-2e7d-416c-9c66-491f3ce689c9,Carros Centre,1.4308853577902021,103.7525576826979,"60 Jln Lam Huat, Singapore 737869",true,0,0,0.13,,true,2023-07-14 20:56:29.059062
0514a12f-3b5b-48b7-8e3d-e8e6ea771430,Singapore Polytechnic T11A ,1.3101508617401123,103.77915954589844,500 Dover Road Singapore 139651,true,0,0,0.27,,true,2023-07-14 20:56:29.059062
2a53ba2e-b17b-45c2-95df-a36b2f38c8ad,Westgate,1.3343783617019653,103.74278259277344,3 Gateway Drive Singapore 608532,true,0,0,0.8,,true,2023-07-14 20:56:29.059062
2a182d57-e263-420a-87c3-4d8fbfa6ed88,Six Battery Road,1.2853877544403076,103.8516616821289,6 Battery Road Singapore 049909,true,0,0,0.16,,true,2023-07-14 20:56:29.059062
4d378df3-3fbb-4e42-b2e7-71e365da5594,21 Collyer Quay,1.2851792573928833,103.85275268554688,21 Collyer Quay Singapore 049320,true,0,0,0.15,,true,2023-07-14 20:56:29.059062
42ffb14a-8aca-4db9-b34b-65be7259e2e0,CapitaSky,1.2770323753356934,103.84796142578125,79 Robinson Road Singapore 068897,true,0,0,0.9,,true,2023-07-14 20:56:29.059062
f386429c-812d-41f6-a618-185c7d7811b0,Capital Tower,1.2777024507522583,103.8475341796875,168 Robinson Road Singapore 068912,true,0,0,0.13,,true,2023-07-14 20:56:29.059062
9859c347-71c7-4d72-af26-b2ab840fdf13,CapitaGreen,1.2824146747589111,103.85028076171875,138 Market Street Singapore 048946,true,0,0,0.11,,true,2023-07-14 20:56:29.059062
d0e1b9d5-c987-4dda-969b-5268cc5a8375,Copthorne King’s Hotel,1.2882884740829468,103.83661651611328,403 Havelock Road Singapore 169632,true,0,0,0.22,,true,2023-07-14 20:56:29.059062
df85899e-1741-447a-81af-b40568a4ad0a,Gardens by the Bay - Bayfront Plaza,1.2792644500732422,103.86003875732422,18 Marina Gardens Drive Singapore 018953,true,0,0,0.35,,true,2023-07-14 20:56:29.059062
fe220ecd-4472-42db-ae9e-5d33fe5b41fd,Gardens by the Bay - Main Entrance Carpark,1.2811683416366577,103.86572265625,18 Marina Gardens Drive Singapore 018953,true,0,0,0.42,,true,2023-07-14 20:56:29.059062
4630a52f-f0c5-46b3-b931-0c8dc87b2b8e,Fortune Centre,1.3002822399139404,103.85269927978516,190 Middle Road Singapore 188979,true,0,0,0.14,,true,2023-07-14 20:56:29.059062
1ce75fc1-4097-4896-a728-2dc971ebd828,M Hotel,1.2737669944763184,103.84503936767578,81 Anson Road Singapore 079908,true,0,0,0.7,,true,2023-07-14 20:56:29.059062
995811d3-61eb-4254-8849-53f175258a3c,Orchard Building,1.3014488220214844,103.83724975585938,1 Grange Road Singapore 239693,true,0,0,0.16,,true,2023-07-14 20:56:29.059062
74231204-320c-4dec-af2e-8d331c08557c,Studio M Hotel,1.2908153533935547,103.83917236328125,3 Nanson Road Singapore 238910,true,0,0,0.14,,true,2023-07-14 20:56:29.059062
11f2b731-fccd-466e-97c0-836452cd60ce,Quayside Isle,1.247928261756897,103.84172821044922,31 Ocean Way Singapore 098375,true,0,0,0.13,,true,2023-07-14 20:56:29.059062
b8bfc3bb-7a3b-4019-8988-f5defa8cb8c5,UOB Plaza 1,1.285383939743042,103.8505630493164,80 Raffles Place Singapore 048624,true,0,0,0.11,,true,2023-07-14 20:56:29.059062
6dd21996-e5ce-4d5d-bd9c-62bb3a51e9d1,Novena Square,1.3199315071105957,103.84430694580078,238 Thomson Road Singapore 307683,true,0,0,0.13,,true,2023-07-14 20:56:29.059062
52c2f17a-0ac1-46f8-b2c0-99cb5bed16a8,Sentosa Cove,1.2487763166427612,103.8405532836914,1 Cove Avenue Singapore 098537,true,0,0,0.12,,true,2023-07-14 20:56:29.059062
20915b65-3dc8-4f94-995a-f0c30ba0d7c5,Waterfront Plaza,1.2905162572860718,103.83502960205078,390A Havelock Road,true,0,0,0.16,,true,2023-07-14 20:56:29.059062
bce063de-9d37-4c79-8a6b-50c9560e9ac3,Orchard Hotel,1.3075321912765503,103.82859802246094,442 Orchard Road Singapore 238879,true,0,0,0.13,,true,2023-07-14 20:56:29.059062
6d79b1ad-6ea2-40d6-95e1-e0a7ed81b2f2,King’s Centre,1.2896087169647217,103.83589172363281,390 Havelock Road Singapore 169662,true,0,0,0.13,,true,2023-07-14 20:56:29.059062
beea4abc-3d46-40e9-a562-8945e3006d45,Marina One,1.2773464918136597,103.85360717773438,23 Marina Way Singapore 018979,true,0,0,0.1,,true,2023-07-14 20:56:29.059062
9799d112-3455-4d61-beac-55fcf7535c61,Palais Renaissance,1.3066492080688477,103.82950592041016,390 Orchard Road Singapore 238871,true,0,0,0.18,,true,2023-07-14 20:56:29.059062
6057df0d-4ca9-417f-b554-71d2d5fcf649,Funan,1.2911354303359985,103.85015106201172,107 North Bridge Road Singapore 179105,true,0,0,0.5,,true,2023-07-14 20:56:29.059062
ed04ff45-766f-4e0c-8b34-ef6a3a10292a,The Atrium Orchard,1.2999743223190308,103.84535217285156,60A Orchard Road Singapore 238890,true,0,0,0.18,,true,2023-07-14 20:56:29.059062
e1adce4b-b944-4d3c-8f78-09ba79a02ea2,Raffles City Singapore,1.293506145477295,103.8528060913086,252 North Bridge Road Singapore 179103,true,0,0,0.22,,true,2023-07-14 20:56:29.059062
61417527-b093-4aed-8cf1-802dc368d7e3,Clarke Quay Central,1.2890251874923706,103.84661102294922,6 Eu Tong Sen Street Singapore 059817,true,0,0,0.19,,true,2023-07-14 20:56:29.059062
b90431dd-b457-4780-b5bb-c42c642d57dc,Compass One,1.3919039964675903,103.8946304321289,1 Sengkang Square Singapore 545078,true,0,0,0.11,,true,2023-07-14 20:56:29.059062
1c9bedd1-7ee0-425f-bad1-1d438496f164,NSRCC Kranji,1.4241323471069336,103.72830200195312,50 Neo Tiew Lane 3,true,0,0,0.12,,true,2023-07-14 20:56:29.059062
390a3129-0553-454e-acf1-a9cb48cb572a,351 on Braddell,1.3434840440750122,103.84548950195312,351 Braddell Road Singapore 579713,true,0,0,0.15,,true,2023-07-14 20:56:29.059062
974d714e-579c-46a4-a4f7-d9b839709ea8,Singapore Island Country Club,1.3589462041854858,103.81898498535156,180 Island Club Road Singapore 578774,true,0,0,0.29,,true,2023-07-14 20:56:29.059062
303a9355-7523-4658-a0ac-eede3bf6d4b1,City Square Mall,1.3113981485366821,103.8565902709961,180 Kitchener Road Singapore 208539,true,0,0,0.16,,true,2023-07-14 20:56:29.059062
77f77b46-4388-4b3c-b0f2-b58c9684a66c,Edward Boustead Centre,1.332878589630127,103.89225006103516,82 Ubi Avenue 4 Singapore 408832,true,0,0,0.22,,true,2023-07-14 20:56:29.059062
e78db26b-7846-4784-9ea3-51cfc2125bff,Temasek Polytechnic Carpark E,1.3475483655929565,103.93012237548828,21 Tampines Avenue 1 Singapore 529757,true,0,0,0.29,,true,2023-07-14 20:56:29.059062
15847279-c387-4fc6-ad95-8253239875e5,NSRCC Changi,1.318152666091919,103.97529602050781,10 Changi Coast Walk,true,0,0,0.12,,true,2023-07-14 20:56:29.059062
