id,name,latitude,longitude,address,provider,connectors,online,kilowatts,twenty_four_hours,last_updated
d8b10626-35cd-40eb-b309-c3430dd0a059,Queenstown/Science Park Dr/DNV GL/Lobby,1.290142536,103.7868958,"16, Science Park Dr",Bluecharge,2,TRUE,39,FALSE,2023-05-27 17:48:35.390693
dcf8b866-2d3b-4887-9746-f4a8260dcc60,Central/Claymore Rd/21,1.3077385,103.8301985,Claymore Road 21,Bluecharge,2,TRUE,22,FALSE,2023-05-27 17:48:35.390693
37b01d55-ecd1-4658-9061-b3abc3945b4a,Queenstown/Holland Dr/Blk 18/Deck 1A,1.3118,103.79207,18 Holland Drive,Bluecharge,1,TRUE,36,TRUE,2023-05-27 17:48:35.390693
6be9868f-b978-4bf8-bb95-556ce07aa7ea,Central/Mohamed Sultan Rd/28,1.29288,103.8413,28 Mohamed Sultan Road,Bluecharge,3,TRUE,28,FALSE,2023-05-27 17:48:35.390693
8be93321-3f69-4ce9-80a4-5a5da77a3803,Yishun/Yishun St 22/Blk265,1.4369706,103.8383619,265 Yishun Street 22,Bluecharge,0,TRUE,26,TRUE,2023-05-27 17:48:35.390693
fadd7762-b8ee-4f3c-9c0d-69dc1ffb3f80,Tampines/Simei St 1/Blk 108,1.343322,103.951077,108 Simei Street 1,Bluecharge,3,TRUE,27,TRUE,2023-05-27 17:48:35.390693
cd56c1c0-b5d5-4244-8608-e5424182032b,Ang Mo Kio/Ang Mo Kio Av 4/Blk 157,1.3751449,103.839079,157 Ang Mo Kio Avenue 4,Bluecharge,2,TRUE,34,TRUE,2023-05-27 17:48:35.390693
c080d4e5-f020-49f5-b261-9abbec161930,Tampines/Tampines St 41/Blk 420,1.357537,103.947125,420 Tampines Street 41,Bluecharge,0,TRUE,31,TRUE,2023-05-27 17:48:35.390693
900adf04-9839-447e-8c81-3cbed7bc452a,Queenstown/Fusionopolis Pl/1/Deck B4,1.29866,103.78748,1 Fusionopolis Place,Bluecharge,4,TRUE,36,TRUE,2023-05-27 17:48:35.390693
f0b7e313-b322-4732-a838-6029ca2b720f,Tampines/Simei Street 1/Blk 132,1.3472048,103.9562201,132 Simei Street 1,Bluecharge,0,TRUE,31,TRUE,2023-05-27 17:48:35.390693
97cc1604-a64e-4608-a36d-6ec3f77c7ed1,Tampines/Tampines Avenue 4/Blk 902,1.351249,103.939541,902 Tampines Avenue 4,Bluecharge,3,TRUE,34,TRUE,2023-05-27 17:48:35.390693
4268d786-c456-4ff6-afe6-0b119962f72c,Queenstown/11 Biopolis Way/Helios/Deck B2,1.304152,103.791778,11 Biopolis Way,Bluecharge,4,TRUE,41,TRUE,2023-05-27 17:48:35.390693
2a8e7ee0-0b48-43c6-8619-5badefb4b450,Yishun/Yishun Ring Road/Blk 853,1.416593,103.836526,850 to 855 Yishun Ring Road,Bluecharge,0,TRUE,31,TRUE,2023-05-27 17:48:35.390693
d549b5dd-6941-4ce4-9981-6e750fecbcf7,Geylang/Haig Road/Blk 8,1.31379,103.896451,8 Haig Road,Bluecharge,1,TRUE,23,TRUE,2023-05-27 17:48:35.390693
19c0e3f5-4783-42c8-be2c-9def68338c4c,Clementi/Clementi West Street 1/Blk 602,1.304373,103.766838,Blk 602 Clementi West Street 1,Bluecharge,4,TRUE,39,TRUE,2023-05-27 17:48:35.390693
a95d467a-b361-4b3a-89ec-3e9d5a44910f,Jurong West/Boon Lay Drive/Blk 188,1.344062,103.711245,188 Boon Lay Drive,Bluecharge,3,TRUE,34,TRUE,2023-05-27 17:48:35.390693
55e4342f-d0c8-4edd-887b-31553d244a30,Bedok/Chai Chee Avenue/Blk 37,1.325325,103.925817,37 Chai Chee Avenue,Bluecharge,2,TRUE,29,TRUE,2023-05-27 17:48:35.390693
e747392a-6752-4d83-b1cd-55a130304f0a,Tampines/Tampines Street 22/Blk 274,1.348438,103.950524,Blk 272/275 Tampines Street 22,Bluecharge,0,TRUE,35,TRUE,2023-05-27 17:48:35.390693
4d684fc3-a534-4fa5-8e54-739984b99825,Bukit Merah/Bukit Merah View/Blk 129A/Deck 2A,1.283532,103.823372,129A Bukit Merah View,Bluecharge,4,TRUE,45,TRUE,2023-05-27 17:48:35.390693
b81256a4-d15b-48d2-a7b3-bb1b3ce91e51,Bukit Timah/Queens Road/Blk 4/Deck 1A,1.318738,103.808169,4 Queen's Road,Bluecharge,4,TRUE,37,TRUE,2023-05-27 17:48:35.390693
20bc026a-1dbb-47d4-91a2-4a96e59ddf9c,Hougang/Hougang Street 61/Blk 688,1.37595,103.885492,Blk 685/691 Hougang Street 61,Bluecharge,0,TRUE,33,TRUE,2023-05-27 17:48:35.390693
ffed1e37-f74b-4a34-ad42-bd6a706a4391,Yishun/Yishun Avenue 3/Blk 769,1.424284,103.833346,773 Yishun Avenue 3,Bluecharge,4,TRUE,30,TRUE,2023-05-27 17:48:35.390693
07c77b9e-d51f-4ec4-a424-c243bc9c9504,Yishun/Yishun Ring Road/Blk 809,1.416833,103.83048,800-812 Yishun Ring Road,Bluecharge,0,TRUE,31,TRUE,2023-05-27 17:48:35.390693
55099f5b-80b8-4163-b598-9e8cb1b6a2bf,Geylang/Eunos Crescent/Blk 31A/Deck 1A,1.320225,103.9017609,31A Eunos Crescent,Bluecharge,4,TRUE,38,TRUE,2023-05-27 17:48:35.390693
b0138a15-1a5c-46a2-8c61-822bc6f21d70,Clementi/West Coast Road/Blk 708,1.306052,103.761812,704-714 West Coast Road,Bluecharge,2,TRUE,32,TRUE,2023-05-27 17:48:35.390693
bd6bf5a5-29c9-48b2-9c9e-c6a760208f4a,Bedok/Bedok South Avenue 3/Behind Blk 69,1.319455,103.943098,69 Bedok South Avenue 3,Bluecharge,3,TRUE,40,TRUE,2023-05-27 17:48:35.390693
f2773e8c-33e4-4608-9b47-8e90cfa54641,Kembangan/21 Jalan Masjid/Beside Kembangan Plaza,1.320397,103.912296,21 Jalan Masjid,Bluecharge,2,TRUE,48,TRUE,2023-05-27 17:48:35.390693
869968fb-50ad-46b4-b35f-f3cc115233b8,Bukit Batok/Bukit Batok Street 52/Blk 537,1.355013,103.751187,537 Bukit Batok Street 52,Bluecharge,2,TRUE,41,TRUE,2023-05-27 17:48:35.390693
9a1f720f-27a3-4b49-88a5-829871c94266,Jurong East/8 Jurong Town Hall Road/JTC Summit/Deck B2,1.33115,103.74184,8 Jurong Town Hall Road,Bluecharge,3,TRUE,54,TRUE,2023-05-27 17:48:35.390693
68fa460a-5a7d-4045-8dc6-7491ff690ce8,Ang Mo Kio/Ang Mo Kio Avenue 9/Blk 627,1.382052,103.841393,627 Ang Mo Kio Avenue 9,Bluecharge,2,TRUE,38,TRUE,2023-05-27 17:48:35.390693
38c1735c-5a6b-4651-885f-4d08fafaacb1,Punggol/Punggol Place/Blk 273/Deck 1,1.402703,103.901963,273 Punggol Place,Bluecharge,0,TRUE,36,TRUE,2023-05-27 17:48:35.390693
fc193c6d-df6b-49a4-82d3-9e038c68bebe,Tampines/Tampines Street 91/Blk 921A/Deck 1A,1.347284,103.941371,921A Tampines Street 91,Bluecharge,4,TRUE,44,TRUE,2023-05-27 17:48:35.390693
0b44aef1-5c14-492b-b99a-6f68d8b4815e,Jurong East/Jurong East Street 21/Blk 230,1.341813,103.737565,215-230 Jurong East Street 21,Bluecharge,2,TRUE,41,TRUE,2023-05-27 17:48:35.390693
4637a412-b62e-47df-9b0b-2c6e62c22f16,Ang Mo Kio/Ang Mo Kio Avenue 6/Blk 123,1.370392,103.844376,123 Ang Mo Kio Avenue 6,Bluecharge,2,TRUE,38,TRUE,2023-05-27 17:48:35.390693
cb0a2810-a0db-4cdd-abdd-1e3c195f01d0,Jurong West/Jurong West Street 81/Blk 854A/Deck 1A,1.347775,103.696495,854A Jurong West Street 81,Bluecharge,2,TRUE,50,TRUE,2023-05-27 17:48:35.390693
bae3e787-b0fd-4057-9f07-598d3bd857fc,Clementi/Clementi Avenue 2/Blk 334/Beside Caltex,1.314724,103.768296,334 Clementi Avenue 2,Bluecharge,4,TRUE,48,TRUE,2023-05-27 17:48:35.390693
1adebb1d-2b48-4f16-a320-e5a0a8b7b05d,Bukit Batok/Bukit Batok Street 34/Blk 346,1.362466,103.750963,346 Bukit Batok Street 34,Bluecharge,1,TRUE,41,TRUE,2023-05-27 17:48:35.390693
644571e1-0df2-423c-bbf4-9ab9dba89827,Tampines/Tampines Street 83/Blk 851,1.353051,103.935061,851 Tampines Street 83,Bluecharge,0,TRUE,35,TRUE,2023-05-27 17:48:35.390693
a6e8028b-c559-4cf1-9edb-ddb92c1c0ad9,Serangoon/Upper Serangoon View/Blk 476/Deck 3,1.37738,103.903721,476 Upper Serangoon View,Bluecharge,1,TRUE,45,TRUE,2023-05-27 17:48:35.390693
2a87beb3-9553-42aa-8f03-e5cfebc9f447,Bishan/Bishan Street 13/Blk 186,1.349585,103.852838,186 Bishan Street 13,Bluecharge,4,TRUE,31,TRUE,2023-05-27 17:48:35.390693
d08608c7-92ab-4926-a6ab-19b448dd8651,Geylang/Ubi Avenue 1/Blk 326,1.327319,103.904146,326 Ubi Avenue 1,Bluecharge,0,TRUE,28,TRUE,2023-05-27 17:48:35.390693
ed532d76-a05c-440b-8d6f-3fe6baa79d66,Geylang/52 Sims Place/Along Sims Place,1.316531,103.880106,52 Sims Place,Bluecharge,2,TRUE,38,TRUE,2023-05-27 17:48:35.390693
3b4c7aa6-b8c5-4033-a728-8e56afdb4c5c,Marine Parade/Across 343 Telok Karau Road/Beside St'Patrick's Court,1.308605,103.912432,Across 343 Telok Kurau Road,Bluecharge,0,TRUE,67,TRUE,2023-05-27 17:48:35.390693
ff9fe842-9768-436c-8b84-8aa5292b8f68,Hougang/Hougang Street 92/Blk 941A/Deck 1A,1.374287,103.87912,941A Hougang Street 92,Bluecharge,1,TRUE,42,TRUE,2023-05-27 17:48:35.390693
74cebe4f-f8c0-4f8d-b659-d1175e57a0cb,Jurong West/Jurong West Street 91/Blk 903,1.339625,103.686256,903 Jurong West Street 91,Bluecharge,0,FALSE,41,TRUE,2023-05-27 17:48:35.390693
5246d5e6-920b-46fc-8d77-663c42f72d26,Toa Payoh/Potong Pasir Avenue 1/Blk 117,1.336558,103.863104,117 Potong Pasir Avenue 1,Bluecharge,4,TRUE,39,TRUE,2023-05-27 17:48:35.390693
55554921-e51e-4c55-8122-6c34c4372dfb,Yishun/Yishun Ring Road/Blk 165,1.4355487,103.8320274,165 Yishun Ring Road,Bluecharge,2,TRUE,31,TRUE,2023-05-27 17:48:35.390693
397a25b6-fcc2-4a6b-9f40-ac91b3cc7593,Punggol/Punggol Walk/Blk 213/Deck 1A,1.400134,103.898428,213 Punggol Walk,Bluecharge,0,TRUE,36,TRUE,2023-05-27 17:48:35.390693
13cb6a22-3467-43fc-9f1c-7a1f850dae11,Hougang/Hougang Avenue 2/Blk 707,1.366507,103.888389,707 Hougang Avenue 2,Bluecharge,2,TRUE,32,TRUE,2023-05-27 17:48:35.390693
479e8682-768f-4571-873e-09854ed9e66e,Bedok/Bedok Reservoir Road/Blk 609,1.33135,103.912391,609 Bedok Reservoir Road,Bluecharge,1,TRUE,34,TRUE,2023-05-27 17:48:35.390693
598445b2-fd22-4651-b6bd-8acece564189,Jurong East/Jurong East Street 13/Blk 116,1.339583,103.734451,116 Jurong East Street 13,Bluecharge,0,TRUE,41,TRUE,2023-05-27 17:48:35.390693
31a1ea42-dcb1-4d52-863a-7a1a2200ae98,Bukit Batok/Bukit Batok East Avenue 5/Blk 241A/Deck 1A,1.350931,103.755227,241A Bukit Batok East Avenue 5,Bluecharge,1,TRUE,54,TRUE,2023-05-27 17:48:35.390693
0b9be15e-6730-4410-bc54-8cfbd6b2e1b1,Hougang/Hougang Street 31/Blk 373A/Deck B1B,1.362366,103.890053,373A Hougang Street 31,Bluecharge,1,TRUE,43,TRUE,2023-05-27 17:48:35.390693
1e786a40-d28d-4ada-8f20-8ea6ee371528,Pasir Ris/Pasir Ris Drive 6/Blk 417,1.372102,103.955033,417 Pasir Ris Drive 6,Bluecharge,1,TRUE,35,TRUE,2023-05-27 17:48:35.390693
ee6929cc-c14d-4ff0-a455-2352122d63a5,Serangoon/Serangoon Avenue 4/Blk 212,1.356934,103.873229,212 Serangoon Avenue 4,Bluecharge,2,TRUE,36,TRUE,2023-05-27 17:48:35.390693
8c184c4b-7b56-47a3-b6a0-8befbdae52e2,Hougang/Hougang Avenue 9/Blk 966A/Deck 1A,1.377891,103.877869,966A Hougang Avenue 9,Bluecharge,3,TRUE,41,TRUE,2023-05-27 17:48:35.390693
a0f01b05-e23b-4fe6-912c-4dfe73912c70,Sengkang/Anchorvale Street/Blk 329/Deck 1A,1.39634,103.889296,329 Anchorvale Street,Bluecharge,1,TRUE,42,TRUE,2023-05-27 17:48:35.390693
9a139d74-eef3-42f5-81bf-d15ca7b6f17c,Choa Chu Kang/Choa Chu Kang Crescent/Blk 678A/Deck 1B,1.401978,103.74481,678A Choa Chu Kang Crescent,Bluecharge,2,TRUE,53,TRUE,2023-05-27 17:48:35.390693
c21f6a77-c271-4f7e-983e-686613ab5962,Ang Mo Kio/Ang Mo Kio Avenue 4/Blk 114,1.372293,103.836312,114 Ang Mo Kio Avenue 4,Bluecharge,0,TRUE,38,TRUE,2023-05-27 17:48:35.390693
0ac275fb-8629-469a-aaaf-c18f91f0776b,Kallang/Bendemeer Road/Blk 10/Deck 1A,1.315203,103.860333,10 Bendemeer Road,Bluecharge,4,TRUE,37,TRUE,2023-05-27 17:48:35.390693
bf8fe419-e290-4e2f-8ad7-2221bf98d4d0,Ang Mo Kio/Ang Mo Kio Avenue 6/Blk 647,1.378898,103.843833,647 Ang Mo Kio Avenue 6,Bluecharge,3,TRUE,38,TRUE,2023-05-27 17:48:35.390693
e6fe8221-f590-4d6a-be39-91c412053381,Bedok/Bedok North Street 3/Blk 534,1.333285,103.92394,534 Bedok North Street 3,Bluecharge,0,TRUE,34,TRUE,2023-05-27 17:48:35.390693
15095aae-016b-490a-9b08-542d6501d68a,Queenstown/Commonwealth Drive/Blk 117 (Beside Blk 117 Open Space Carpark),1.306972,103.799566,117 Commonwealth Drive,Bluecharge,4,TRUE,73,TRUE,2023-05-27 17:48:35.390693
f97c14e8-1d36-4d01-a511-e18113ed1b68,Kallang/Jalan Rajah/Blk 103,1.327411,103.852514,103 Jalan Rajah,Bluecharge,2,TRUE,27,TRUE,2023-05-27 17:48:35.390693
e86973e6-eba6-4f9f-941e-24a0211d55aa,Bukit Batok/Bukit Batok Street 33/Blk 319,1.361125,103.746545,319 Bukit Batok Street 33,Bluecharge,3,TRUE,41,TRUE,2023-05-27 17:48:35.390693
7fe83ab9-fb23-40a3-bc1b-ec075956a7e5,Bishan/Bishan Street 12/Blk 112,1.346756,103.848871,112 Bishan Street 12,Bluecharge,3,TRUE,31,TRUE,2023-05-27 17:48:35.390693
de4904b1-3a98-495c-ac28-1a4228e0c9e1,Sengkang/Fernvale Street/Blk 472/Deck 1A,1.396952,103.881727,472 Fernvale Street,Bluecharge,0,TRUE,40,TRUE,2023-05-27 17:48:35.390693
19279a24-bfba-4a1d-bafb-2d6d6e35722c,Yishun/Yishun Street 51/Blk 513/Deck 2,1.415984,103.844221,513 Yishun Street 51,Bluecharge,0,TRUE,38,TRUE,2023-05-27 17:48:35.390693
00106420-ecce-421f-a1c4-5c104e4943d8,Sengkang/Compassvale Road/Blk 203/Deck 1A,1.387328,103.895393,203 Compassvale Road,Bluecharge,1,TRUE,41,TRUE,2023-05-27 17:48:35.390693
bf3770ff-e5df-48a5-982a-684eac31736b,Serangoon/Serangoon North Avenue 4/Blk 512A/Deck 1B,1.371005,103.8751,512A Serangoon North Avenue 4,Bluecharge,4,TRUE,51,TRUE,2023-05-27 17:48:35.390693
080616df-d197-400c-ba0e-77849d94e98c,Ang Mo Kio/Ang Mo Kio Street 51/Blk 590/Deck 1A,1.371634,103.853064,590 Ang Mo Kio Street 51,Bluecharge,0,TRUE,47,TRUE,2023-05-27 17:48:35.390693
2f8a4f68-37e9-43e5-a35b-31ccef4ef762,Sengkang/Compassvale Walk/Blk 236A/Deck 1B,1.390343,103.900021,236A Compassvale Walk,Bluecharge,0,TRUE,42,TRUE,2023-05-27 17:48:35.390693
d081876c-43af-4f5d-b246-4e398327f2c6,Queenstown/Ghim Moh Road/Blk 2A/Deck 1,1.312774,103.787393,2A Ghim Moh Road,Bluecharge,4,TRUE,38,TRUE,2023-05-27 17:48:35.390693
861b1597-f820-433c-ba05-ea58820b2745,Central/9 Raffles Place/Republic Plaza/Level 4,1.283658,103.850455,"9 Raffles Place, Republic Plaza",Bluecharge,4,TRUE,46,TRUE,2023-05-27 17:48:35.390693
2eda033f-8e0e-486f-8d8a-6412132fb09d,Choa Chu Kang/Choa Chu Kang Avenue 4/Lot one/Deck B2,1.38525,103.744922,21 Choa Chu Kang Avenue 4,Bluecharge,0,TRUE,52,TRUE,2023-05-27 17:48:35.390693
33c83e33-1b21-4e2d-aadd-73c8c3bca439,Sentosa/50 Beach View/Basement/Beach Station(Near Beach Station Escalator),1.251171,103.819188,50 Beach View,Bluecharge,4,TRUE,74,TRUE,2023-05-27 17:48:35.390693
ae9ab8ae-0d48-461b-b9e6-531f07df1dd8,Central/1 Esplanade Drive/Basement 1/Lift Lobby B,1.289691,103.85577,1 Esplanade Drive,Bluecharge,4,TRUE,49,TRUE,2023-05-27 17:48:35.390693
da20f170-a3e7-4850-9ab5-dc502c918c8a,Sentosa/1 Cove Avenue/Sentosa Cove/Blk B/Level 2,1.247741,103.840256,"1 Cove Avenue, Sentosa Cove",Bluecharge,2,TRUE,48,TRUE,2023-05-27 17:48:35.390693
fd7a5664-ffea-407d-b166-61209117702e,Central/3E River Valley Road/Clark Quay Blk E/Level 3,1.290715,103.846146,3E River Valley Road,Bluecharge,4,TRUE,53,TRUE,2023-05-27 17:48:35.390693
b69ab062-1b99-4245-b855-fbe71916d679,Kallang/Cambridge Road/Blk 43 (Opposite NTUC),1.314899,103.849479,43 Cambridge Road,Bluecharge,4,TRUE,45,TRUE,2023-05-27 17:48:35.390693
c6d3fbd6-cfe4-4de7-a5b4-ae215c8ce2af,Ang Mo Kio/Ang Mo Kio Avenue 4/Blk 110,1.370557,103.837923,110 Ang Mo Kio Avenue 4,Bluecharge,3,TRUE,38,TRUE,2023-05-27 17:48:35.390693
34a3c32b-e475-41d6-8463-a66c70b16812,Yishun/Yishun Ring Road/Blk 781,1.422343,103.832121,781 Yishun Ring Road,Bluecharge,4,TRUE,31,TRUE,2023-05-27 17:48:35.390693
5b98dbff-2054-472d-a9ed-dc2597ef263d,Tampines/Simei Road/Blk 155,1.344756,103.958393,155 Simei Road,Bluecharge,1,TRUE,27,TRUE,2023-05-27 17:48:35.390693
916be94d-729c-4d06-84e3-83e584fc8cee,Bukit Timah/170 Upper Bukit Timah Road (Infront Bukit Timah Shopping Centre),1.343312,103.775637,170 Upper Bukit Timah Road,Bluecharge,4,TRUE,76,TRUE,2023-05-27 17:48:35.390693
7d6cc331-0985-4f69-8175-de3cb10e3259,Hougang/Hougang Avenue 6/Blk 524,1.373931,103.890352,524 Hougang Avenue 6,Bluecharge,1,TRUE,32,TRUE,2023-05-27 17:48:35.390693
accff639-0431-4ba8-b1e9-48329d9d4a21,Ang Mo Kio/Ang Mo Kio Avenue 10/Blk 449,1.36805,103.8558,449 Ang Mo Kio Avenue 10,Bluecharge,4,TRUE,39,TRUE,2023-05-27 17:48:35.390693
90eb1428-f597-4aa3-8bb7-bdf27c4252b3,Tampines/Tampines Street 72/Blk 742A/Deck 1A,1.359905,103.934176,742A Tampines Street 72,Bluecharge,0,TRUE,44,TRUE,2023-05-27 17:48:35.390693
bcfe88f6-908b-418e-a14a-ce6961893840,Novena/Tan Tock Seng Hospital/Basement 4/Near Lift Lobby D,1.321282,103.84588,11 Jalan Tan Tock Seng,Bluecharge,3,TRUE,58,TRUE,2023-05-27 17:48:35.390693
3d8543b9-2c1e-4593-b0f9-4a6f267baab7,Ang Mo Kio/Ang Mo Kio Avenue 8/Blk 510,1.373288,103.849485,510 Ang Mo Kio Avenue 8,Bluecharge,0,TRUE,38,TRUE,2023-05-27 17:48:35.390693
56e2dad6-7bf7-49db-9f26-8d1155f04aa4,Ang Mo Kio/Ang Mo Kio Avenue 10/Blk 559,1.371022,103.857277,559 Ang Mo Kio Avenue 10,Bluecharge,4,TRUE,39,TRUE,2023-05-27 17:48:35.390693
79b87590-295c-4b65-a3b4-423802959e68,Pasir Ris/Pasir Ris Street 12/Blk 108A/Deck 1A,1.367987,103.956949,108A Pasir Ris Street 12,Bluecharge,0,TRUE,46,TRUE,2023-05-27 17:48:35.390693
c8615dcb-e841-4159-bcc7-6b0a7e16b179,Woodlands/Woodlands Circle/Blk 747A/Deck 1A,1.443332,103.795599,747A Woodlands Circle,Bluecharge,3,TRUE,43,TRUE,2023-05-27 17:48:35.390693
a9edc8ce-5f05-40b7-8123-c150107dd8cc,Kallang/Saint George's Road/Blk 22,1.32537,103.862659,22 Saint George's Road,Bluecharge,4,TRUE,34,TRUE,2023-05-27 17:48:35.390693
f1a8dff1-eed9-4345-bbb1-8a597c159055,Punggol/Edgedale Plains/Blk 172/Deck 1A,1.39557,103.911788,172 Edgedale Plains,Bluecharge,0,TRUE,39,TRUE,2023-05-27 17:48:35.390693
bf6c139f-5acb-42a7-b0dd-f515967b158a,Bukit Panjang/Petir Road/Blk 140,1.375471,103.769068,140 Petir Road,Bluecharge,0,TRUE,32,TRUE,2023-05-27 17:48:35.390693
de3f93c4-8bb7-487d-95b7-f8770f4d7307,Jurong East/Jurong East Street 32/Blk 307,1.346612,103.734402,307 Jurong East Street 32,Bluecharge,2,TRUE,41,TRUE,2023-05-27 17:48:35.390693
1d35b9f4-eaa6-426a-9f3f-f67b5c0bd8c9,Bedok/Chai Chee Street/Blk 53,1.328941,103.921295,53 Chai Chee Street,Bluecharge,0,TRUE,29,TRUE,2023-05-27 17:48:35.390693
00ec11a7-d7e9-4b91-ba11-117e459540fc,Bedok/Bedok North Road/Blk 425,1.329159,103.92944,425 Bedok North Road,Bluecharge,1,TRUE,30,TRUE,2023-05-27 17:48:35.390693
bcd6417e-2bb1-4e72-af42-26dbe9e62fa0,Tampines/Tampines Street 11/Blk 107,1.348142,103.947926,107 Tampines Street 11,Bluecharge,0,TRUE,35,TRUE,2023-05-27 17:48:35.390693
c696f9ee-b8a9-4f81-b8fb-65aec0b89057,Queenstown/Ghim Moh Link/Blk 24/Deck 1B,1.308908,103.785607,24 Ghim Moh Link,Bluecharge,3,TRUE,39,TRUE,2023-05-27 17:48:35.390693
57649efc-e1a4-4c2e-8d47-6ec7a5ed8717,Jurong West/Yung An Road/Blk 364/Deck 1A,1.337184,103.720457,364 Yung An Road,Bluecharge,0,TRUE,40,TRUE,2023-05-27 17:48:35.390693
14052e44-5037-458f-a457-f05f62c393a2,Clementi/Clementi Avenue 3/Blk 440/Deck 1A,1.31642,103.76392,440 Clementi Avenue 3,Bluecharge,0,FALSE,42,TRUE,2023-05-27 17:48:35.390693
46725132-aae8-4545-b546-06c98b784ea0,Yishun/Yishun Street 31/Blk 333/Deck 1A,1.43154,103.844951,333 Yishun Street 31,Bluecharge,0,TRUE,39,TRUE,2023-05-27 17:48:35.390693
5f0bf3ea-e5a6-4faf-a91a-03556f856c14,Pasir Ris/Pasir Ris Street 71/Blk 762A/Deck 1A,1.376083,103.9333,762A Pasir Ris Street 71,Bluecharge,4,TRUE,46,TRUE,2023-05-27 17:48:35.390693
aaa62f7e-4fb3-4e27-8ff7-d1d1991b473d,Bukit Merah/Bukit Purmei Road/Blk 109,1.273803,103.8258,109 Bukit Purmei Road,Bluecharge,3,TRUE,37,TRUE,2023-05-27 17:48:35.390693
eb3488f2-f465-4b34-9967-79209c55b92b,Toa Payoh/Lorong 8 Toa Payoh/Blk 213,1.341068,103.8551,213 Lorong 8 Toa Payoh,Bluecharge,0,TRUE,36,TRUE,2023-05-27 17:48:35.390693
1f38962e-c0ee-440a-a704-e196f775fc84,Choa Chu Kang/Choa Chu Kang Central/Blk 205,1.381051,103.7481,205 Choa Chu Kang Central,Bluecharge,0,TRUE,43,TRUE,2023-05-27 17:48:35.390693
213275af-70c0-48e2-a19e-46b6ce8a9ba9,Tampines/Tampines Street 22/Blk 299A,1.350399,103.95424,299A Tampines Street 22,Bluecharge,0,TRUE,36,TRUE,2023-05-27 17:48:35.390693
a20f91c5-5557-4ebb-8959-4f3d5f56e27c,Clementi/Clementi West Street 2/Blk 727,1.304208,103.763558,727 Clementi West Street 2,Bluecharge,2,TRUE,39,TRUE,2023-05-27 17:48:35.390693
531a7708-924a-4fc6-9715-c083af8570ab,Bukit Merah/Henderson Road/Blk 96/Deck 1A,1.287793,103.821375,96 Henderson Road,Bluecharge,0,FALSE,41,TRUE,2023-05-27 17:48:35.390693
b5d7cf75-a038-46e1-bd9b-b3e7daaef707,Bukit Batok/Bukit Batok West Avenue 5/Blk 436/Deck 1A,1.358769,103.739499,436 Bukit Batok West Avenue 5,Bluecharge,0,TRUE,53,TRUE,2023-05-27 17:48:35.390693
06b0fc4f-09a4-4636-8e5b-fe67ffac4d2e,Tampines/Tampines Avenue 8/Blk 879C/Deck 1A,1.351144,103.928663,879C Tampines Avenue 8,Bluecharge,0,TRUE,43,TRUE,2023-05-27 17:48:35.390693
101ddb4b-79ef-42b7-af11-d2e1d03aa269,Punggol/Punggol Field/Blk 204/Deck B1,1.398494,103.90305,204 Punggol Field,Bluecharge,0,TRUE,37,TRUE,2023-05-27 17:48:35.390693
b4b267fb-2e7d-41e7-bf64-dcc0ab072234,Bukit Merah/Telok Blangah Rise/Blk 32,1.273125,103.82106,32 Telok Blangah Rise,Bluecharge,4,TRUE,37,TRUE,2023-05-27 17:48:35.390693
92c19d9a-de53-48a1-94e3-264ebe81f8f3,Bedok/Bedok North Street 2/Blk 129,1.327761,103.93846,124 Bedok North Street 2,Bluecharge,1,TRUE,34,TRUE,2023-05-27 17:48:35.390693
b0be6b29-1adf-4ccd-bcdf-4cc3e0760fec,Marine Parade/Marine Terrace/Blk 59,1.305782,103.914158,59 Marine Terrace,Bluecharge,0,TRUE,35,TRUE,2023-05-27 17:48:35.390693
1b3bb124-de2e-4665-af60-76e01fc80477,Central/109 North Bridge Road/Funan Mall/Basement 3/Lift Lobby B,1.291599,103.849823,109 North Bridge Road,Bluecharge,4,TRUE,64,TRUE,2023-05-27 17:48:35.390693
5006d08c-3439-4a97-b17a-15a7f9dc7c76,Central/252 North Bridge Road/Raffles City/Deck B3,1.2939583,103.8526163,252 North Bridge Road,Bluecharge,4,TRUE,50,FALSE,2023-05-27 17:48:35.390693
12c999f6-fe99-4beb-a0a2-937acad38adb,Changi Airport Terminal 3,1.356457301,103.9865064,"65 Airport Boulevard, Singapore 819663",SPMobility,6,TRUE,25,FALSE,2023-05-27 17:48:35.390693
c15297fb-7064-4df0-a460-1a5ec6ab2b41,Asia Green,1.356211028,103.9416687,"7 Tampines Grande, Singapore 528736",SPMobility,3,TRUE,10,FALSE,2023-05-27 17:48:35.390693
b792034b-7133-48bf-ab9c-383e62284a90,I12 Katong,1.306001319,103.9050741,"112 East Coast Road, Singapore 428802",SPMobility,4,TRUE,10,FALSE,2023-05-27 17:48:35.390693
73033b03-1a9c-42cb-97bf-b39c449e5d55,Marina Collection,1.244411641,103.8398206,13-17 Cove Drive Singapore 098327,SPMobility,2,TRUE,17,FALSE,2023-05-27 17:48:35.390693
ba940845-f7ab-4760-87a5-c43a7d45d97a,Riverplace,1.2899956,103.8408745,60 Havelock Road Singapore 169658,SPMobility,2,TRUE,10,FALSE,2023-05-27 17:48:35.390693
90f60b29-636d-44a0-8389-ad37ad69f389,Martin Place Residences,1.294386671,103.8382968,2 Martin Place Singapore 237988,SPMobility,3,TRUE,23,FALSE,2023-05-27 17:48:35.390693
c8dbc1d8-4d82-44a5-b93f-39f59064a575,South Beach Commercial,1.294456364,103.8561695,38 Beach Road Singapore 189762,SPMobility,4,TRUE,22,FALSE,2023-05-27 17:48:35.390693
294459eb-3487-4c1c-9403-2e6368503426,South Beach Residential,1.294456364,103.8561695,38 Beach Road Singapore 189762,SPMobility,2,TRUE,23,FALSE,2023-05-27 17:48:35.390693
a681da77-a584-4df2-9208-022efd7db42e,Asia Square Tower 2,1.278354467,103.8511218,"12 Marina View, Singapore 018961",SPMobility,4,TRUE,19,FALSE,2023-05-27 17:48:35.390693
52ae990f-40fd-4ab7-87c3-317c07139295,Park Royal Kitchener,1.310692794,103.8556902,"181 Kitchener Road, Singapore 208533",SPMobility,4,TRUE,20,TRUE,2023-05-27 17:48:35.390693
bb29208b-f409-417f-9419-9b471410658a,Pan Pacific Serviced Suites Beach Road,1.299778225,103.8599838,"7500B Beach Road, Singapore 199592",SPMobility,2,TRUE,38,FALSE,2023-05-27 17:48:35.390693
eeb2d82f-6584-4b21-8bca-6d6ec2aa5908,Capitaspring,1.284193221,103.8502163,"88 Market St, Singapore 048948",SPMobility,4,TRUE,12,FALSE,2023-05-27 17:48:35.390693
0d138deb-c256-4184-9c44-eefd0e5e5f64,One Degree 15 (Private access only),1.245909609,103.8397942,"11 Cove Drive, #01-01, Sentosa Cove, Singapore 098497",SPMobility,4,TRUE,35,TRUE,2023-05-27 17:48:35.390693
80363e8a-4895-4403-af0c-d985faffa985,Caltex Dunearn,1.319029097,103.8331751,"130 Dunearn Rd, Singapore 309436",SPMobility,1,TRUE,14,TRUE,2023-05-27 17:48:35.390693
056cbd4e-03b7-4a4f-8cd7-9e2126bbb95e,Tampines Plaza 2,1.3535029,103.9427497,"5 Tampines Central 1, Singapore 529541",SPMobility,4,TRUE,16,FALSE,2023-05-27 17:48:35.390693
c27ccd88-ae79-4c45-aa57-2854f3d6ff78,Zhongshan Mall,1.327309246,103.8463667,"20 Ah Hood Rd, Singapore 329984",SPMobility,3,TRUE,14,FALSE,2023-05-27 17:48:35.390693
fa5b0c0c-6aac-420f-bfc4-fe92feefbe52,Tekka Place,1.30533125,103.8514154,"2 Serangoon Rd, Singapore 218227",SPMobility,8,TRUE,11,FALSE,2023-05-27 17:48:35.390693
3c05406c-ac49-45fd-97b1-183d4012adf0,Sheraton Towers,1.312049646,103.8365405,"39 Scotts Rd, Singapore 228230",SPMobility,4,TRUE,15,FALSE,2023-05-27 17:48:35.390693
be298f1a-0989-4353-bb7f-0421b5ddda4e,Mapletree Business City,1.274604618,103.7996748,"10 Pasir Panjang Rd, Singapore 117438",SPMobility,4,TRUE,23,FALSE,2023-05-27 17:48:35.390693
bb5b30d7-579e-4b22-825f-79ca359e2d7a,Marina Square,1.291432278,103.857592,"6 Raffles Blvd, Marina Square, Singapore 039594",SPMobility,6,TRUE,13,FALSE,2023-05-27 17:48:35.390693
d1232c2e-134e-4537-9798-d0843381c003,Vantage,1.289876243,103.8069891,"305 Alexandra Road, Singapore 159942",SPMobility,4,TRUE,7,FALSE,2023-05-27 17:48:35.390693
78861186-428b-4824-8407-6f0d7f586875,Caltex Changi,1.316608201,103.9002016,"78 Changi Rd, Singapore 419714",SPMobility,2,TRUE,13,TRUE,2023-05-27 17:48:35.390693
8332a725-b6c0-4c13-9a9b-a48e555ddb6d,Jewel Changi Airport,1.360433441,103.9897486,"78 Airport Blvd., Singapore 819666",SPMobility,6,TRUE,20,FALSE,2023-05-27 17:48:35.390693
7b36565c-644b-44a7-9389-809d13228cbc,Techlink,1.335888192,103.9056257,"31 Kaki Bukit Rd 3, Singapore 417818",SPMobility,4,TRUE,8,FALSE,2023-05-27 17:48:35.390693
659a8059-a1c9-4206-b27a-e0b554093e67,Shaw Centre,1.306550624,103.8318687,"1 Scotts Rd, Singapore 228208",SPMobility,4,TRUE,11,FALSE,2023-05-27 17:48:35.390693
d58be3d4-fdff-4305-8a49-3fa3355eaa4b,Caltex Jurong Spring,1.349593551,103.7147572,"100 Jurong West Ave 1, Singapore 649519",SPMobility,1,TRUE,20,TRUE,2023-05-27 17:48:35.390693
13676e37-411d-4295-b663-017e286c4544,Eightrium @ Changi Business Park,1.338116865,103.9644189,"15A Changi Business Park Central 1, Singapore 486035",SPMobility,4,TRUE,32,FALSE,2023-05-27 17:48:35.390693
0854b832-f112-4962-b905-3a6a2cdeb86d,PLQ Mall,1.317678563,103.8927715,"10 Paya Lebar Road, PLQ Mall, Paya Lebar Quarter, 409057",SPMobility,3,TRUE,8,FALSE,2023-05-27 17:48:35.390693
89ee3a04-824d-4f1d-bfc8-ba3354338340,Grand Park City Hall,1.292619473,103.8501753,"10 Coleman St, Singapore 179809",SPMobility,4,TRUE,20,FALSE,2023-05-27 17:48:35.390693
e32a674f-e49e-4d82-a65a-54bb2ac8eb65,Chinese Swimming Club,1.300459633,103.9005533,"21 Amber Rd, Singapore 439870",SPMobility,3,TRUE,21,TRUE,2023-05-27 17:48:35.390693
b2585c11-bc00-423f-9b6f-5568f375b5f7,IMM,1.335094273,103.7467215,"2 Jurong East Street 21, Singapore 609601",SPMobility,4,TRUE,3,TRUE,2023-05-27 17:48:35.390693
bed9b221-7b5a-4b5e-85a4-b01f6c7a5093,Tanah Merah Ferry Terminal,1.314499993,103.9884705,"50 Tanah Merah Ferry Rd, Singapore 498833",SPMobility,5,TRUE,26,FALSE,2023-05-27 17:48:35.390693
984c21fa-40a1-4765-aaa3-cecc303a6e96,Caltex Chong Pang,1.430536692,103.8298407,"3700 Yishun Ring Rd, Singapore 768690",SPMobility,1,TRUE,17,TRUE,2023-05-27 17:48:35.390693
a359cde2-43be-4986-a67d-835ce6634b7f,Kinex,1.314925893,103.894852,"11 Tanjong Katong Rd, Singapore 437157",SPMobility,4,TRUE,5,FALSE,2023-05-27 17:48:35.390693
e393cd6c-9575-41a3-84c8-8f27f08f21f1,Paya Lebar Square,1.319416549,103.8926072,"60 Paya Lebar Rd, Singapore 409051",SPMobility,4,TRUE,17,FALSE,2023-05-27 17:48:35.390693
182a101b-d5c8-49e4-8dc9-2d143cd1ddc5,Techview,1.336375166,103.9097352,"1 Kaki Bukit View, Singapore 415941",SPMobility,4,TRUE,8,FALSE,2023-05-27 17:48:35.390693
99a8946a-da17-4c03-a7d7-83516590332d,Autobacs Ubi,1.33234781,103.8960646,"10 Ubi View, Singapore 408543",SPMobility,4,TRUE,12,TRUE,2023-05-27 17:48:35.390693
a704fcf1-0631-40ae-ac85-9b21ee216147,Plaza 8 CBP,1.333869784,103.9654734,"1 Changi Business Park Crescent, Changi Business Park, 486025",SPMobility,4,TRUE,11,FALSE,2023-05-27 17:48:35.390693
99d8c0aa-cf28-4bf1-aea6-8c582b0f748a,Tampines Plaza 1,1.3535029,103.9427497,"5 Tampines Central 1, Singapore 529541",SPMobility,4,TRUE,16,FALSE,2023-05-27 17:48:35.390693
3e4141c2-0515-4a82-83ed-35a922f9a5a4,PLQ 3,1.316116927,103.8937218,"2 Tanjong Katong Rd, PLQ 3, Quarter 437161",SPMobility,6,TRUE,5,FALSE,2023-05-27 17:48:35.390693
173d0438-0aae-4b4e-9e79-46a904de7a8c,Pan Pacific Serviced Suites Orchard,1.301047512,103.8377051,"96 Somerset Rd, Singapore 238163",SPMobility,4,TRUE,35,FALSE,2023-05-27 17:48:35.390693
ae07bd02-44e4-45ec-96de-b6d2918bbf4c,UIC Building,1.278090444,103.8496704,"5 Shenton Way, Singapore 068808",SPMobility,8,TRUE,12,FALSE,2023-05-27 17:48:35.390693
1c4e0e97-7270-4f08-99b5-f532f977bc2c,Citibank Changi (Private access only),1.333966888,103.966081,"3 Changi Business Park Cres, Level 1, Singapore 486026",SPMobility,4,TRUE,37,FALSE,2023-05-27 17:48:35.390693
a5fd994b-3000-41a6-bbb3-34a95001818c,The Alpha,1.288651017,103.7796567,"10 Science Park Rd, Singapore 117684",SPMobility,4,TRUE,9,TRUE,2023-05-27 17:48:35.390693
9e9448d8-d574-4ca6-bd38-aa8c29d7e760,Connexion,1.314288263,103.8537759,"1 Farrer Park Station Rd, Singapore 217562",SPMobility,4,TRUE,9,FALSE,2023-05-27 17:48:35.390693
008bd2b9-7925-4013-9ad9-652e5e072a13,Nordcom One,1.44587857,103.8141897,"3 Gambas Cres, Singapore 757041",SPMobility,6,TRUE,11,FALSE,2023-05-27 17:48:35.390693
ab6823e6-add6-4a3d-bccc-b1a2f02732dc,Rivervale Mall,1.392589411,103.9044433,"11 Rivervale Cres, Singapore 545082",SPMobility,6,TRUE,14,FALSE,2023-05-27 17:48:35.390693
434e4b2f-c3ac-43f9-bc9d-56591ae93c96,Hyflux Innovation Centre,1.317649431,103.863362,"80 Bendemeer Rd, Singapore 339949",SPMobility,4,TRUE,24,FALSE,2023-05-27 17:48:35.390693
63602acf-6869-4f48-b03e-40ce39bcf9ce,3 Changi Business Park Vista,1.336982614,103.9671233,"3 Changi Business Park Vista, Singapore 486051",SPMobility,4,TRUE,28,FALSE,2023-05-27 17:48:35.390693
bb7c283d-45f7-4279-9579-11fe8bfbf335,Aperia Mall,1.31072615,103.8642956,"12 Kallang Ave, Singapore 339511",SPMobility,4,TRUE,11,TRUE,2023-05-27 17:48:35.390693
0f7af4c9-af03-40be-a75e-7c278d4ae1c9,Singapore Zoo,1.404595188,103.7930659,"80 Mandai Lake Rd, 729826",SPMobility,10,TRUE,13,FALSE,2023-05-27 17:48:35.390693
8817300d-6080-4b4c-85d1-a6a566abf760,Entrepreneur Business Centre,1.33760001,103.9027875,"18 Kaki Bukit Rd 3, Singapore 415978",SPMobility,4,TRUE,28,FALSE,2023-05-27 17:48:35.390693
6a33d748-6984-43bc-a325-7b039bc3b1e1,Techplace I,1.360652341,103.8567675,"4008/ 4009/ 4010, 4012 Ang Mo Kio Ave 10, 569628",SPMobility,4,TRUE,11,FALSE,2023-05-27 17:48:35.390693
2a12c4ba-26ee-4735-a140-49b065ced93f,Orchid Country Club,1.412000406,103.8443433,"1 Orchid Club Rd, Singapore 769162",SPMobility,4,TRUE,19,TRUE,2023-05-27 17:48:35.390693
12369632-d214-44e6-9880-6b35a6e1922c,United Square,1.319627714,103.8437625,"101 Thomson Rd, Singapore 307591",SPMobility,4,TRUE,13,FALSE,2023-05-27 17:48:35.390693
badb32df-29ab-422f-a7f7-4a90a2df6e59,Novena Square,1.320104299,103.8439797,"238 Thomson Rd, Singapore 307683",SPMobility,6,TRUE,13,FALSE,2023-05-27 17:48:35.390693
9428475b-c3ce-47aa-9e5e-abc12089d440,Sembawang Country Club,1.417491348,103.8156104,"249 Sembawang Rd, Singapore 758352",SPMobility,4,TRUE,22,TRUE,2023-05-27 17:48:35.390693
3f9708cf-7821-433d-930c-8ee85571f5fc,"Resorts World Sentosa B2, East B1, West B1",1.255340599,103.8218054,"8 Sentosa Gateway, 098269",SPMobility,2,TRUE,42,FALSE,2023-05-27 17:48:35.390693
c2cedf6a-7175-42d1-b43a-bd2d8db33863,SGX Centre 2,1.278917617,103.8492547,"4 Shenton Way, Singapore 068807",SPMobility,4,TRUE,12,FALSE,2023-05-27 17:48:35.390693
65f21599-30bb-4b46-8974-e1ca8f48bae9,Resorts World Sentosa B2 (VIP),1.255335497,103.8216869,"8 Sentosa Gateway, 098269",SPMobility,2,TRUE,30,FALSE,2023-05-27 17:48:35.390693
707297f7-64ac-4dfd-bbcf-434e7c3609df,Tagore 23 Warehouse,1.385552073,103.8280876,"23 Tagore Ln, Singapore 787601",SPMobility,4,TRUE,19,FALSE,2023-05-27 17:48:35.390693
b72d6e1a-96d7-44fe-bdb7-31e4d5b05cda,Park Royal Pickering,1.286001569,103.8460157,"3 Upper Pickering St, Singapore 058289",SPMobility,2,TRUE,20,TRUE,2023-05-27 17:48:35.390693
cd097d41-49f9-4591-9aa1-08a3f18025ea,Vivocity,1.264649902,103.8222178,"1 HarbourFront Walk, Singapore 098585",SPMobility,4,TRUE,8,FALSE,2023-05-27 17:48:35.390693
67a49a14-fe72-48e2-bf54-1f4442efb60b,Tan Chin Tuan Mansion (Private access only),1.30552085,103.8373841,"42 Cairnhill Rd, Singapore 229661",SPMobility,2,TRUE,43,TRUE,2023-05-27 17:48:35.390693
913e8bb8-e167-48f7-8cc5-9fa019272e6e,Odeon Towers,1.296507751,103.8532188,"331 North Bridge Road Odeon Towers, Singapore 188720",SPMobility,4,TRUE,12,FALSE,2023-05-27 17:48:35.390693
48aebdcf-3b2f-4e9c-9d34-c70e0bf14704,Techplace II,1.377471459,103.8651091,"5012 Ang Mo Kio Ave 5, Singapore 569876",SPMobility,4,TRUE,12,FALSE,2023-05-27 17:48:35.390693
ed018d75-f381-45a0-a060-636bb085d58e,Temasek Club,1.347400605,103.7803819,"131 Rifle Range Rd, Singapore 588406",SPMobility,4,TRUE,12,FALSE,2023-05-27 17:48:35.390693
1d22f594-7a40-4dfe-989c-a35d3c7a8a7f,Republic Plaza,1.283362096,103.8508778,"9 Raffles Pl, Singapore 048619",SPMobility,4,TRUE,14,FALSE,2023-05-27 17:48:35.390693
4245f78b-a940-49d3-b051-fbb5ce45bf71,Great World,1.293845495,103.8318864,"1 Kim Seng Promenade, Singapore 237994",SPMobility,4,TRUE,11,FALSE,2023-05-27 17:48:35.390693
b52872e9-9a3b-46e8-9150-77b1bbecbbe6,Meissa,1.276482001,103.7959618,"100D Pasir Panjang Rd, Singapore 118520",SPMobility,5,TRUE,6,FALSE,2023-05-27 17:48:35.390693
a8ac9f2b-7cd7-4485-91f8-c377f0d4de3a,West Park BizCentral,1.313618571,103.6949758,"20 Pioneer Cres, Singapore 628555",SPMobility,4,TRUE,20,FALSE,2023-05-27 17:48:35.390693
74f99f40-dd5d-452e-8f0d-e2e03c5aba8e,Liat Towers,1.305471376,103.8305261,"541 Orchard Rd, Singapore 238881",SPMobility,4,TRUE,11,FALSE,2023-05-27 17:48:35.390693
6f6b062f-6efc-41ab-9b61-e8e0bdc4f751,Alexandra Technopark Block A,1.277705489,103.8008662,"438A &, 438B Alexandra Rd, 119967",SPMobility,8,TRUE,28,FALSE,2023-05-27 17:48:35.390693
69b452a5-7813-4076-9ac3-2791109c708f,The Galen,1.286503026,103.7841567,"61 Science Park Road, Singapore 117525",SPMobility,10,TRUE,9,TRUE,2023-05-27 17:48:35.390693
82561133-1d11-4bd1-bb0e-da789108c177,HSL Waterfront@Penjuru,1.306245038,103.7306316,"42D Penjuru Rd, Singapore 609162",SPMobility,4,TRUE,22,TRUE,2023-05-27 17:48:35.390693
a75f4809-e17c-42e3-a2eb-67151cacaa0e,Ascent,1.291295492,103.7858566,"2 Science Park Dr, Singapore 118222",SPMobility,4,TRUE,6,TRUE,2023-05-27 17:48:35.390693
425cb607-a8b2-4b04-bdff-39587ef15534,The Kendall,1.286405157,103.7836166,"50 Science Park Rd, Singapore 117406",SPMobility,4,TRUE,11,TRUE,2023-05-27 17:48:35.390693
4b7db665-ee16-444e-b668-2f3fb161fdfe,ALICE@MEDIAPOLIS,1.294135304,103.7934574,"29 Media Cir., Singapore 138565",SPMobility,4,TRUE,16,FALSE,2023-05-27 17:48:35.390693
71a00ff1-b1ea-425b-adc0-767b2619141e,ICON@IBP,1.327569774,103.7489982,"3A International Business Park Rd, Singapore 609935",SPMobility,4,TRUE,8,TRUE,2023-05-27 17:48:35.390693
25b6cdf3-df1c-4063-a76e-a86af0c086da,The Capricorn,1.290113761,103.778846,"1 Science Park Road Singapore Science Park 2, 117528",SPMobility,4,TRUE,13,TRUE,2023-05-27 17:48:35.390693
f17404a2-94fd-438a-8cfa-b7dcaff5f759,Solaris@One-North,1.298431564,103.7898664,"1 Fusionopolis Walk, Singapore 138628",SPMobility,2,TRUE,17,FALSE,2023-05-27 17:48:35.390693
5a092a60-6845-4b92-ac7d-98a407e37474,Galaxis,1.300124494,103.7883317,"1 Fusionopolis Pl, Singapore 138522",SPMobility,4,TRUE,7,FALSE,2023-05-27 17:48:35.390693
8753903b-6f60-41ec-8a89-3b96b5eac593,Goldbell Tuas,1.320775055,103.6391838,"8 Tuas Ave 18, level 3, Singapore 638892",SPMobility,4,TRUE,13,TRUE,2023-05-27 17:48:35.390693
05ab348c-7aed-4288-823e-5be9befee2c6,Singapore Polytechnic,1.310054576,103.7775388,"500 Dover Rd, Singapore 139651",SPMobility,0,TRUE,21,FALSE,2023-05-27 17:48:35.390693
ed01b7f5-5d4c-4dcd-bf75-1db1fce6e496,Infinite Studios,1.292845268,103.7948477,"23 Media Cir., #02-15, Singapore 138563",SPMobility,4,TRUE,16,TRUE,2023-05-27 17:48:35.390693
36ceac22-9af1-440f-adbe-5ba2119362d7,Corporation Place,1.325652552,103.7199527,"2 Corporation Rd, Singapore 618494",SPMobility,4,TRUE,17,FALSE,2023-05-27 17:48:35.390693
b9e8a145-100c-4096-9373-1de9d6a398ab,Nordic European Centre,1.327590092,103.7484019,"3 International Business Park Rd, Singapore 609927",SPMobility,6,TRUE,22,TRUE,2023-05-27 17:48:35.390693
b235a1f5-3a72-4f1a-a550-9677d6453af0,31 International Business Park,1.328913992,103.7461027,"31 International Business Park Rd, Singapore 609921",SPMobility,8,TRUE,30,TRUE,2023-05-27 17:48:35.390693
12615b1d-46ec-455a-b8d1-6bc09799a692,5 Science Park Drive,1.292592647,103.7865184,"5 Science Park Dr, Singapore 118265",SPMobility,4,TRUE,20,TRUE,2023-05-27 17:48:35.390693
d1468d11-a880-41a8-8498-0bd952af811a,Bukit Panjang Plaza,1.380329194,103.7640837,"1 Jelebu Rd, Singapore 677743",SPMobility,4,TRUE,19,FALSE,2023-05-27 17:48:35.390693
81ed329a-16fa-421e-93ed-90fd97eee389,Carros Centre,1.430885358,103.7525577,"60 Jln Lam Huat, Singapore 737869",SPMobility,6,TRUE,13,TRUE,2023-05-27 17:48:35.390693
aba51ceb-72f4-4587-8633-c5896fe02396,Singapore Polytechnic T11A ,1.310150862,103.7791595,500 Dover Road Singapore 139651,SPMobility,4,TRUE,27,FALSE,2023-05-27 17:48:35.390693
77953759-e34a-4fa3-a326-1762afbf56cc,Westgate,1.334378362,103.7427826,3 Gateway Drive Singapore 608532,SPMobility,4,TRUE,8,FALSE,2023-05-27 17:48:35.390693
21b9a5a4-1eb6-4b8a-ab3a-87407ae1cd78,Six Battery Road,1.285387754,103.8516617,6 Battery Road Singapore 049909,SPMobility,1,TRUE,16,FALSE,2023-05-27 17:48:35.390693
b55aa7f2-c109-4e23-801d-8696f9431e4c,21 Collyer Quay,1.285179257,103.8527527,21 Collyer Quay Singapore 049320,SPMobility,1,TRUE,15,FALSE,2023-05-27 17:48:35.390693
c16e62ba-5460-414b-95e8-15e0c9593eca,CapitaSky,1.277032375,103.8479614,79 Robinson Road Singapore 068897,SPMobility,4,TRUE,9,FALSE,2023-05-27 17:48:35.390693
45748dda-243e-4475-ac39-417e6f8cae67,Capital Tower,1.277702451,103.8475342,168 Robinson Road Singapore 068912,SPMobility,1,TRUE,13,FALSE,2023-05-27 17:48:35.390693
b7814b55-b67d-459b-bddc-ccf2c39338f8,CapitaGreen,1.282414675,103.8502808,138 Market Street Singapore 048946,SPMobility,2,TRUE,11,FALSE,2023-05-27 17:48:35.390693
273aebea-7a65-46d6-9795-48a3d191bed7,Copthorne King’s Hotel,1.288288474,103.8366165,403 Havelock Road Singapore 169632,SPMobility,3,TRUE,22,FALSE,2023-05-27 17:48:35.390693
de2aa4a3-2eee-4264-b044-46ff506688a3,Gardens by the Bay - Bayfront Plaza,1.27926445,103.8600388,18 Marina Gardens Drive Singapore 018953,SPMobility,2,TRUE,35,FALSE,2023-05-27 17:48:35.390693
6ce8e4ee-9730-4787-807e-4cc7e073295b,Gardens by the Bay - Main Entrance Carpark,1.281168342,103.8657227,18 Marina Gardens Drive Singapore 018953,SPMobility,5,TRUE,42,FALSE,2023-05-27 17:48:35.390693
8d497f80-f015-4d22-94d2-22ca7d633f75,Fortune Centre,1.30028224,103.8526993,190 Middle Road Singapore 188979,SPMobility,4,TRUE,14,FALSE,2023-05-27 17:48:35.390693
7fac6ef7-8307-4fe8-966e-cb7d5ad414e7,M Hotel,1.273766994,103.8450394,81 Anson Road Singapore 079908,SPMobility,4,TRUE,7,FALSE,2023-05-27 17:48:35.390693
3679efb0-dd76-4f86-964a-a6e775224209,Orchard Building,1.301448822,103.8372498,1 Grange Road Singapore 239693,SPMobility,4,TRUE,16,FALSE,2023-05-27 17:48:35.390693
50e9ac61-54c6-49a8-91fd-e35472e5a933,Studio M Hotel,1.290815353,103.8391724,3 Nanson Road Singapore 238910,SPMobility,3,TRUE,14,FALSE,2023-05-27 17:48:35.390693
02ad6fe8-d0bc-4175-bd06-921ddc0e1a48,Quayside Isle,1.247928262,103.8417282,31 Ocean Way Singapore 098375,SPMobility,4,TRUE,13,FALSE,2023-05-27 17:48:35.390693
e173cf73-77bb-4e83-babc-167be1fac9b1,UOB Plaza 1,1.28538394,103.850563,80 Raffles Place Singapore 048624,SPMobility,3,TRUE,11,FALSE,2023-05-27 17:48:35.390693
662eaef3-9044-4324-a465-4104b509fd58,Novena Square,1.319931507,103.8443069,238 Thomson Road Singapore 307683,SPMobility,6,TRUE,13,FALSE,2023-05-27 17:48:35.390693
0449fc21-31d9-4e86-8727-f21f91a5facc,Sentosa Cove,1.248776317,103.8405533,1 Cove Avenue Singapore 098537,SPMobility,5,TRUE,12,FALSE,2023-05-27 17:48:35.390693
1d5d0076-bf30-4168-a4f6-39abafd278d5,Waterfront Plaza,1.290516257,103.8350296,390A Havelock Road,SPMobility,4,TRUE,16,FALSE,2023-05-27 17:48:35.390693
f12d3520-ae44-4d80-9a0c-e3cde7e36011,Orchard Hotel,1.307532191,103.828598,442 Orchard Road Singapore 238879,SPMobility,5,TRUE,13,FALSE,2023-05-27 17:48:35.390693
b0ea962c-d8d3-4abc-885d-5dfdb792911c,King’s Centre,1.289608717,103.8358917,390 Havelock Road Singapore 169662,SPMobility,4,TRUE,13,FALSE,2023-05-27 17:48:35.390693
582a3d18-29b7-493f-8e41-b74bcba2ea2a,Marina One,1.277346492,103.8536072,23 Marina Way Singapore 018979,SPMobility,5,TRUE,10,FALSE,2023-05-27 17:48:35.390693
0487f5d4-1c0b-4214-9a8c-82ce74e39d1c,Palais Renaissance,1.306649208,103.8295059,390 Orchard Road Singapore 238871,SPMobility,3,TRUE,18,FALSE,2023-05-27 17:48:35.390693
9bce8576-f903-48cc-acd7-d2f06eb94990,Funan,1.29113543,103.8501511,107 North Bridge Road Singapore 179105,SPMobility,4,TRUE,5,FALSE,2023-05-27 17:48:35.390693
be342f73-0a2f-48fc-898d-71c7d661fb8e,The Atrium Orchard,1.299974322,103.8453522,60A Orchard Road Singapore 238890,SPMobility,4,TRUE,18,FALSE,2023-05-27 17:48:35.390693
bb914d82-ced8-455d-af2a-4d2485a5a450,Raffles City Singapore,1.293506145,103.8528061,252 North Bridge Road Singapore 179103,SPMobility,4,TRUE,22,FALSE,2023-05-27 17:48:35.390693
23fe3fab-b08c-4b88-a7d1-55c7f5a98596,Clarke Quay Central,1.289025187,103.846611,6 Eu Tong Sen Street Singapore 059817,SPMobility,4,TRUE,19,FALSE,2023-05-27 17:48:35.390693
bfc0f50b-9f5c-4137-b476-b2492a4059a8,Compass One,1.391903996,103.8946304,1 Sengkang Square Singapore 545078,SPMobility,5,TRUE,11,FALSE,2023-05-27 17:48:35.390693
37e48457-2f8c-4092-822f-13e6b17ce93d,NSRCC Kranji,1.424132347,103.728302,50 Neo Tiew Lane 3,SPMobility,4,TRUE,12,FALSE,2023-05-27 17:48:35.390693
8c1327db-a282-415c-8d48-de7d0f20ffa1,351 on Braddell,1.343484044,103.8454895,351 Braddell Road Singapore 579713,SPMobility,2,TRUE,15,FALSE,2023-05-27 17:48:35.390693
57eb1aa4-f818-4ec1-a137-d41eaa1f7af9,Singapore Island Country Club,1.358946204,103.818985,180 Island Club Road Singapore 578774,SPMobility,2,TRUE,29,FALSE,2023-05-27 17:48:35.390693
aaa47861-d06c-45b8-a6ce-6ead471a48bb,City Square Mall,1.311398149,103.8565903,180 Kitchener Road Singapore 208539,SPMobility,4,TRUE,16,FALSE,2023-05-27 17:48:35.390693
b89d78a5-0fa4-4b6d-b785-aca1024da396,Edward Boustead Centre,1.33287859,103.8922501,82 Ubi Avenue 4 Singapore 408832,SPMobility,4,TRUE,22,FALSE,2023-05-27 17:48:35.390693
0d526853-e9e5-4ab8-930d-88e59650466a,Temasek Polytechnic Carpark E,1.347548366,103.9301224,21 Tampines Avenue 1 Singapore 529757,SPMobility,8,TRUE,29,FALSE,2023-05-27 17:48:35.390693
62bcd118-3d43-49be-b90d-cf954a5b2afe,NSRCC Changi,1.318152666,103.975296,10 Changi Coast Walk,SPMobility,10,TRUE,12,FALSE,2023-05-27 17:48:35.390693
44ff07cb-c761-4c84-9c9a-f3243e0fa347,Orchard Central Supercharger,1.3007,103.83978,"181 Orchard Rd, Singapore, Singapore, 238896",Plugshare,3,TRUE,250,TRUE,2023-05-27 17:48:35.390693
bcac6c8c-c624-4832-b21e-e53a940f9938,"Nissan Showroom, Johor Jaya",1.529448,103.816505,"1, Jalan Johor Jaya, Taman Perindustrian Plentong, 81750‎ Masai, ‎Johor, Malaysia",Plugshare,1,FALSE,,FALSE,2023-05-27 17:48:35.390693
5f6f54a6-bd28-486c-99e4-53fd0daadf27,Hard Rock Hotel Desaru Coast,1.540211,104.264246,"Jln Pantai 3, 81930 Bandar Penawar, Johor, Malaysia",Plugshare,1,TRUE,50,TRUE,2023-05-27 17:48:35.390693
199292e3-caf6-43f0-ad26-fac81960f129,Jade Garden Seafood Corner,1.348106,104.224009,"Lot 4785, 1 Jalan Siakap, Kampung Sungai Rengit, 81620, Pengerang, Johor",Plugshare,1,FALSE,,FALSE,2023-05-27 17:48:35.390693
597b10b9-e4f1-4a62-9539-ef605dad5a02,Causeway Point Supercharger,1.436111,103.786496,"1 Woodlands Square, Singapore 738099",Plugshare,3,TRUE,250,TRUE,2023-05-27 17:48:35.390693
18840996-7c33-4b3e-9396-691634e20c00,"seri negeri (government building, public carpark)",1.545174,103.55988,"seri negeri (government building, public carpark)",Plugshare,1,FALSE,,FALSE,2023-05-27 17:48:35.390693
025e307c-53d3-492d-b358-c0bcd589c1c6,"Gentari @ XPark Sunway Iskandar (22 kW AC, 60 kW DC)",1.3953,103.62577,"Jalan Medini Selatan 2 Medini Zone F, Bandar Medini Iskandar, 79250 Nusajaya, Johor, Malaysia",Plugshare,1,FALSE,,TRUE,2023-05-27 17:48:35.390693
43038004-8d69-4270-9741-15a3d0aaa2aa,Waterway Point Supercharger,1.406303,103.901878,"83 Punggol Central, Singapore, Singapore, 828761",Plugshare,3,TRUE,250,TRUE,2023-05-27 17:48:35.390693
af93b75f-1712-4e7e-a32e-46995bc35d25,Century Square Supercharger,1.35235,103.943846,"2 Tampines Central 5, Singapore, Singapore, 529509",Plugshare,3,TRUE,250,TRUE,2023-05-27 17:48:35.390693
afe14802-651c-41be-b0e8-1de4e84919ba,Volvo Pekin Auto,1.516984,103.674438,"PTD 144228, Taman Sutera Utama, 81300 Skudai, Johor, Malaysia",Plugshare,2,FALSE,,TRUE,2023-05-27 17:48:35.390693
443d3d51-6a33-470b-ac11-11faaf74e17b,Block 15 Woodlands Loop,1.449289,103.809175,"15 Woodlands Loop, Woodlands‎ 738322, Singapore",Plugshare,1,FALSE,,FALSE,2023-05-27 17:48:35.390693
7f9e7aeb-303d-4119-aafd-4345ef52fa97,Goldbell Tuas,1.321866,103.639587,"8 Tuas Avenue 18, Singapore 638892",Plugshare,2,TRUE,50,TRUE,2023-05-27 17:48:35.390693
5133f06f-b5b9-46cd-9f27-df8921385843,Four Points By Sheraton Desaru (22 kW AC),1.576196412,104.2056669,"Jalan Kempas 2, Taman Desaru Utama, Bandar Penawar, Malaysia, 81930",Plugshare,3,FALSE,,FALSE,2023-05-27 17:48:35.390693
39a5d637-ac59-4803-8e56-c8a872fbbe03,Katong V Supercharger,1.302678,103.903352,"30 East Coast Road, Singapore, Singapore, 428751",Plugshare,3,TRUE,250,TRUE,2023-05-27 17:48:35.390693
4814e95e-6d02-4193-829a-73d52d567f4c,Carros Centre,1.43148,103.75279,"60 Jln Lam Huat, Singapore 737869",Plugshare,3,TRUE,43,TRUE,2023-05-27 17:48:35.390693
dfad3382-a7c8-434c-a697-f4663a6b9eb8,Setia Eco Garden Sales Gallery [22kWAC],1.491739236,103.5854111,"Persiaran Lam Setia Utama, Setia Eco Garden, Gelang Patah, Johor, Malaysia",Plugshare,1,FALSE,,FALSE,2023-05-27 17:48:35.390693
3ed23c96-10fc-4e20-a8f3-77f2590b6acd,Shell Choa Chua Kang,1.385636,103.746452,"20 Choa Chu Kang Dr, Singapore 689717",Plugshare,1,TRUE,50,TRUE,2023-05-27 17:48:35.390693
37f145e7-dd0e-48d8-83d3-9afe8cbf9110,Eikoh Roller International (S) Pte Ltd,1.290889,103.624422,45 Tuas View Loop Singapore 637699,Plugshare,1,FALSE,,TRUE,2023-05-27 17:48:35.390693
f109bf14-d98c-4960-a1f6-4c61f3816105,Petronas R&R Gelang Patah Southbound (22 kW AC),1.386627,103.593256,"LINKEDUA Malaysia - Singapura, 81550, Gelang Patah",Plugshare,1,FALSE,,FALSE,2023-05-27 17:48:35.390693
63f9a47e-3c2a-48ca-a840-9316227f07dc,Hyundai Skudai Kiri,1.48965,103.711027,"Kampung Skudai Kiri, 81200 Johor Bahru, Johor, Malaysia",Plugshare,2,FALSE,,FALSE,2023-05-27 17:48:35.390693
241d24c7-228c-40a7-b91c-4f710fb5d2b5,Renaissance Hotel JB,1.49444089,103.8114982,"No. 53-01 & 55, 01, Jalan Permas 10/1, Bandar Baru Permas Jaya, 81750 Masai, Johor, Malaysia",Plugshare,6,FALSE,,FALSE,2023-05-27 17:48:35.390693
b1e81467-c330-4f67-988c-6732781c45df,Zenith Lifestyle Mall (11 kW AC; 50 kW DC),1.4635729,103.7622119,"82C, Jalan Trus, Bandar Johor Bahru, 80000 Johor Bahru, Johor, Malaysia",Plugshare,3,FALSE,,TRUE,2023-05-27 17:48:35.390693
7a1e32c9-93f1-44db-9c7d-db852caf9e5d,"EcoWorld Gallery (1 x 22 kW, 1 x 3.7 kW)",1.578823,103.722933,"81100‎ Tebrau‎ Johor, Malaysia",Plugshare,2,FALSE,,FALSE,2023-05-27 17:48:35.390693
b12f525a-ae9e-4f7f-9641-55549004d281,Singapore Zoo,1.404922,103.78798,"Mandai Lake Road 80, 729826 Singapore",Plugshare,8,TRUE,11,TRUE,2023-05-27 17:48:35.390693
c7fe30df-8cda-494e-b177-d4940caf0260,Bedok Point,1.324702,103.932418,799 Upper Changi Road ,Plugshare,2,FALSE,,FALSE,2023-05-27 17:48:35.390693
0e01434e-c6b4-4c33-b459-99545e60d4f3,ACO HQ Johor Bahru (180kW),1.535961,103.75342,"14, Jalan Firma 3, Kawasan Perindustrian Tebrau 4, 81100 Johor Bahru, Johor, Malaysia",Plugshare,3,FALSE,,TRUE,2023-05-27 17:48:35.390693
180a4d80-475e-4506-a2fd-6cd25fe53404,NTU Research Techno Plaza,1.343423,103.679373,"50 Nanyang Ave, Singapore 639798",Plugshare,2,FALSE,,FALSE,2023-05-27 17:48:35.390693
dd957480-6c9a-4b7f-b544-9dbb1171aba4,Petronas Pasir Gudang Highway 3 (1 x 22 kW),1.522925,103.731079,"81800‎ Kota Tinggi‎ Johore, Malaysia",Plugshare,1,FALSE,,FALSE,2023-05-27 17:48:35.390693
3314b3fa-f2ad-492a-b383-3355d0a271ce,Juice+: Changi Airport Terminal 2,1.352961,103.988037,9X3Q+56 Singapore,Plugshare,3,FALSE,,TRUE,2023-05-27 17:48:35.390693
6a6004c0-9eea-4149-b9f8-7c75401c3b98,Tagore 23,1.386026,103.828227,"23 Tagore Ln, Singapore 787601",Plugshare,2,TRUE,50,TRUE,2023-05-27 17:48:35.390693
4c3e3c62-10a7-4427-ab48-c5bd424c2313,Jen Johor Puteri Harbour (2 x 22 kW),1.417565,103.656614,"Persiaran Puteri Selatan, 79000 Perkampungan (Felcra) Tebing Runtuh, Johore, Malaysia",Plugshare,2,FALSE,,FALSE,2023-05-27 17:48:35.390693
333933cb-e29f-4601-9b9e-8509346f5f12,Harvest@Woodlands by EVone Charging,1.4514023,103.7914704,"280 Woodlands Industrial Park E5, Singapore 757322",Plugshare,1,FALSE,,TRUE,2023-05-27 17:48:35.390693
2e22a831-4c69-4dc2-abe0-aace2ebce21d,BMW Auto Bavaria Tebrau,1.54998,103.792759,"3B, Persiaran Desa Tebrau, Taman Desa Tebrau, 81100 Johor Bahru, Johor, Malaysia",Plugshare,2,TRUE,90,TRUE,2023-05-27 17:48:35.390693
fae394db-f08e-45d8-889f-a8f493281a90,Palkom Motors,1.530922,103.780719,"No. 1, Jalan Kota Tinggi, Batu 7 1/4, Taman Pandan, Johor, Kawasan Perindustrian Pandan, 81100 Johor Bahru, Johor, Malaysia",Plugshare,2,TRUE,40,TRUE,2023-05-27 17:48:35.390693
5e6456f7-a7b1-4281-95a9-119ec15e79ea,Shell Dunearn University,1.323543,103.817429,"288 Dunearn Rd, Singapore 299557",Plugshare,1,TRUE,43,TRUE,2023-05-27 17:48:35.390693
ad33a950-df35-465e-abb7-0718a000d78e,Petronas Kawasan Perindustrian Kota Puteri (22 kW AC),1.506207,103.842717,"Petronas, Kawasan Perindustrian Kota Puteri, 81750 Masai, Johor, Malaysia",Plugshare,1,FALSE,,FALSE,2023-05-27 17:48:35.390693
75d68843-cef2-478e-adc4-46aa1561cbd8,home,1.493149,103.860469,Taman Bukit Rinting ,Plugshare,1,FALSE,,FALSE,2023-05-27 17:48:35.390693
519ddbf8-5554-4ef7-91d9-eb0dd02d2474,West Coast Plaza Supercharger,1.303732,103.76663,"154 West Coast Road, Singapore, 127371",Plugshare,3,TRUE,250,TRUE,2023-05-27 17:48:35.390693
d1b1ba74-23b7-4d13-bd0f-1f08c9df7bf6,The Star Vista Supercharger,1.306932,103.788222,"1 Vista Exchange Green, Singapore 138617",Plugshare,3,TRUE,250,TRUE,2023-05-27 17:48:35.390693
623430fa-a53f-41d2-bb3c-6627e6f5b399,HSL Waterfront @ Penjuru,1.305972,103.730418,"42D Penjuru Road, Singapore 609162",Plugshare,4,FALSE,,FALSE,2023-05-27 17:48:35.390693
4b1a41ed-6d86-4fc2-ad46-813330b453a0,Nordcom One,1.444324,103.814023,"5a Gambas Cres, Singapore",Plugshare,5,TRUE,22,TRUE,2023-05-27 17:48:35.390693
9f1554c9-641f-4a57-91ea-95c9d733d605,SICC Island SP Charger,1.35895,103.819354,"180 Island Club Rd, Singapore 578774",Plugshare,2,FALSE,,TRUE,2023-05-27 17:48:35.390693
2c9fb845-d63e-47b8-abeb-6b9768f9ce9b,Millenia Walk Supercharger,1.292254,103.859707,"9 Raffles Blvd, Singapore 039596",Plugshare,3,TRUE,250,TRUE,2023-05-27 17:48:35.390693
2d904c72-fbe1-417f-a71e-583f7310b022,Shell Boon Lay,1.343959,103.707764,"2 Boon Lay Ave, Singapore 649960",Plugshare,1,TRUE,50,TRUE,2023-05-27 17:48:35.390693
4420728e-9a73-40e7-a80a-2f0a41cad957,"Sand & Sandals Resort, Desaru (MyEVOC 1x 22 kW)",1.560694,104.253109,"29, Jalan Desaru, Desaru, 82200 Bandar Penawar, Johor, Malaysia",Plugshare,1,FALSE,,FALSE,2023-05-27 17:48:35.390693
89d633b2-eb96-4980-b78b-6cf493479cd9,Shell Yishun,1.430866,103.833008,"1 Yishun Street 11, Singapore 768642",Plugshare,1,TRUE,50,TRUE,2023-05-27 17:48:35.390693
dba6ada3-bb4c-4b3a-a01d-a1dc72bf42cb,Orchid Country Club,1.41139,103.84436,"Orchid Club Road 1, 769162 Singapore",Plugshare,1,TRUE,43,TRUE,2023-05-27 17:48:35.390693
8d751a4d-1e92-41f1-a1f7-8fb040a447de,Shell 648 Dunearn Rd,1.3309944,103.7991123,648 Dunearn Road,Plugshare,2,FALSE,,TRUE,2023-05-27 17:48:35.390693
a112049a-3e13-4dd5-85ba-906e67b1b422,Juice+: Gain City Sungei Kadut,1.412927,103.7459779,"71 Sungei Kadut Dr, Level 2, Singapore 729577",Plugshare,2,FALSE,,TRUE,2023-05-27 17:48:35.390693
3955b47f-87c9-42eb-87cc-fcbe9d4baf95,Biopolis,1.303518,103.792513,31 Biopolis Way Singapore 138668,Plugshare,1,FALSE,,FALSE,2023-05-27 17:48:35.390693
151f16b6-3bea-4044-a78a-e455807811fb,City Square Mall (2),1.311323494,103.8563217,"180 Kitchener Rd, Singapore 208539",Plugshare,2,TRUE,250,TRUE,2023-05-27 17:48:35.390693
5180f93b-d258-4f98-963b-f34acdfe7978,Republic Plaza,1.283519,103.850595,"9 Raffles Place, Singapore 048619",Plugshare,2,TRUE,43,TRUE,2023-05-27 17:48:35.390693
651ecc24-fff6-4024-a6c1-d79aa5228372,Business Aviation Complex,1.417807,103.863333,"700 West Camp Road, Singapore",Plugshare,1,FALSE,,FALSE,2023-05-27 17:48:35.390693
b56da653-dc89-43bc-b35a-2b1fd07af465,Bukit Panjang Plaza,1.379987,103.764397,"1 Jelebu Rd, Singapore 677743",Plugshare,2,TRUE,7.4,TRUE,2023-05-27 17:48:35.390693
3d1efaef-83c5-4b1c-bdbf-4867b5d4532e,CDG Engie - Singapore University Of Social Sciences (SUSS/SIM),1.329017,103.776129,"Singapore, Clementi Rd, #463号SG",Plugshare,4,FALSE,,TRUE,2023-05-27 17:48:35.390693
eba8bb58-f74b-40a6-86df-a3d507858021,Sembawang Country Club,1.418225,103.815461,"249 Sembawang Rd, Singapore 758352",Plugshare,2,TRUE,43,TRUE,2023-05-27 17:48:35.390693
a4398b8a-8f7a-46a9-bd53-816ae3181dcc,KSL City Mall,1.485534,103.762308,"Jalan Beruang, 80250 Taman Tasek, Johore, Malaysia",Plugshare,5,FALSE,,FALSE,2023-05-27 17:48:35.390693
3ddf42ab-cecb-4867-a5b2-75f9208168a9,SP Group: CSC Changi,1.391529077,103.9852026,"2 Netheravon Rd, Singapore 508503",Plugshare,2,FALSE,,FALSE,2023-05-27 17:48:35.390693
fffcad7c-d72a-4a83-8c3d-46501552eee7,BlueSG open to EVs: BLK 476 Upp Serangoon View,1.377267,103.903628,"476 Upper Serangoon View, Singapore 530476",Plugshare,4,FALSE,,FALSE,2023-05-27 17:48:35.390693
9b60dfbe-6a3a-453d-a7dc-fb5428d12c58,Penjuru Close #01-11by EVone Charging,1.313091,103.731755,28F Penjuru Close #01-11,Plugshare,2,FALSE,,TRUE,2023-05-27 17:48:35.390693
c831cd5f-f9da-426c-a8d1-2045a83defa7,Corporation Place,1.32602,103.719828,"2 Corporation Rd, Singapore 618494",Plugshare,2,TRUE,50,TRUE,2023-05-27 17:48:35.390693
35dea963-a454-4b2a-95af-24e3292d4c65,Shell Bukit Batok,1.350191,103.738495,"11 Bukit Batok West Ave 3, Singapore 659166",Plugshare,1,TRUE,50,TRUE,2023-05-27 17:48:35.390693
13a95f88-9108-451e-a5e4-a041cf9f02c2,"BlueSG open to EVs: Blk 212, Serangoon Ave 4",1.356931,103.873222,"212 Serangoon Ave 4, Singapore 550212",Plugshare,4,FALSE,,FALSE,2023-05-27 17:48:35.390693
799adc77-6c50-4022-8ae5-961d1cdd0d77,Johor Premium Outlets (3.7 kW AC),1.60292,103.622421,"Jalan Premium Outlets, 81400 Senai, Johore, Malaysia",Plugshare,4,FALSE,,FALSE,2023-05-27 17:48:35.390693
9b74ca73-21fd-4892-ad10-7f0b17ac8bad,Marina Bay Cruise Center Singapore,1.266151,103.860488,"Marina Coastal Drive, Singapore",Plugshare,3,FALSE,,FALSE,2023-05-27 17:48:35.390693
b3fac3a2-eff2-43ae-96c2-4cb92692b5e3,Thistle Hotel Multi Level Car Park (3 pin),1.462316,103.74322,"Jalan Sungai Chat, Sri Gelam, 80100 Johor Bahru, Johor, Malaysia",Plugshare,1,FALSE,,FALSE,2023-05-27 17:48:35.390693
0d857a54-f79c-4688-af4b-9cc234364c4b,"BlueSG open to EVs: Blk 678A, Choa Chu Kang Crescent",1.401979,103.745077,"678A Choa Chu Kang Cres, Singapore 681678",Plugshare,4,FALSE,,FALSE,2023-05-27 17:48:35.390693
4d2f75c0-aba8-4ff3-bf2c-37524a31f824,Shell Bukit Batok,1.347825,103.764854,"28 Bukit Batok East Ave 6, Singapore 659760",Plugshare,1,TRUE,43,TRUE,2023-05-27 17:48:35.390693
a7ffb986-8357-47bd-8a13-a670bd491a2f,Temasek Club,1.346985,103.780824,"131 Rifle Range Rd, #04-04, Singapore 588406",Plugshare,4,FALSE,,TRUE,2023-05-27 17:48:35.390693
808d0cee-2caf-4829-a40a-bdeea4c3fdfb,Eco Spring,1.588156,103.757771,"2, Jalan Ekoflora Utama, 81100 Johor Bahru, Johor, Malaysia",Plugshare,2,FALSE,,FALSE,2023-05-27 17:48:35.390693
fc867bf0-3f59-4829-bf11-3ce1e21463cc,Starbucks Seri Austin DT,1.575883,103.747829,"Jalan Seri Austin 1, Taman Seri Austin, 81100 Johor Bahru, Johor",Plugshare,2,TRUE,22,FALSE,2023-05-27 17:48:35.390693
e6595c6c-b739-4ae8-8399-55470b6d5ff1,Starbucks Shell Seri Alam DT (22 kW AC),1.510795489,103.8776413,"Bandar Baru Seri Alam, 81750 Masai, Johor, Malaysia",Plugshare,1,FALSE,,FALSE,2023-05-27 17:48:35.390693
c2dded71-924c-4f59-9898-3ad76a6a4da4,MEDINI 7 CORPORATE OFFICE (1 x 3.7 kW),1.413718,103.628348,"Jalan Medini Sentral 5, Bandar Medini Iskandar Malaysia, 79250, Iskandar Puteri",Plugshare,1,FALSE,,FALSE,2023-05-27 17:48:35.390693
33f3a99e-ffde-4f31-839c-9541f6e515e5,WATT - The Rochelle,1.332928,103.790957,"188 Keng Lee Rd, Singapore 308414",Plugshare,2,FALSE,,FALSE,2023-05-27 17:48:35.390693
47e27966-da32-43b2-ba6f-cabbfbe9ee8b,Tanah Merah Country Club Garden Course,1.328246,103.979775,"25 Changi Coast Road, Singapore 499803",Plugshare,6,FALSE,,FALSE,2023-05-27 17:48:35.390693
de85a23d-5a0e-490f-8158-c3f79676eae7,MYDIN Mutiara Rini (3 x 22 kW AC),1.51514742,103.6353126,"7, Persiaran Jaya 1, Mutiara Rini, 81300 Johor Bahru, Johor, Malaysia",Plugshare,3,FALSE,,FALSE,2023-05-27 17:48:35.390693
d90ca790-f671-44af-8773-e1f588de7e0c,Petronas Toll Skudai Northbound,1.579332,103.650349,"81400 Tampoi, Johore, Malaysia",Plugshare,3,FALSE,,FALSE,2023-05-27 17:48:35.390693
6962b1c7-e59f-4e29-8fb3-1d9abe6b0007,Charge+: Ci Yuan Community Club Basement Carpark,1.375239,103.882883,51 Hougang Avenue 9 Singapore 538776,Plugshare,2,FALSE,,TRUE,2023-05-27 17:48:35.390693
985c2978-8693-43db-82d9-5044ee5faa98,Singapore Polytechnic,1.309943,103.777368,"500 Dover Rd, Singapore 139651",Plugshare,2,TRUE,43,TRUE,2023-05-27 17:48:35.390693
09594909-7420-4b25-9ec3-0a5fdc82203f,West Park BizCentral,1.315185,103.695214,"32 Pioneer Cres, Singapore 628561",Plugshare,2,TRUE,50,TRUE,2023-05-27 17:48:35.390693
9fa84f59-ee76-46c2-90cf-8c51969ee3fc,MapleTree Pionner Logistics Hub,1.317787188,103.6533904,76 Pionner Road ,Plugshare,2,FALSE,,TRUE,2023-05-27 17:48:35.390693
c35d9c12-fdfd-4acf-b3ef-38b27c4d4f86,SP Group: Techplace II,1.377181,103.866439,"5012 Ang Mo Kio Ave 5, Singapore 569872",Plugshare,2,FALSE,,TRUE,2023-05-27 17:48:35.390693
70a268fd-f2b3-4885-94b0-e66eaae6c3d8,Tanah Merah Ferry Terminal,1.31412,103.9876,"50 Tanah Merah Ferry Rd, Singapore 498833",Plugshare,5,FALSE,,FALSE,2023-05-27 17:48:35.390693
f7322dc6-0c85-493c-9680-01cdc86ffd34,DC Fast Charger @JEGS (Coming Soon),1.303421,103.686712,"45 Shipyard Rd, 45, Singapore 628136",Plugshare,2,FALSE,,FALSE,2023-05-27 17:48:35.390693
f4a3599d-4c2e-48dd-a125-c9fdaf96dd52,Sunway Citrine Hub (3 pin),1.390931,103.639452,"Persiaran Medini 3, Sunway City Iskandar Puteri, 79250 Iskandar Puteri, Johor, Malaysia",Plugshare,3,FALSE,,FALSE,2023-05-27 17:48:35.390693
87b50af2-3a58-4d67-ba93-8dbc86962f53,Shell Ang Mo Kio,1.367883,103.844826,"3535 Ang Mo Kio Ave 6, Singapore 569839",Plugshare,1,TRUE,50,TRUE,2023-05-27 17:48:35.390693
029d5603-75e5-4116-8f4a-e6a7d4892ed5,SP Group: Temasek Polytechnic Carpark E,1.347611,103.930455,"33 Tampines Ave 1, Singapore",Plugshare,4,FALSE,,TRUE,2023-05-27 17:48:35.390693
82c58543-f574-41b9-baa8-c610d65afcc9,Gardens by the Bay - Main Entrance Carpark,1.281584,103.866253,18 Marina Gardens Dr,Plugshare,4,FALSE,,TRUE,2023-05-27 17:48:35.390693
40df00ed-68a5-4945-9096-e4bfcc33601e,Woodlands Industrial Park,1.451869,103.796326,"158 Woodlands Industrial Park E5, Singapore 757867",Plugshare,1,FALSE,,FALSE,2023-05-27 17:48:35.390693
f4042e34-60e5-4a71-be90-9a45511c8c77,Shell Punggol,1.404761,103.906631,"821 Punggol Rd, Singapore 829169",Plugshare,1,TRUE,43,TRUE,2023-05-27 17:48:35.390693
a20712a2-14d4-4a80-9303-d4b600f7fd0a,"BlueSG open to EVs: Blk 346, Bt Batok St 34",1.362406,103.750959,"347 Bukit Batok Street 34, Singapore 650347",Plugshare,4,FALSE,,FALSE,2023-05-27 17:48:35.390693
2b7e4eff-260b-4895-8f4f-1a4ad1051644,"BlueSG open to EVs: Blk 472, Fernvale Street",1.397119,103.881632,"472 Fernvale St, Singapore 792472",Plugshare,4,FALSE,,FALSE,2023-05-27 17:48:35.390693
f6cdf31f-b156-4c23-a7f6-64d264a188c9,BlueSG open to EVs: 417 Pasir Ris Dr 6,1.372044,103.955051,"417 Pasir Ris Drive 6, Singapore 510417",Plugshare,4,FALSE,,FALSE,2023-05-27 17:48:35.390693
8d1221e7-7eae-485b-9662-7d5d327122d2,Tada Station,1.359834,103.833595,"40 Sin Ming Lane, Midview City, Singapore 573958",Plugshare,1,FALSE,,TRUE,2023-05-27 17:48:35.390693
3b478221-7d2c-490f-b310-9fe31be8bead,BlueSG Charger (4.8kW AC),1.31248,103.874478,"114A Lor 3 Geylang, Singapore 382114 Lor 3 Geylang, Singapore 382114",Plugshare,4,FALSE,,FALSE,2023-05-27 17:48:35.390693
e3475c74-0106-4ed3-9e51-5d107d9dc519,Shell Telok Blangah,1.270457,103.812772,"450 Telok Blangah Road, Singapore 098857",Plugshare,1,FALSE,,TRUE,2023-05-27 17:48:35.390693
b39e04e5-5060-452f-89ba-c97ed396fa3a,Shell Recharge Geylang Rd,1.311974723,103.8755682,203 Geylang Road ,Plugshare,1,FALSE,,TRUE,2023-05-27 17:48:35.390693
a1e7c55c-dd4b-45e7-92b8-a4a4820b1a1f,BlueSG open to EVs: 21 Jalan Masjid,1.320339,103.912298,"21 Jln Masjid, Singapore 418946",Plugshare,4,FALSE,,FALSE,2023-05-27 17:48:35.390693
6cd70d2a-dcac-447e-9210-e702734edcc0,Starbucks Bandar Seri Alam DT (22 kW AC),1.496464,103.871663,"8, Jln Suria, Bandar Baru Seri Alam, 81750 Masai, Johor",Plugshare,1,TRUE,22,FALSE,2023-05-27 17:48:35.390693
ed140cac-8e20-48be-888c-0be44bd564a4,Aste Global -1 Tuas Link 1 by EVone Charging,1.333440869,103.6383892,"1 Tuas Link 1, Singapore 638583",Plugshare,1,FALSE,,TRUE,2023-05-27 17:48:35.390693
5be5b85b-538e-4d44-b7aa-61dd5ebfab4a,Shell Sengkang,1.391564,103.892738,"61 Sengkang E Rd, Singapore 545015",Plugshare,1,TRUE,50,TRUE,2023-05-27 17:48:35.390693
f2fd75eb-9827-4d18-84f2-5dbc35381539,Shell Serangoon Gardens,1.363386,103.867302,"49 Serangoon Garden Way, Singapore 555944",Plugshare,1,FALSE,,TRUE,2023-05-27 17:48:35.390693
4f7f9ab0-b1c3-4952-a565-2d71b1bd033c,Techplace I,1.360599,103.856128,"4008 Ang Mo Kio Ave 10, Singapore 569625",Plugshare,1,TRUE,43,TRUE,2023-05-27 17:48:35.390693
62ace48b-602a-4827-86b0-22bfa08457db,Paradigm Mall JB,1.515891,103.685631,"Lot no. 4FK-12, 4th floor, Paradigm Mall, Taman Bukit Mewah, 81200 Johor Bahru, Johor, Malaysia",Plugshare,3,FALSE,,FALSE,2023-05-27 17:48:35.390693
97878de5-0882-43c4-9484-2564e48e65d4,Hougang Mall,1.3725894,103.8937225,90 Hougang Avenue 10,Plugshare,1,FALSE,,TRUE,2023-05-27 17:48:35.390693
f32f0a2b-e778-42de-acc9-6db361f6065a,"BlueSG open to EVs: Blk 129A, Bt Merah View",1.283617,103.823466,"129A Bukit Merah View, Singapore 151129",Plugshare,4,FALSE,,FALSE,2023-05-27 17:48:35.390693
4cdf76d4-2db2-4eb0-870e-29daa85c823d,Charge+: Woodlands Waterfront Carpark,1.451662,103.778802,FQ2H+MG Singapore,Plugshare,2,FALSE,,FALSE,2023-05-27 17:48:35.390693
ddb0b2c8-0b8b-4a02-9175-22642b24c094,Charge+: 29A Marsiling Drive,1.442634,103.772981,"29A Marsiling Dr, Singapore 731029",Plugshare,3,FALSE,,FALSE,2023-05-27 17:48:35.390693
0f46b21c-6a8d-4de5-96ef-45c403f96c48,Great World Supercharger,1.293346,103.832078,"1 Kim Seng Promenade, Singapore 237994",Plugshare,3,TRUE,250,TRUE,2023-05-27 17:48:35.390693
bc48ed2f-2519-46af-a278-881bbb22b069,"BlueSG open to EVs: Blk 512A, Serangoon North Ave 4",1.370763,103.875194,"512A Serangoon North Ave 4, Singapore 551512",Plugshare,4,FALSE,,FALSE,2023-05-27 17:48:35.390693
e37a9d98-d0c4-43f9-bbd3-c7b2734f3741,Shell Dunman,1.309945,103.901031,"No. 743 Dunman Rd, Singapore 439241",Plugshare,1,TRUE,43,TRUE,2023-05-27 17:48:35.390693
c1d260d9-b59a-4ffe-a679-c6beb46d287b,Pioneer Centre,1.3326227,103.6969065,"1 Soon Lee St, Singapore 627605",Plugshare,1,TRUE,120,TRUE,2023-05-27 17:48:35.390693
216307a5-5cff-46e7-b532-d9ff341de25a,National Service Resort & Country Club,1.317675,103.974319,"10 Changi Coast Walk, Singapore 499739",Plugshare,10,FALSE,,FALSE,2023-05-27 17:48:35.390693
972bb843-9260-4279-96a6-69d29251b3e1,"BlueSG open to EVs: Blk 31A, Eunos Crescent",1.320107,103.901609,"31A Eunos Cres, Singapore 401031",Plugshare,4,FALSE,,FALSE,2023-05-27 17:48:35.390693
d8be067d-b439-4b9f-b1de-d041d5e169cf,"BlueSG open to EVs: BLK 241A, Bt Batok East Ave 5",1.350628,103.755377,"239 Bukit Batok East Ave 5, Block 239, Singapore 650239",Plugshare,4,FALSE,,FALSE,2023-05-27 17:48:35.390693
f62d031d-8469-46a0-9d29-6c95cfa49b65,Juice+: Marina Country Club,1.415565,103.899791,11 Northshore Drive Singapore 828670,Plugshare,1,FALSE,,TRUE,2023-05-27 17:48:35.390693
605f0aa0-a13d-4ee4-8333-6515c7c75572,CDG 455A Segar Rd,1.387690449,103.7713341,"455A Segar Rd, 新加坡 671455",Plugshare,1,FALSE,,FALSE,2023-05-27 17:48:35.390693
3b81a0ef-5bea-4c7d-bdbe-cd3ccffc14d3,CDGE: 57A Teban Gardens Road,1.322502,103.737148,"57A Teban Gardens Rd, Singapore 601057",Plugshare,3,FALSE,,FALSE,2023-05-27 17:48:35.390693
db30f384-557e-443b-8801-8261224738fe,BlueSG open to EVs: Blk 4 Queens Road,1.319338,103.808723,"4 Queen's Rd, Singapore 260004",Plugshare,4,FALSE,,FALSE,2023-05-27 17:48:35.390693
ce848e4b-94d5-4238-877e-ee8835ec6be5,"BlueSG open to EVs: Blk 112, Bishan Street 12",1.346635,103.848961,"112 Bishan Street 12, Singapore 570112",Plugshare,4,FALSE,,FALSE,2023-05-27 17:48:35.390693
12906175-9f10-467d-b70e-7825f89009c2,Charge+: Les Mains Patisserie,1.315606,103.925587,47 Jalan Tua Kong Singapore 457247,Plugshare,1,FALSE,,FALSE,2023-05-27 17:48:35.390693
6603292f-cc5b-488e-90f7-2b2b525fd70a,Shell Newton Hooper,1.311417,103.843102,"150 Bukit Timah Rd, Singapore 229846",Plugshare,1,TRUE,50,TRUE,2023-05-27 17:48:35.390693
973f6c55-8430-449c-b64c-c5924e048058,Upper Bukit Timah Shell Recharge,1.338447451,103.77691,"35 Upper Bukit Timah Rd, Singapore 588166",Plugshare,2,FALSE,,TRUE,2023-05-27 17:48:35.390693
8f13c12a-15e9-4bad-ab62-f819bfa6902b,Charge+ (in operation) (Coming Soon),1.437431,103.801205,"644A Woodlands Ring Rd, Singapore 731644",Plugshare,3,FALSE,,FALSE,2023-05-27 17:48:35.390693
8b640d5f-36d4-4a04-8f60-56f5d5619587,Techlink,1.33594,103.905571,"31 Kaki Bukit Rd 3, Singapore 417818",Plugshare,2,TRUE,50,TRUE,2023-05-27 17:48:35.390693
a465ba3e-92c5-47f8-97ca-a0456901b1c7,Sengkang Grand Mall,1.3818507,103.8927293,70 Compassvale Bow Singapore 544692,Plugshare,4,FALSE,,TRUE,2023-05-27 17:48:35.390693
a166675f-b8e5-47b4-958f-35000866db1b,Up@Robertson Quay,1.290676,103.837616,"75 Robertson Quay, Singapore 238238",Plugshare,2,FALSE,,FALSE,2023-05-27 17:48:35.390693
c7067df1-4cd1-4261-b029-5369f7f17ead,SP Group: Rivervale Mall,1.392337,103.904346,"11 Rivervale Crescent, Singapore 545082",Plugshare,6,FALSE,,TRUE,2023-05-27 17:48:35.390693
01d8ea15-2fbb-4c1f-9155-e0d3fffea71f,"BlueSG open to EVs: Blk 334, Clementi Ave 2",1.314714,103.768249,"334 Clementi Ave 2, Singapore 120334",Plugshare,4,FALSE,,FALSE,2023-05-27 17:48:35.390693
1481efb2-9c55-43f5-a189-29e36b91be76,700A Pasir Ris Drive 10,1.380776334,103.9385398,511700,Plugshare,3,FALSE,,FALSE,2023-05-27 17:48:35.390693
de20bd73-e8b5-46df-8cf2-1abcfecb70d7,Caltex Jurong spring,1.349641,103.71487,"100 Jurong West Ave 1, Singapore 649519",Plugshare,1,FALSE,,TRUE,2023-05-27 17:48:35.390693
d2219089-82b3-4614-ab4d-3c0793c2ccae,LHN Energy Phoenix Park,1.29804,103.816568,"318 Tanglin Rd, Singapore 247979",Plugshare,1,FALSE,,FALSE,2023-05-27 17:48:35.390693
bb016c2f-ba96-46af-821f-ed6d8f56b416,National Heart Center,1.281513,103.836831,"17 Third Hospital Avenue, Singapore",Plugshare,1,FALSE,,FALSE,2023-05-27 17:48:35.390693
d282d102-b9b5-48f8-b9fa-1f6884e7908f,BlueSG open to EVs: Across 343 Telok Kurau Road,1.308638,103.912318,"21A St. Patrick's Road, Singapore 424143",Plugshare,4,FALSE,,FALSE,2023-05-27 17:48:35.390693
bf21fa0c-b667-4690-ad44-3bc8f69b7781,"BlueSG open to EVs: Blk 230, Jurong East St 21",1.341795,103.737547,"230 Jurong East Street 21, Singapore 600231",Plugshare,4,FALSE,,FALSE,2023-05-27 17:48:35.390693
41caaa3d-f4d3-4995-aeb9-cf5d5cd73cf0,Resorts World Sentosa,1.257043,103.820353,"8 Sentosa Gateway, Singapore 098269",Plugshare,3,TRUE,50,TRUE,2023-05-27 17:48:35.390693
260b6032-453c-46b4-8920-88daaa4eca2e,SP: Vivocity,1.264843,103.823285,"1 HarbourFront Walk, Singapore 098585",Plugshare,4,FALSE,,TRUE,2023-05-27 17:48:35.390693
15b3c9ec-763b-49ad-97e6-e184650ed560,Connexion,1.312553,103.854282,"1 Farrer Park Station Rd, Singapore 217562",Plugshare,2,TRUE,43,TRUE,2023-05-27 17:48:35.390693
cae13676-6ee4-48c3-ab3e-2d67c91c9d09,GoParkin: Union Gas building,1.350622,103.89087,"89 Defu Lane 10, Singapore 539220",Plugshare,2,FALSE,,TRUE,2023-05-27 17:48:35.390693
477833ed-8e68-4ea2-8532-3d6739260847,Charge+: Defu Industrial City,1.344882732,103.8967512,2 Defu South Street 1,Plugshare,3,FALSE,,TRUE,2023-05-27 17:48:35.390693
6c29bcba-64e4-42c8-a9eb-477200c06393,ESSO Pioneer,1.312940252,103.6873451,19 Pioneer Road S628499,Plugshare,2,FALSE,,TRUE,2023-05-27 17:48:35.390693
d7fb4ae2-bfb0-4245-8450-14dd1dd408d7,The Concourse,1.30136,103.862236,"300 Beach Rd, Singapore 199555",Plugshare,1,TRUE,3.7,FALSE,2023-05-27 17:48:35.390693
73e9683f-2330-4364-bcf0-141e645c3bb5,"BlueSG open to EVs: Blk 854A, Jurong West St 81",1.347799,103.696657,"854A Jurong West Street 81, Singapore 641854",Plugshare,4,FALSE,,FALSE,2023-05-27 17:48:35.390693
45a22bdb-06e2-414f-852a-de1dbac095d3,BlueSG open to EVs: Blk 265 Yishun St 22,1.436903,103.838345,"266 Yishun Street 22, Singapore 760266",Plugshare,4,FALSE,,FALSE,2023-05-27 17:48:35.390693
e3718acf-04df-4b21-95ec-caddeb36f79d,Singapore Polytechnic MSCP,1.311246,103.776681,"Dover Road, Commonwealth‎ 13, Singapore",Plugshare,1,FALSE,,FALSE,2023-05-27 17:48:35.390693
a134895a-1dd7-436b-80bd-599386a6c98a,Autobacs Ubi,1.33314,103.896672,"10 Ubi View, Singapore 408543",Plugshare,2,TRUE,43,TRUE,2023-05-27 17:48:35.390693
1198d360-188f-4607-8eca-3e83f90df840,KED ENERGY PTE LTD,1.336371265,103.7546585,"48 Toh Guan Rd E, Singapore 608586",Plugshare,3,FALSE,,TRUE,2023-05-27 17:48:35.390693
ceda2594-07bd-4bb4-b0a8-ff05a9352f91,CDG Engie: West Coast Park (McDonald’s),1.297562,103.763779,"71 W Coast Hwy, Singapore 126844",Plugshare,2,FALSE,,FALSE,2023-05-27 17:48:35.390693
ad939f64-287a-431d-bf0a-f299888f5b5c,Shell,1.331795,103.888855,"255 Paya Lebar Rd, Singapore 409037",Plugshare,1,TRUE,50,TRUE,2023-05-27 17:48:35.390693
fc1a7faf-f975-4072-b534-24c6ac017d47,CDGE: Esso Upper Aljunied,1.332267826,103.8790348,"373 Upper Aljunied Rd, Singapore 367859",Plugshare,1,FALSE,,TRUE,2023-05-27 17:48:35.390693
f94bd397-1864-4f80-82cd-5f5ed96d916e,"BlueSG open to EVs: Blk 903, Jurong West St 91",1.33961,103.686232,"903 Jurong West Street 91, Singapore 640903",Plugshare,4,FALSE,,FALSE,2023-05-27 17:48:35.390693
50f14f78-424d-42ec-b144-d8eab10bf97d,"BlueSG open to EVs: Blk 117, Commonwealth Drive",1.306944,103.799533,"117 Commonwealth Cres, Singapore",Plugshare,4,FALSE,,FALSE,2023-05-27 17:48:35.390693
3f0e1aae-626e-4fac-8f7d-5e76ca9c6cee,UE Square Tower (red zone),1.293274,103.84234,"205 River Valley Rd, Singapore 238274",Plugshare,2,FALSE,,TRUE,2023-05-27 17:48:35.390693
6891e697-bb14-4122-a921-7aad2c07ab50,"BlueSG open to EVs: Blk 966A, Hougang Ave 9",1.377945,103.877754,"966A Hougang Avenue 9, Singapore 531966",Plugshare,4,FALSE,,FALSE,2023-05-27 17:48:35.390693
1df843a3-a925-44fa-96ea-7b9809e9843b,"BlueSG open to EVs: Blk 326, Ubi Ave 1",1.32726,103.904208,"327 Ubi Ave 1, Block 327, Singapore 400327",Plugshare,4,FALSE,,FALSE,2023-05-27 17:48:35.390693
e8a58a02-4391-4f15-b01b-4951955a4ae1,BlueSG open to EVs: BLK 853 Yishun Ring Road,1.416467,103.836745,"853 Yishun Ring Road, Singapore 760853",Plugshare,1,FALSE,,FALSE,2023-05-27 17:48:35.390693
f9690370-e6bd-4591-af42-24eb131e050f,BlueSG open to EVs: Blk 513 Yishun Street 51,1.415948,103.8442,"513c Yishun Street 51, Singapore 760513",Plugshare,4,FALSE,,FALSE,2023-05-27 17:48:35.390693
b17825cb-a2da-4687-b166-16facd470b3e,LHN Energy Raeburn Park,1.273106,103.833155,"10 Raeburn Park, Singapore 088702",Plugshare,1,FALSE,,FALSE,2023-05-27 17:48:35.390693
b04cf3aa-748f-4716-adc1-c073b1411272,135A Pasir Ris Street 11,1.364802,103.956863,135A Pasir Ris Street 11,Plugshare,3,FALSE,,FALSE,2023-05-27 17:48:35.390693
be108156-5a0a-48eb-9d08-43a4d4fd4bd0,SP Group: Jewel Changi Airport,1.360699,103.989603,78 Airport Boulevard Singapore 819666,Plugshare,6,TRUE,22,FALSE,2023-05-27 17:48:35.390693
5fd1fc84-21a7-479b-9d8b-47d335745212,Tanah Merah Country Club Tampines Course,1.32701961,103.9699416,151 Xilin Avenue,Plugshare,9,FALSE,,FALSE,2023-05-27 17:48:35.390693
2065d978-7688-4bc4-ba6b-13db7ed01664,Mapletree,1.3192148,103.6882628,21 benoi sector,Plugshare,2,FALSE,,FALSE,2023-05-27 17:48:35.390693
0379e6d9-c8b0-4560-818d-21ea1bd4cb91,SPC Bukit Batok,1.343242791,103.7583437,"50 Bukit Batok East Ave 3, Singapore 659879",Plugshare,1,FALSE,,TRUE,2023-05-27 17:48:35.390693
248cce60-21b8-4f56-a4e5-8778e690437b,Expo Carpark D,1.333976255,103.9583871,1 Expo drive ,Plugshare,5,FALSE,,TRUE,2023-05-27 17:48:35.390693
8c0b3057-8568-43f0-a7cb-669fb1f6ea9b,CDG 787A Choa Chu Kang Dr,1.395113396,103.7476611,"787A Choa Chu Kang Dr, 新加坡 680787",Plugshare,1,FALSE,,FALSE,2023-05-27 17:48:35.390693
38b7651e-0bf5-4d05-87c3-ff5b158b8799,LHN Energy,1.372804,103.763206,794 Upper Bukit Timah Road,Plugshare,1,FALSE,,FALSE,2023-05-27 17:48:35.390693
4bfb4345-8c46-454d-9c80-4fc7cf8e49a5,CDGE: 117 Alkaff Crescent,1.336864883,103.8730202,"117 Alkaff Cres, Singapore 341115",Plugshare,3,FALSE,,FALSE,2023-05-27 17:48:35.390693
b8d9bd28-e637-4748-b616-ae009e85da0a,IKEA Tampines,1.373907,103.932551,"60 Tampines North Drive 2, Singapore 528764",Plugshare,4,TRUE,7.4,FALSE,2023-05-27 17:48:35.390693
1c7cac3d-d7a8-4919-a186-84978a186bc9,BlueSG open to EVs: Blk 157 Ang Mo Kio Ave 4,1.375126,103.839276,"157 Ang Mo Kio Avenue 4, Singapore 56",Plugshare,4,FALSE,,FALSE,2023-05-27 17:48:35.390693
1f73d139-d567-4a8e-ab39-496b4d2143be,Charge+: 220 Hougang Street 21,1.356983,103.884404,220 Hougang St 21,Plugshare,3,FALSE,,FALSE,2023-05-27 17:48:35.390693
a91fca59-19e8-4227-be87-9d804aa2dd53,BlueSG open to EVs: 52 Sims Place,1.316535,103.880084,"52 Sims Pl, Singapore 380052",Plugshare,4,FALSE,,FALSE,2023-05-27 17:48:35.390693
e907666e-73c2-4f54-aec0-572d2d994543,bluecharge@senja link 651,1.386895443,103.7643987,senja link 651 carpark,Plugshare,4,FALSE,,FALSE,2023-05-27 17:48:35.390693
eafa3879-d78c-49b3-ae63-2f47d84f28e3,Jit Poh Building,1.272962,103.842388,"19 Keppel Road, Singapore",Plugshare,1,FALSE,,TRUE,2023-05-27 17:48:35.390693
d987701e-e741-4efe-8073-893d8e5c380e,"BlueSG open to EVs: Blk 602, Clementi West St 1",1.305137,103.766255,"602 Clementi West Street 1, Singapore 120602",Plugshare,4,FALSE,,FALSE,2023-05-27 17:48:35.390693
49ec8fc6-7e86-4a30-b193-a603e15018ee,CDGEG: Blk 146A Lorong 2 Toa Payoh,1.334501,103.845655,"146A Lor 2 Toa Payoh, Singapore 311146",Plugshare,3,FALSE,,FALSE,2023-05-27 17:48:35.390693
acad472e-0f69-4f18-93a1-ef25abce2304,"BlueSG open to EVs: Blk 117, Potong Pasir Ave 1",1.336562,103.863076,"114 Potong Pasir Ave 1, Singapore 350114",Plugshare,4,FALSE,,FALSE,2023-05-27 17:48:35.390693
aaa41666-ccb1-49e1-8316-5f25e203d443,Molek Pine 4 (3.7 kW AC),1.525273,103.784371,"Jalan Molek 1/27, 81750‎ Pasir Gudang‎ Johor, Maleisië",Plugshare,4,FALSE,,FALSE,2023-05-27 17:48:35.390693
60e4c8d4-d84b-4fa2-8801-0db0047f5dba,Sheraton Towers,1.311664,103.83638,"39 Scotts Rd, Singapore 228230",Plugshare,4,FALSE,,TRUE,2023-05-27 17:48:35.390693
6e9afaf0-fb7e-45b2-b88a-4c71c92ce9a1,CDG EV Charger,1.35583,103.844308,290A Bishan St 24,Plugshare,3,FALSE,,FALSE,2023-05-27 17:48:35.390693
115f1f07-4a7c-43f4-99ca-bd572753ac7b,"BlueSG open to EVs: Bedok South Ave 3, behind blk 69",1.319527,103.942997,"behind blk 69, bedok south ave 3",Plugshare,4,FALSE,,FALSE,2023-05-27 17:48:35.390693
eb8425e2-451f-4717-9e72-1fb7fecb9125,D'Arena@Upper Jurong by EVone Charging,1.3294741,103.6822694,"511 Upper Jurong Rd, Singapore 638366",Plugshare,2,FALSE,,TRUE,2023-05-27 17:48:35.390693
6b01debb-10c5-4e21-aff5-361787346c99,BlueSG open to EVs: 37 Chai Chee Street,1.325191,103.925778,"36 Chai Chee Avenue, Singapore 461037",Plugshare,4,FALSE,,FALSE,2023-05-27 17:48:35.390693
a19429fd-7d38-4e84-b761-61e36eb56c05,CDG Engie - 274A Toh Guan Road,1.341565,103.747455,"274A Toh Guan Rd, Singapore 600276",Plugshare,3,FALSE,,FALSE,2023-05-27 17:48:35.390693
ca4f3036-19cb-476a-a673-98d00a1ebc7a,BlueSG open to EVs: 420 Tampines St 41,1.357784,103.947142,"419 Tampines Street 41, Singapore 529204",Plugshare,4,FALSE,,FALSE,2023-05-27 17:48:35.390693
b1060dbd-a632-444e-a8b9-dc13296dd1eb,CDGE: Singapore Botanic Gardens Botany Centre,1.3084224,103.8182032,"1 Cluny Rd, Singapore 259569",Plugshare,2,FALSE,,FALSE,2023-05-27 17:48:35.390693
715cbe6e-94a5-4dc3-a8fd-aa713c6a20fd,Charge+: 633 Punggol Drive,1.400696,103.913915,"633 Punggol Dr, Singapore 820633",Plugshare,2,FALSE,,FALSE,2023-05-27 17:48:35.390693
107c1e2d-3922-4010-9bf5-34380de22297,"BlueSG open to EVs: Blk 688, Hougang St 61",1.375892,103.885486,"688 Hougang Street 61, Block 688, Singapore 530688",Plugshare,4,FALSE,,FALSE,2023-05-27 17:48:35.390693
1fd625ce-8c2f-4290-96c5-9cfec40ad39c,Shell Recharge Tanglin Mall,1.305026,103.823851,"163, Tanglin Road, 247933",Plugshare,4,FALSE,,TRUE,2023-05-27 17:48:35.390693
1c79528b-3181-4ced-8bbf-155c7660ba8c,BlueSG open to EVs: Blk 769 Yishun Ave 3,1.424279,103.833275,"769 Yishun Avenue 3, Singapore 760769",Plugshare,4,FALSE,,FALSE,2023-05-27 17:48:35.390693
26c84c30-6f74-4a02-88f7-fcf39b7fb185,Gardens By The Bay - Bayfront Plaza,1.279198,103.860073,"Unnamed Road, Singapore",Plugshare,1,FALSE,,FALSE,2023-05-27 17:48:35.390693
c0295208-7781-4ec0-85a8-af22eb6b7314,ChargEco: Block 80 HDB Car Park,1.274012011,103.8073596,"80 Telok Blangah Street 31, Singapore 102080",Plugshare,3,FALSE,,FALSE,2023-05-27 17:48:35.390693
080fda7d-154b-41cc-8d25-2f11eac12db4,NUS Stephen Riady Center,1.304036,103.77304,"2 College Ave West, Singapore",Plugshare,5,FALSE,,FALSE,2023-05-27 17:48:35.390693
0353f903-9d2c-4685-ae9b-ea7f4cfa841f,Willing Hearts,1.314248278,103.9070455,1 LorJ Telok Kurau,Plugshare,1,FALSE,,FALSE,2023-05-27 17:48:35.390693
da46a240-9a2a-4621-be1c-99eca0c30d5c,Shell Tampines,1.349178,103.948016,"9 Tampines Ave 2, Singapore 529731",Plugshare,2,FALSE,,TRUE,2023-05-27 17:48:35.390693
32a4f284-d2c8-40b4-80a0-f3283605bd47,Marina Bay Sands,1.285604,103.861107,"10 Bayfront Ave, Singapore 018956",Plugshare,8,TRUE,22,FALSE,2023-05-27 17:48:35.390693
a65dd122-ca0a-40f4-bdbb-9a73e88f20bc,Bluecharge: Blk 32 Telok Blangah Rise,1.273182824,103.8210055,"Telok Blangah Rise, Mount Faber Grace Park, Singapore",Plugshare,4,FALSE,,FALSE,2023-05-27 17:48:35.390693
9338a71f-6a4f-400c-abc4-72cc979677bc,Shell Braddell,1.3449,103.864464,"110 Braddell Rd, Singapore 359914",Plugshare,1,TRUE,50,TRUE,2023-05-27 17:48:35.390693
b5d5d1f7-a70a-4789-aa91-248fdc23f4fd,"BlueSG open to EVs: Blk 809, Yishun Ring Road",1.416877,103.83055,"809 Yishun Ring Rd, Singapore 760809",Plugshare,4,FALSE,,FALSE,2023-05-27 17:48:35.390693
bc70d616-2850-4567-a01a-2113693da8bf,SP Group: Marina Square,1.29179,103.857758,"Raffles Blvd, Singapore",Plugshare,3,TRUE,43,TRUE,2023-05-27 17:48:35.390693
d6571fd5-5ae7-4235-a9c2-8fa12ca4ea15,Tampines Plaza,1.353142,103.943078,"3 Tampines Central 1, Singapore 529540",Plugshare,4,TRUE,50,TRUE,2023-05-27 17:48:35.390693
e2786e37-e08d-4144-8ab6-f64221f78637,"BlueSG open to EVs: Blk 103, Jalan Rajah",1.327412,103.852496,"103 Jln Rajah, Block 103, Singapore 321103",Plugshare,4,FALSE,,FALSE,2023-05-27 17:48:35.390693
c5935a8a-9497-448b-ac3a-26d959fa63a0,Lee Kong Chian School of Medicine,1.321851,103.848984,"11 Mandalay Rd, Singapore",Plugshare,1,TRUE,3.7,FALSE,2023-05-27 17:48:35.390693
bfa83ec0-1bfa-406d-af63-4295446c529d,Charge+: 519A Woodlands Drive 14,1.434427612,103.7923171,"519A Woodlands Drive 14, Singapore 731519",Plugshare,3,FALSE,,FALSE,2023-05-27 17:48:35.390693
72d4d15c-8017-4abc-9cfe-91b5adef7444,Shell Recharge Pasir Ris,1.365821,103.966996,"1 New Loyang Link, Singapore 506931",Plugshare,1,TRUE,180,TRUE,2023-05-27 17:48:35.390693
b548a1e6-a718-403c-9d2e-85bf9cc5986d,Tiong Bahru Plaza,1.2862842,103.8277824,"355 Jln Bukit Ho Swee, Singapore 169567",Plugshare,2,FALSE,,TRUE,2023-05-27 17:48:35.390693
73f142e6-f408-4bcc-b091-515453805505,Charge+: 226 Sumang Lane,1.4029418,103.8934653,"226 Sumang Lane, Singapore 820226",Plugshare,3,FALSE,,FALSE,2023-05-27 17:48:35.390693
9cbfde0d-0321-437b-a223-3816686e4ac9,"BlueSG open to EVs: Blk 537, Bt Batok St 52",1.354886,103.751171,"539 Bukit Batok Street 52, Block 539, Singapore 650539",Plugshare,4,FALSE,,FALSE,2023-05-27 17:48:35.390693
d8623bbd-ada5-4b1a-ae3c-0796f2eb66d6,65A Kallang Bahru MSCP,1.3198411,103.8690631,65A Kallang Bahru S(331065),Plugshare,3,FALSE,,FALSE,2023-05-27 17:48:35.390693
7957e451-5fd3-4ce7-bb1b-3aa0b20a68b8,"Bluecharge: 50 Beach View, Basement",1.251294,103.818745,"50 Beach View, Singapore 098604",Plugshare,4,FALSE,,FALSE,2023-05-27 17:48:35.390693
493f9226-6640-4eed-8acf-c56faae6f653,"BlueSG open to EVs: Blk 329, Anchorvale St",1.396432,103.88939,"329 Anchorvale St, Singapore 540329",Plugshare,4,FALSE,,FALSE,2023-05-27 17:48:35.390693
426f16b1-4456-4e30-ba83-d4bce2be2bdc,CDGE: Autobay @ Kakit Bukit,1.3416647,103.9125865,1 Kakit Bukit Ave 6 ,Plugshare,1,FALSE,,TRUE,2023-05-27 17:48:35.390693
aae5a548-9fac-4edc-9419-c53625c67b88,CDGE: 635A Jurong West Street Car Park,1.342288,103.69866,"635A Jurong West Street 65, Singapore 641635",Plugshare,3,FALSE,,FALSE,2023-05-27 17:48:35.390693
e06ed62f-f36b-4958-a05f-09a744482cc2,Storhub Toa Payoh,1.333221,103.852334,"615 Lrg. 5 Toa Payoh, Singapore 319457",Plugshare,2,TRUE,7.4,FALSE,2023-05-27 17:48:35.390693
f61be9e6-4c20-4495-a394-241af7408809,Capella Hotel Solacharge,1.2496291,103.8243003,"1 The Knolls, Sentosa Island, 098297",Plugshare,3,FALSE,,FALSE,2023-05-27 17:48:35.390693
6b8cdfce-b634-4d2a-82bb-beb1b085f40f,Shell Paya Lebar,1.322042,103.891624,"98 Paya Lebar Rd, Singapore 409008",Plugshare,1,TRUE,50,TRUE,2023-05-27 17:48:35.390693
735987d4-3e47-42f8-9f4b-c57b8f141535,"Bluecharge: 534, Bedok North St 3",1.334142,103.927754,"534 Bedok North Street 3, Singapore 460534",Plugshare,4,FALSE,,FALSE,2023-05-27 17:48:35.390693
5c9c5bbc-088a-4e14-b499-fea578ec1dbe,The Siemens Center,1.328057,103.870776,"62 MacPherson Rd, Singapore",Plugshare,1,TRUE,4.6,FALSE,2023-05-27 17:48:35.390693
23022d15-21f8-41b2-a6f2-2e1b34edad5c,AA CENTRE,1.289876,103.812956,"2 Kung Chong Rd, Singapore 159140",Plugshare,2,TRUE,30,FALSE,2023-05-27 17:48:35.390693
1cbb8a9f-59f3-4bf5-9c93-70f981f8665c,CDGE: Sin Ming Autocity,1.3592956,103.8392412,160 Sin Ming Drive,Plugshare,1,FALSE,,TRUE,2023-05-27 17:48:35.390693
50e2d17f-4de5-4fd4-bd03-1bf84b87b332,CDG Engie- Blk 451 Bukit Batok West Ave 6,1.353007,103.743458,Blk 451 Bukit Batok West Ave 6,Plugshare,3,FALSE,,FALSE,2023-05-27 17:48:35.390693
66246305-3f6a-40b8-8530-e1fea78e323f,"BlueSG open to EVs: Blk 609, Bedok Reservoir Road",1.33138,103.912313,"610 Bedok Reservoir Rd, Block 610, Singapore 470610",Plugshare,4,FALSE,,FALSE,2023-05-27 17:48:35.390693
80efb559-6fa6-4ddf-ad5e-6e32250a9b21,BlueSG open to EVs: Blk 108 Simei St 1,1.343233,103.950837,"108 Simei Street 1, Singapore 520108",Plugshare,4,FALSE,,FALSE,2023-05-27 17:48:35.390693
c5a287fe-7c70-45cc-82c3-8caeefdacdb9,SP Group: Caltex Changi,1.316149,103.900084,"78 Changi Rd, Singapore 419714",Plugshare,1,FALSE,,TRUE,2023-05-27 17:48:35.390693
bb955a8e-1827-4510-8ede-fc42279a8ed5,Charge+: BLK 315 MSCP Y65M,1.432573,103.841762,"315 Yishun Ave 9, Block 315 Carpark, Singapore",Plugshare,4,FALSE,,FALSE,2023-05-27 17:48:35.390693
dd1d4ced-b046-48fc-8d8b-df9e447924af,"Charge+: 431 Yishun Ave 1, Deck 5",1.420133,103.847638,"431c Yishun Ave 1, Singapore",Plugshare,3,FALSE,,FALSE,2023-05-27 17:48:35.390693
dc475a37-7953-4d22-9888-75e0278b0400,CDG: 183 Boon Lay MSCP,1.349273761,103.7094669,"183 Boon Lay Ave, Singapore 641183",Plugshare,3,FALSE,,FALSE,2023-05-27 17:48:35.390693
a348fa21-5cd9-49d6-a255-58796bbf06e8,"CDG Engie - 311, Clementi Ave 4",1.319082,103.765158,"311 Clementi Ave 4, Singapore 120311",Plugshare,3,FALSE,,FALSE,2023-05-27 17:48:35.390693
5d857b71-a30a-44c1-b65b-f95804f76105,BlueSG open to EVs: Blk 590 Ang Mo Kio St 51,1.371474,103.853217,"590 Ang Mo Kio Street 51, Singapore",Plugshare,4,FALSE,,FALSE,2023-05-27 17:48:35.390693
0d82414a-5de3-4b70-acbe-6fef6d534b4c,CDG Engie - 85 Dawson Road,1.29541,103.809262,85 Dawson Road,Plugshare,3,FALSE,,FALSE,2023-05-27 17:48:35.390693
51a46e20-50e3-40a3-956d-a3249b2d728e,116 Jalan Tenteram MSCP,1.3277547,103.8611462,116 Jalan Tenteram,Plugshare,3,FALSE,,FALSE,2023-05-27 17:48:35.390693
555d03cd-338f-4bd7-8482-85d1545c9fdf,"BlueSG open to EVs: Blk 203, Compassvale Road",1.387004,103.895935,"Blk 203, Singapore",Plugshare,4,FALSE,,FALSE,2023-05-27 17:48:35.390693
a7533a03-3f61-467a-8bfc-1d4b450cbfeb,Zhongshan Mall,1.327329,103.846394,"20 Ah Hood Rd, Singapore",Plugshare,2,TRUE,50,TRUE,2023-05-27 17:48:35.390693
f1415111-5466-4ed3-be55-ac458908deae,Shell,1.324259,103.842094,"324 Thomson Rd, Singapore 307672",Plugshare,1,FALSE,,TRUE,2023-05-27 17:48:35.390693
f3ec8dd0-2d8a-4692-9ca4-c5b1b0fcf9e9,CDG Blk 289H Bukit Batok Street 25,1.344397053,103.7600309,"Blk 289H Bukit Batok Street 25, 新加坡 657289",Plugshare,1,FALSE,,FALSE,2023-05-27 17:48:35.390693
0a71e62e-71b1-4bfc-8384-b88021c5599c,BlueCharge: 425 Bedok North Road,1.329215,103.929551,425 Bedok Road Singapore 460425 ,Plugshare,4,FALSE,,FALSE,2023-05-27 17:48:35.390693
5d2140b5-2698-4243-85f0-23336aa870cd,CDG Engie - Blk 810 Choa Chu Kang Ave 7,1.373813,103.746674,"810 Choa Chu Kang Ave 7, Singapore 681810",Plugshare,3,FALSE,,FALSE,2023-05-27 17:48:35.390693
311a6c9e-04b6-49a6-b20d-a9f054d90e2f,870B Tampines St 86 (MSCP),1.356331,103.931039,"870B Tampines Street 86, Singapore 522870",Plugshare,3,FALSE,,FALSE,2023-05-27 17:48:35.390693
33a49fd2-c1ee-474b-963a-c229b733db7f,Charge+: Blk 440 (MSCP) Fernvale Link,1.392986,103.878422,"440 Fernvale Link, Singapore 790440",Plugshare,3,FALSE,,FALSE,2023-05-27 17:48:35.390693
70e8c798-41b6-485c-88c1-8a932bbfadd1,Jurong Point,1.339342,103.705387,"1 Jurong West Central 2, Jurong Point, Singapore 648886",Plugshare,2,FALSE,,FALSE,2023-05-27 17:48:35.390693
fc465b38-dc66-46e7-8527-e12778978c76,"20 Ayer Rajah Crescent, Technopreneur Centre",1.295231,103.789842,"20 Ayer Rajah Crescent, Singapore",Plugshare,1,FALSE,,FALSE,2023-05-27 17:48:35.390693
4ea8ab8c-d2ec-4757-a188-dce37a9ca3bd,The Capricorn Underground Car Park,1.289639,103.778957,"1 Science Park Rd, Singapore 117528",Plugshare,1,TRUE,50,TRUE,2023-05-27 17:48:35.390693
affa2ecb-5e11-4277-ac6e-9c9945f73d96,Storhub Jurong East by EVone Charging,1.3392365,103.7493724,3C Toh Guan Road East,Plugshare,1,FALSE,,TRUE,2023-05-27 17:48:35.390693
77d23fd3-70cf-4ca5-8b20-41f7fa3fc062,PE Drive Charging Station,1.331391,103.89573,"52 Ubi Avenue 3, Singapore 408867",Plugshare,1,FALSE,,FALSE,2023-05-27 17:48:35.390693
f27af23b-bf9b-4874-bc25-e06b4749f2b7,"BlueSG open to EVs: Blk 269, Tampines St 21",1.350668,103.947558,"269 Tampines Street 21, Singapore 520269",Plugshare,4,FALSE,,FALSE,2023-05-27 17:48:35.390693
a7ffb26e-5203-4188-ad8e-e4053a4b57d7,One@Redhill Centre,1.284876,103.808552,"1 Jln Kilang Barat, Singapore 159345",Plugshare,2,FALSE,,TRUE,2023-05-27 17:48:35.390693
0e1b6892-6462-4b62-8b44-6d3cdc205327,Millenia Walk,1.291826,103.860199,9 Raffles Boulevard ,Plugshare,1,FALSE,,FALSE,2023-05-27 17:48:35.390693
7beb2d73-2965-4ced-976d-b38487686bf4,CDG Teck Whye Ln Blk 118A Carpark,1.379520436,103.7499343,"118A Teck Whye Ln, Singapore 681118",Plugshare,1,FALSE,,FALSE,2023-05-27 17:48:35.390693
101684ef-cc36-480a-9712-25df46c4b77c,Kim Chuan-Tai Seng by EVone Charging,1.33778,103.891319,"1005 Tai Seng Ave, #01-2576",Plugshare,1,FALSE,,TRUE,2023-05-27 17:48:35.390693
b520b024-4381-44e9-a92e-cb4d56f4086c,"BlueSG open to EVs: Blk 165, Yishun Ring Road",1.435556,103.831963,"165 Yishun Ring Rd, Singapore 760165",Plugshare,4,FALSE,,FALSE,2023-05-27 17:48:35.390693
7684607b-f4df-41f8-b284-291a2622897e,Pan Pacific Serviced Suites Beach Road,1.299576,103.860151,7500B Beach Road,Plugshare,6,FALSE,,TRUE,2023-05-27 17:48:35.390693
55bac571-edbb-4e37-9822-fb7859f103e3,MILLENIA PRIVATE LIMITED,1.291937,103.859741,"#B1-01 MILLENIA TOWERSINGAPORE, Singapore, 039192",Shell,4,TRUE,24,TRUE,2023-05-27 17:48:35.390693
3a4fc6dd-4ece-45b8-81e5-6c6c96a8e245,SHELL TELOK BLANGAH 621_01,1.270383,103.812867,"450 TELOK BLANGAH ROADSINGAPORE, Singapore, 098857",Shell,4,TRUE,26,TRUE,2023-05-27 17:48:35.390693
da1bb453-dc24-407c-a02f-4a1e7b44a558,SUNTEC CITY (6 ZONES),1.29448,103.858305,"3 TEMASEK BOULEVARDSINGAPORE, Singapore, 038983",Shell,4,TRUE,21,TRUE,2023-05-27 17:48:35.390693
5bbc41ff-de3f-4df5-9f1e-5b16655d5a7e,SHELL 305 OUTRAM 661_01.,1.28774,103.835,"305 OUTRAM ROADSINGAPORE, Singapore, 169072",Shell,4,TRUE,24,TRUE,2023-05-27 17:48:35.390693
c9e81d6f-b337-4bbf-86e4-d9ef8fbca016,SHELL HAVELOCK 669_01.,1.290006,103.832466,"548 HAVELOCK ROADSINGAPORE, Singapore, 169637",Shell,4,TRUE,22,TRUE,2023-05-27 17:48:35.390693
6d0af5fe-af1c-40cc-962b-38ccd9e52b92,SHELL EAST COAST 631_01,1.308193,103.909796,"338 EAST COAST ROADSINGAPORE, Singapore, 428961",Shell,4,TRUE,23,TRUE,2023-05-27 17:48:35.390693
234ee9dc-69d9-4420-abe3-bf6539aaf112,SHELL DUNMAN 639_01,1.309721,103.900959,"743 DUNMAN ROADSINGAPORE, Singapore, 439241",Shell,4,TRUE,19,TRUE,2023-05-27 17:48:35.390693
729ce03d-a178-4a97-bf0b-5e2177ae5c22,SHELL TANJONG KATONG 650_01,1.310955,103.894427,"191 TANJONG KATONG ROADSINGAPORE, Singapore, 436993",Shell,4,TRUE,27,TRUE,2023-05-27 17:48:35.390693
bd34273a-2b84-4044-b298-f22f46de09eb,SHELL GUILLEMARD 662_01,1.310577,103.883834,"132 GUILLEMARD ROADSINGAPORE, Singapore, 399720",Shell,4,TRUE,23,TRUE,2023-05-27 17:48:35.390693
8f2af480-47dd-4641-b8cf-482591f70c2c,SHELL TIONG BAHRU 629_01,1.288301,103.819613,"603 TIONG BAHRU ROADSINGAPORE, Singapore, 158788",Shell,4,TRUE,24,TRUE,2023-05-27 17:48:35.390693
b3cc841c-cbc5-42ab-a62e-8286e0326640,SHELL SIGLAP 602_01,1.312499,103.926555,"40 UPPER EAST COAST ROADSINGAPORE, Singapore, 455212",Shell,4,TRUE,19,TRUE,2023-05-27 17:48:35.390693
ea8c97d3-19be-4e2e-a8e6-08826cc1ea6a,SHELL GEYLANG LOR 7 668_01,1.311984,103.875625,"203 GEYLANG ROADSINGAPORE, Singapore, 389266",Shell,4,TRUE,26,TRUE,2023-05-27 17:48:35.390693
3a4ef07f-77af-4ba4-a279-e82fd04e215a,SHELL CHANGI KEMBANGAN 601_01,1.318787,103.912929,"460 CHANGI ROADSINGAPORE, Singapore, 419883",Shell,4,TRUE,29,TRUE,2023-05-27 17:48:35.390693
7dab1f58-e684-4779-9d56-e23b4ae476ee,KOMOCO MOTORS - EV,1.291688,103.810306,"253 ALEXANDRA ROAD #01-01SINGAPORE, Singapore, 159936",Shell,4,TRUE,18,TRUE,2023-05-27 17:48:35.390693
d792ad6b-a155-4be7-99fe-c302fefd484f,SHELL ALEXANDRA 651_01,1.290666,103.806853,"358 ALEXANDRA ROADSINGAPORE, Singapore, 159950",Shell,4,TRUE,22,TRUE,2023-05-27 17:48:35.390693
ea10dfeb-52aa-4adb-840e-3b4373418fab,SHELL SERANGOON RD 645_01,1.314435,103.857134,"509 SERANGOON ROADSINGAPORE, Singapore, 218152",Shell,4,TRUE,25,TRUE,2023-05-27 17:48:35.390693
72ce36e0-8dab-4521-a155-1f63406e717e,SHELL 168 PASIR PANJANG 635_01,1.277511,103.789709,"168 PASIR PANJANG ROADSINGAPORE, Singapore, 118556",Shell,4,TRUE,30,TRUE,2023-05-27 17:48:35.390693
d17decd3-fe0d-4ab0-94b7-4e68e4df7609,SHELL Q'WAY ANCHORAGE 640_01,1.289379,103.802905,"260 QUEENSWAYSINGAPORE, Singapore, 149060",Shell,4,TRUE,28,TRUE,2023-05-27 17:48:35.390693
2dc7bd9d-8d47-4a5e-ab04-efee5a55f4d4,SHELL PAYA LEBAR PIE 627_01,1.321708,103.891643,"98 PAYA LEBAR ROADSINGAPORE, Singapore, 409008",Shell,4,TRUE,27,TRUE,2023-05-27 17:48:35.390693
f894ff3e-547a-4d33-b9f1-a6abac858c17,SHELL NEWTON HOOPER RD 643_01,1.311378,103.843095,"150 BUKIT TIMAH ROADSINGAPORE, Singapore, 229846",Shell,4,TRUE,29,TRUE,2023-05-27 17:48:35.390693
e1b81eda-788f-46e2-a70d-a5fbffd0da94,SHELL NEWTON CIRCUS 655_01,1.311142,103.842285,"143 BUKIT TIMAH RDSINGAPORE, Singapore, 229843",Shell,4,TRUE,26,TRUE,2023-05-27 17:48:35.390693
7ac3b7f8-df3a-466b-808c-af7b1c69a141,CUSCADEN TANGLIN MALL,1.304805,103.823901,"163 TANGLIN ROAD B2-01 TANGLIN MALLSINGAPORE, Singapore, 247933",Shell,4,TRUE,21,TRUE,2023-05-27 17:48:35.390693
847a83ad-8526-4cb4-8eab-25aa8a96e1ad,SHELL MOULMEIN 632_01,1.318876,103.849692,"103 MOULMEIN ROADSINGAPORE, Singapore, 308080",Shell,4,TRUE,21,TRUE,2023-05-27 17:48:35.390693
15d2e83b-fef0-454b-9dd4-4d78e6a65c7b,SHELL CWEALTH/STIRLING 612_01,1.297515,103.803366,"355 COMMONWEALTH AVENUESINGAPORE, Singapore, 149731",Shell,4,TRUE,29,TRUE,2023-05-27 17:48:35.390693
ab312bed-2976-4fb3-a0e8-55fe7da231ca,SHELL P.LEBAR M'PHERSON 638_01,1.331822,103.888725,"255 PAYA LEBAR ROADSINGAPORE, Singapore, 409037",Shell,4,TRUE,30,TRUE,2023-05-27 17:48:35.390693
1f180343-15a0-413d-883e-05d9e6e4e8cc,SHELL MACPHERSON 617_01,1.331146,103.877749,"259 MACPHERSON ROADSINGAPORE, Singapore, 348584",Shell,4,TRUE,23,TRUE,2023-05-27 17:48:35.390693
5b38d0ba-5b2a-41ab-8345-2fe4e5cea5ff,SHELL THOMSON NOVENA 665_01,1.324175,103.842151,"324 THOMSON ROADSINGAPORE, Singapore, 307672",Shell,4,TRUE,27,TRUE,2023-05-27 17:48:35.390693
0d62cc4d-dbe3-4086-80fc-8100a3657ae8,SHELL SIMPANG BEDOK 623_01,1.330835,103.947557,"331 BEDOK ROADSINGAPORE, Singapore, 469504",Shell,4,TRUE,26,TRUE,2023-05-27 17:48:35.390693
8ca89a9b-2a60-4374-8e64-433860b7c870,SHELL 328 PASIR PANJANG 646_01,1.289315,103.777853,"328 PASIR PANJANG ROADSINGAPORE, Singapore, 118654",Shell,4,TRUE,30,TRUE,2023-05-27 17:48:35.390693
27445515-6ffb-4145-b880-815f520fd9a8,SINGAPORE EXPO,1.3341,103.959,"02-01 SINGAPORE EXPOSINGAPORE, Singapore, 486150",Shell,4,TRUE,14,TRUE,2023-05-27 17:48:35.390693
e3dcee7d-4f5d-4734-8681-895c27d6044a,SHELL EASTERN PETROLEUM (PTE) LTD,1.305927,103.791651,"9 NORTH BOUNA VISTA DRI, BASEMENT 1SINGAPORE, Singapore, 138588",Shell,4,TRUE,33,TRUE,2023-05-27 17:48:35.390693
d64a34ad-632a-4302-8258-7d2a6b3e27a0,SHELL DUNEARN UNI 658_01,1.323306,103.817319,"314 DUNEARN ROADSINGAPORE, Singapore, 299551",Shell,4,TRUE,24,TRUE,2023-05-27 17:48:35.390693
15430e3b-2ecd-4c2e-950a-f58171cb8bbf,SHELL BRADDELL 642_01,1.344578,103.864639,"110 BRADDELL ROADSINGAPORE, Singapore, 359914",Shell,4,TRUE,21,TRUE,2023-05-27 17:48:35.390693
5a5fb0b3-61aa-4b6f-ab6c-e6a8ec811c79,SHELL TOA PAYOH 663_01,1.341095,103.848894,"248 LORONG 1 TOA PAYOHSINGAPORE, Singapore, 319755",Shell,4,TRUE,22,TRUE,2023-05-27 17:48:35.390693
44f84d58-34f3-4dd8-9cf1-9f2b8ea4fd86,SHELL HOUGANG 675_01.,1.349386,103.889993,"600 HOUGANG AVE 3SINGAPORE, Singapore, 538846",Shell,4,TRUE,21,TRUE,2023-05-27 17:48:35.390693
aa906a74-70c5-4ee6-b5f5-de0eebbde476,SHELL TAMPINES AVE 2,1.349153,103.947705,"9 TAMPINES AVENUE 2SINGAPORE, Singapore, 529731",Shell,4,TRUE,20,TRUE,2023-05-27 17:48:35.390693
d42caeba-111d-474d-9e5a-78f4f3093ef2,SHELL LAKEVIEW 657_01,1.347975,103.838557,"80 UPPER THOMSON ROADSINGAPORE, Singapore, 574326",Shell,4,TRUE,21,TRUE,2023-05-27 17:48:35.390693
0a2cd0a2-01cb-4e88-b9f2-553e328b5935,SHELL DUNEARN ENG NEO 666_01,1.331007,103.798941,"648 DUNEARN ROADSINGAPORE, Singapore, 289629",Shell,4,TRUE,28,TRUE,2023-05-27 17:48:35.390693
add337d4-cbcb-4058-9697-9018405930a3,SHELL SIN MING 625_01,1.351306,103.835411,"183A UPPER THOMSON ROADSINGAPORE, Singapore, 574332",Shell,4,TRUE,21,TRUE,2023-05-27 17:48:35.390693
1d4e75ea-da8c-4bc9-bf6e-24763b17c2db,SHELL YIO CHU KANG 633_01,1.360672,103.873902,"158 YIO CHU KANG ROADSINGAPORE, Singapore, 545612",Shell,4,TRUE,25,TRUE,2023-05-27 17:48:35.390693
793c7c6d-3144-4c2b-9efc-37be24c622a4,SHELL SGN GDN 606_01,1.363303,103.867444,"49 SERANGOON GARDEN WAYSINGAPORE, Singapore, 555944",Shell,4,TRUE,20,TRUE,2023-05-27 17:48:35.390693
1598e81d-2c81-4f44-ac10-d43a3c0b8510,EV LUMENS AUTO PTE LTD,1.359432,103.839865,"300 Sin Ming RoadSINGAPORE, Singapore, 575626",Shell,4,TRUE,22,TRUE,2023-05-27 17:48:35.390693
2da7d1d3-bd97-4281-8ae6-e6f7da669d47,SHELL PASIR RIS 607_01,1.365855,103.967185,"1 NEW LOYANG LINKSINGAPORE, Singapore, 506931",Shell,4,TRUE,22,TRUE,2023-05-27 17:48:35.390693
fc61c98a-8611-4df8-bdfc-0c85da633885,SHELL ANG MO KIO AVE 6 670_01,1.367955,103.844734,"3535 ANG MO KIO, AVENUE 6SINGAPORE, Singapore, 569839",Shell,4,TRUE,29,TRUE,2023-05-27 17:48:35.390693
81d21d51-ef18-4a56-a5ac-ac1a92933354,SHELL UPP BT TIMAH PIE 659_01,1.338636,103.776808,"35 UPPER BUKIT TIMAH ROADSINGAPORE, Singapore, 588166",Shell,4,TRUE,29,TRUE,2023-05-27 17:48:35.390693
f970cb6e-af90-49f6-a9dd-332b41314477,SHELL PIERCE RESERVOIR 636_01,1.369931,103.828086,"551 UPPER THOMSON ROADSINGAPORE, Singapore, 574415",Shell,4,TRUE,29,TRUE,2023-05-27 17:48:35.390693
541692f9-069a-4fb5-bd5b-409db32f3192,SHELL SELETAR HILLS 613_01,1.383614,103.877004,"298 YIO CHU KANG ROADSINGAPORE, Singapore, 805908",Shell,4,TRUE,26,TRUE,2023-05-27 17:48:35.390693
feab507c-fb48-45e5-8217-8b684f91d4dc,SHELL BT TIMAH HILL 667_01,1.345916,103.772113,"219 UPPER BUKIT TIMAH ROADSINGAPORE, Singapore, 588186",Shell,4,TRUE,26,TRUE,2023-05-27 17:48:35.390693
5949ea06-80c0-4999-b957-595bf13793a0,EV SINGAPORE AERO ENGINE,1.373256,103.982242,"11 CALSHOT ROADSINGAPORE, Singapore, 509932",Shell,4,TRUE,24,TRUE,2023-05-27 17:48:35.390693
a8e43a33-e23d-42c8-b9e3-78c0735f309a,SHELL BT BATOK NP 630_01,1.347664,103.764828,"28 BUKIT BATOK EAST AVENUE 6SINGAPORE, Singapore, 659760",Shell,4,TRUE,24,TRUE,2023-05-27 17:48:35.390693
